{"type":"FeatureCollection","metadata":{"generated_at":"2026-08-11T11:30:48.908Z","source":"OpenStreetMap contributors","licence":"ODbL 1.0","api_source":"https://api.openstreetmap.org/api/0.6","wikidata_source":"https://www.wikidata.org/w/api.php","wikidata_entity_count":66,"suuralue_count":12,"pienalue_count":55,"expected_pienalue_count":60,"unresolved_pienalue_count":5,"unresolved_note":"The configured OSM hierarchy currently contains no admin_level=10 child relations for Vähäkyrö."},"features":[{"type":"Feature","id":"relation/11930884","properties":{"name":"Hietalahti 10","ref":"","level":"pienalue","admin_level":10,"osm_relation_id":11930884,"parent_slug":"keskusta","parent_name":"Keskusta","parent_name_fi":"Keskusta","parent_name_en":"Keskusta major district","parent_name_fa":"مرکز شهر واسا","parent_ref":"01","parent_osm_relation_id":11930886,"outer_way_ids":[876249654,876249650,1540323468,876249657,876249656],"source":"OpenStreetMap relation 11930884; source tag: Vaasan kaupungin paikkatietopalvelut 2016","name_fi":"Hietalahti 10","name_en":"Hietalahti 10","name_fa":null,"wikidata_id":"Q131387707","wikipedia_fi":null,"wikipedia_fa":null},"geometry":{"type":"Polygon","coordinates":[[[21.6174974,63.0900393],[21.6187695,63.0886161],[21.6175173,63.0883837],[21.6201617,63.0852225],[21.6199518,63.0839715],[21.6182755,63.0756656],[21.6315791,63.0801974],[21.6380209,63.0823914],[21.6355843,63.0830464],[21.6340671,63.0835421],[21.6318765,63.084422],[21.6237859,63.0879074],[21.6227448,63.0877116],[21.6202408,63.0905185],[21.6186855,63.0902468],[21.6174974,63.0900393]]]}},{"type":"Feature","id":"relation/11930883","properties":{"name":"Hietalahti 9","ref":"","level":"pienalue","admin_level":10,"osm_relation_id":11930883,"parent_slug":"keskusta","parent_name":"Keskusta","parent_name_fi":"Keskusta","parent_name_en":"Keskusta major district","parent_name_fa":"مرکز شهر واسا","parent_ref":"01","parent_osm_relation_id":11930886,"outer_way_ids":[876249657,1540323468,876249640,876255168,1540323469,876273527,876249652,876273526],"source":"OpenStreetMap relation 11930883; source tag: Vaasan kaupungin paikkatietopalvelut 2016","name_fi":"Hietalahti 9","name_en":"Hietalahti 9","name_fa":null,"wikidata_id":"Q131387694","wikipedia_fi":null,"wikipedia_fa":null},"geometry":{"type":"Polygon","coordinates":[[[21.6380209,63.0823914],[21.6355843,63.0830464],[21.6340671,63.0835421],[21.6318765,63.084422],[21.6237859,63.0879074],[21.6227448,63.0877116],[21.6202408,63.0905185],[21.6354414,63.0932412],[21.6466505,63.0897737],[21.6494192,63.0889172],[21.6506677,63.088531],[21.6528987,63.0878408],[21.6412344,63.0815935],[21.6384035,63.0822885],[21.6380209,63.0823914]]]}},{"type":"Feature","id":"relation/11930876","properties":{"name":"Keskusta 1","ref":"","level":"pienalue","admin_level":10,"osm_relation_id":11930876,"parent_slug":"keskusta","parent_name":"Keskusta","parent_name_fi":"Keskusta","parent_name_en":"Keskusta major district","parent_name_fa":"مرکز شهر واسا","parent_ref":"01","parent_osm_relation_id":11930886,"outer_way_ids":[876249641,876255163,876249642,876249633,1540323466,876249636,1540323442,876249638,876260542,876249651,876249630,1540323444,876249632,876249644],"source":"OpenStreetMap relation 11930876; source tag: Vaasan kaupungin paikkatietopalvelut 2016","name_fi":"Keskusta 1","name_en":"Keskusta 1","name_fa":null,"wikidata_id":"Q131387629","wikipedia_fi":"https://fi.wikipedia.org/wiki/1._kaupunginosa_(Vaasa)","wikipedia_fa":null},"geometry":{"type":"Polygon","coordinates":[[[21.6253071,63.0965836],[21.6163382,63.0949775],[21.6105223,63.0939359],[21.6052885,63.0929985],[21.6030957,63.0926058],[21.6015904,63.0923644],[21.600205,63.0921826],[21.5947075,63.0917781],[21.5927151,63.0917048],[21.5927877,63.0925492],[21.5930904,63.0960687],[21.5946166,63.0961843],[21.6005919,63.0954775],[21.6027707,63.0958334],[21.6041223,63.0942542],[21.609588,63.0952368],[21.6125063,63.0957614],[21.6154091,63.0962832],[21.6225533,63.0975674],[21.6235874,63.097198],[21.6253071,63.0965836]]]}},{"type":"Feature","id":"relation/11930885","properties":{"name":"Keskusta 11","ref":"","level":"pienalue","admin_level":10,"osm_relation_id":11930885,"parent_slug":"keskusta","parent_name":"Keskusta","parent_name_fi":"Keskusta","parent_name_en":"Keskusta major district","parent_name_fa":"مرکز شهر واسا","parent_ref":"01","parent_osm_relation_id":11930886,"outer_way_ids":[876249646,876249648,876249660,876249658,876249654,876249655],"source":"OpenStreetMap relation 11930885; source tag: Vaasan kaupungin paikkatietopalvelut 2016","name_fi":"Keskusta 11","name_en":"Keskusta 11","name_fa":null,"wikidata_id":"Q131387710","wikipedia_fi":"https://fi.wikipedia.org/wiki/11._kaupunginosa_(Vaasa)","wikipedia_fa":null},"geometry":{"type":"Polygon","coordinates":[[[21.6158877,63.0897635],[21.6081201,63.0884183],[21.6089654,63.0874582],[21.592096,63.0842755],[21.5914612,63.076657],[21.5913485,63.0753042],[21.6060288,63.0714933],[21.6182755,63.0756656],[21.6199518,63.0839715],[21.6201617,63.0852225],[21.6175173,63.0883837],[21.6187695,63.0886161],[21.6174974,63.0900393],[21.6158877,63.0897635]]]}},{"type":"Feature","id":"relation/11930879","properties":{"name":"Keskusta 2","ref":"","level":"pienalue","admin_level":10,"osm_relation_id":11930879,"parent_slug":"keskusta","parent_name":"Keskusta","parent_name_fi":"Keskusta","parent_name_en":"Keskusta major district","parent_name_fa":"مرکز شهر واسا","parent_ref":"01","parent_osm_relation_id":11930886,"outer_way_ids":[1540323442,876249638,876260545,876249637,876255162,876249634],"source":"OpenStreetMap relation 11930879; source tag: Vaasan kaupungin paikkatietopalvelut 2016","name_fi":"Keskusta 2","name_en":"Keskusta 2","name_fa":null,"wikidata_id":"Q131387650","wikipedia_fi":"https://fi.wikipedia.org/wiki/2._kaupunginosa_(Vaasa)","wikipedia_fa":null},"geometry":{"type":"Polygon","coordinates":[[[21.6041223,63.0942542],[21.609588,63.0952368],[21.6046894,63.1008491],[21.6043139,63.1010472],[21.6013426,63.1025],[21.5932587,63.099135],[21.5930904,63.0960687],[21.5946166,63.0961843],[21.6005919,63.0954775],[21.6027707,63.0958334],[21.6041223,63.0942542]]]}},{"type":"Feature","id":"relation/11930878","properties":{"name":"Keskusta 3","ref":"","level":"pienalue","admin_level":10,"osm_relation_id":11930878,"parent_slug":"keskusta","parent_name":"Keskusta","parent_name_fi":"Keskusta","parent_name_en":"Keskusta major district","parent_name_fa":"مرکز شهر واسا","parent_ref":"01","parent_osm_relation_id":11930886,"outer_way_ids":[876249634,876249639,876249635,1540323466,876249636],"source":"OpenStreetMap relation 11930878; source tag: Vaasan kaupungin paikkatietopalvelut 2016","name_fi":"Keskusta 3","name_en":"Keskusta 3","name_fa":null,"wikidata_id":"Q131387664","wikipedia_fi":"https://fi.wikipedia.org/wiki/3._kaupunginosa_(Vaasa)","wikipedia_fa":null},"geometry":{"type":"Polygon","coordinates":[[[21.609588,63.0952368],[21.6046894,63.1008491],[21.6043139,63.1010472],[21.6049957,63.1010907],[21.6052682,63.1011004],[21.605496,63.1011048],[21.6059083,63.1011029],[21.6062135,63.1010916],[21.6065586,63.1010677],[21.6068792,63.101041],[21.6071762,63.1010103],[21.6077401,63.1009402],[21.608441,63.1008518],[21.6121296,63.100112],[21.6154091,63.0962832],[21.6125063,63.0957614],[21.609588,63.0952368]]]}},{"type":"Feature","id":"relation/11930877","properties":{"name":"Keskusta 4","ref":"","level":"pienalue","admin_level":10,"osm_relation_id":11930877,"parent_slug":"keskusta","parent_name":"Keskusta","parent_name_fi":"Keskusta","parent_name_en":"Keskusta major district","parent_name_fa":"مرکز شهر واسا","parent_ref":"01","parent_osm_relation_id":11930886,"outer_way_ids":[876249631,876249635,876249633],"source":"OpenStreetMap relation 11930877; source tag: Vaasan kaupungin paikkatietopalvelut 2016","name_fi":"Keskusta 4","name_en":"Keskusta 4","name_fa":null,"wikidata_id":"Q131387666","wikipedia_fi":null,"wikipedia_fa":null},"geometry":{"type":"Polygon","coordinates":[[[21.6121296,63.100112],[21.6156818,63.0994185],[21.6188092,63.0987315],[21.6201859,63.0983383],[21.6225533,63.0975674],[21.6154091,63.0962832],[21.6121296,63.100112]]]}},{"type":"Feature","id":"relation/11930882","properties":{"name":"Keskusta 6","ref":"","level":"pienalue","admin_level":10,"osm_relation_id":11930882,"parent_slug":"keskusta","parent_name":"Keskusta","parent_name_fi":"Keskusta","parent_name_en":"Keskusta major district","parent_name_fa":"مرکز شهر واسا","parent_ref":"01","parent_osm_relation_id":11930886,"outer_way_ids":[876249646,876249643,876249632,1540323444,876249630,876249649],"source":"OpenStreetMap relation 11930882; source tag: Vaasan kaupungin paikkatietopalvelut 2016","name_fi":"Keskusta 6","name_en":"Keskusta 6","name_fa":null,"wikidata_id":"Q131387672","wikipedia_fi":"https://fi.wikipedia.org/wiki/6._kaupunginosa_(Vaasa)","wikipedia_fa":null},"geometry":{"type":"Polygon","coordinates":[[[21.6158877,63.0897635],[21.6081201,63.0884183],[21.6089654,63.0874582],[21.592096,63.0842755],[21.5927151,63.0917048],[21.5947075,63.0917781],[21.600205,63.0921826],[21.6015904,63.0923644],[21.6030957,63.0926058],[21.6052885,63.0929985],[21.6105223,63.0939359],[21.6129986,63.0910624],[21.6145242,63.0913277],[21.6158877,63.0897635]]]}},{"type":"Feature","id":"relation/11930881","properties":{"name":"Keskusta 7","ref":"","level":"pienalue","admin_level":10,"osm_relation_id":11930881,"parent_slug":"keskusta","parent_name":"Keskusta","parent_name_fi":"Keskusta","parent_name_en":"Keskusta major district","parent_name_fa":"مرکز شهر واسا","parent_ref":"01","parent_osm_relation_id":11930886,"outer_way_ids":[876249644,876249643,876249655,876249650,876249645],"source":"OpenStreetMap relation 11930881; source tag: Vaasan kaupungin paikkatietopalvelut 2016","name_fi":"Keskusta 7","name_en":"Keskusta 7","name_fa":null,"wikidata_id":"Q131387675","wikipedia_fi":"https://fi.wikipedia.org/wiki/7._kaupunginosa_(Vaasa)","wikipedia_fa":null},"geometry":{"type":"Polygon","coordinates":[[[21.6163382,63.0949775],[21.6105223,63.0939359],[21.6129986,63.0910624],[21.6145242,63.0913277],[21.6158877,63.0897635],[21.6174974,63.0900393],[21.6186855,63.0902468],[21.6202408,63.0905185],[21.6163382,63.0949775]]]}},{"type":"Feature","id":"relation/11930880","properties":{"name":"Keskusta 8","ref":"","level":"pienalue","admin_level":10,"osm_relation_id":11930880,"parent_slug":"keskusta","parent_name":"Keskusta","parent_name_fi":"Keskusta","parent_name_en":"Keskusta major district","parent_name_fa":"مرکز شهر واسا","parent_ref":"01","parent_osm_relation_id":11930886,"outer_way_ids":[876249653,876249640,876249645,876249641],"source":"OpenStreetMap relation 11930880; source tag: Vaasan kaupungin paikkatietopalvelut 2016","name_fi":"Keskusta 8","name_en":"Keskusta 8","name_fa":null,"wikidata_id":"Q131387681","wikipedia_fi":"https://fi.wikipedia.org/wiki/8._kaupunginosa_(Vaasa)","wikipedia_fa":null},"geometry":{"type":"Polygon","coordinates":[[[21.6354414,63.0932412],[21.6331732,63.0939706],[21.6255164,63.0964327],[21.6253071,63.0965836],[21.6163382,63.0949775],[21.6202408,63.0905185],[21.6354414,63.0932412]]]}},{"type":"Feature","id":"relation/11930927","properties":{"name":"Klemettilä","ref":"","level":"pienalue","admin_level":10,"osm_relation_id":11930927,"parent_slug":"voyrinkaupunki","parent_name":"Vöyrinkaupunki","parent_name_fi":"Vöyrinkaupunki","parent_name_en":"Vöyrinkaupunki major district","parent_name_fa":"وورین‌کاوپونکی","parent_ref":"02","parent_osm_relation_id":11930928,"outer_way_ids":[876249653,876249642,876255166,876332284,876255167,1540323469,876255168],"source":"OpenStreetMap relation 11930927; source tag: Vaasan kaupungin paikkatietopalvelut 2016","name_fi":"Klemettilä","name_en":"Klemettilä","name_fa":"کلمتیله","wikidata_id":"Q56401339","wikipedia_fi":"https://fi.wikipedia.org/wiki/Klemettil%C3%A4_(Vaasa)","wikipedia_fa":"https://fa.wikipedia.org/wiki/%DA%A9%D9%84%D9%85%D8%AA%DB%8C%D9%84%D9%87"},"geometry":{"type":"Polygon","coordinates":[[[21.6354414,63.0932412],[21.6331732,63.0939706],[21.6255164,63.0964327],[21.6253071,63.0965836],[21.6235874,63.097198],[21.6242839,63.0976201],[21.6255321,63.0982712],[21.6255549,63.098343],[21.6260478,63.0985839],[21.6348566,63.1000464],[21.6381055,63.1010459],[21.6418266,63.10257],[21.6570008,63.0960592],[21.65764,63.0956991],[21.6568134,63.0953004],[21.6563589,63.0953085],[21.655424,63.0920069],[21.653677,63.0924646],[21.6549456,63.0907127],[21.654049,63.090582],[21.6546927,63.0895236],[21.6506677,63.088531],[21.6494192,63.0889172],[21.6466505,63.0897737],[21.6354414,63.0932412]]]}},{"type":"Feature","id":"relation/11930925","properties":{"name":"Vöyrinkaupunki eteläinen","ref":"","level":"pienalue","admin_level":10,"osm_relation_id":11930925,"parent_slug":"voyrinkaupunki","parent_name":"Vöyrinkaupunki","parent_name_fi":"Vöyrinkaupunki","parent_name_en":"Vöyrinkaupunki major district","parent_name_fa":"وورین‌کاوپونکی","parent_ref":"02","parent_osm_relation_id":11930928,"outer_way_ids":[876249631,876249639,876255162,876255165,876255161,876255169,876255166,876255163],"source":"OpenStreetMap relation 11930925; source tag: Vaasan kaupungin paikkatietopalvelut 2016","name_fi":"Vöyrinkaupunki eteläinen","name_en":"Vöyrinkaupunki eteläinen","name_fa":null,"wikidata_id":"Q131387862","wikipedia_fi":null,"wikipedia_fa":null},"geometry":{"type":"Polygon","coordinates":[[[21.6121296,63.100112],[21.6156818,63.0994185],[21.6188092,63.0987315],[21.6201859,63.0983383],[21.6225533,63.0975674],[21.6235874,63.097198],[21.6242839,63.0976201],[21.6255321,63.0982712],[21.6255549,63.098343],[21.6260478,63.0985839],[21.6348566,63.1000464],[21.6381055,63.1010459],[21.6418266,63.10257],[21.6415087,63.1026362],[21.6397097,63.1034563],[21.6389351,63.1031662],[21.6300139,63.1066376],[21.6291941,63.1058799],[21.6292302,63.1057639],[21.6213597,63.1043519],[21.6226617,63.1028544],[21.6143732,63.1013594],[21.6117614,63.1041986],[21.6095185,63.1038143],[21.6089248,63.1044024],[21.6067833,63.1065238],[21.6025389,63.1030737],[21.6013426,63.1025],[21.6043139,63.1010472],[21.6049957,63.1010907],[21.6052682,63.1011004],[21.605496,63.1011048],[21.6059083,63.1011029],[21.6062135,63.1010916],[21.6065586,63.1010677],[21.6068792,63.101041],[21.6071762,63.1010103],[21.6077401,63.1009402],[21.608441,63.1008518],[21.6121296,63.100112]]]}},{"type":"Feature","id":"relation/11930926","properties":{"name":"Vöyrinkaupunki pohjoinen","ref":"","level":"pienalue","admin_level":10,"osm_relation_id":11930926,"parent_slug":"voyrinkaupunki","parent_name":"Vöyrinkaupunki","parent_name_fi":"Vöyrinkaupunki","parent_name_en":"Vöyrinkaupunki major district","parent_name_fa":"وورین‌کاوپونکی","parent_ref":"02","parent_osm_relation_id":11930928,"outer_way_ids":[876265314,1540323447,876255161,876255164,876326918,876315750,876265317],"source":"OpenStreetMap relation 11930926; source tag: Vaasan kaupungin paikkatietopalvelut 2016","name_fi":"Vöyrinkaupunki pohjoinen","name_en":"Vöyrinkaupunki pohjoinen","name_fa":null,"wikidata_id":"Q131387879","wikipedia_fi":null,"wikipedia_fa":null},"geometry":{"type":"Polygon","coordinates":[[[21.6092209,63.1076318],[21.6099196,63.1079494],[21.6101112,63.1099246],[21.6148508,63.1128074],[21.6189074,63.1111569],[21.6223243,63.1097666],[21.6300139,63.1066376],[21.6291941,63.1058799],[21.6292302,63.1057639],[21.6213597,63.1043519],[21.6226617,63.1028544],[21.6143732,63.1013594],[21.6117614,63.1041986],[21.6095185,63.1038143],[21.6089248,63.1044024],[21.6067833,63.1065238],[21.6092209,63.1076318]]]}},{"type":"Feature","id":"relation/11931013","properties":{"name":"Niemeläntie","ref":"","level":"pienalue","admin_level":10,"osm_relation_id":11931013,"parent_slug":"vaskiluoto","parent_name":"Vaskiluoto","parent_name_fi":"Vaskiluoto","parent_name_en":"Vaskiluoto","parent_name_fa":"واسکی‌لوتو","parent_ref":"03","parent_osm_relation_id":11931015,"outer_way_ids":[876260546,876260547,876265320,876260543,876260545,876249651,876260544],"source":"OpenStreetMap relation 11931013; source tag: Vaasan kaupungin paikkatietopalvelut 2016","name_fi":"Niemeläntie","name_en":"Niemeläntie","name_fa":null,"wikidata_id":"Q108321379","wikipedia_fi":"https://fi.wikipedia.org/wiki/Niemel%C3%A4ntie","wikipedia_fa":null},"geometry":{"type":"Polygon","coordinates":[[[21.5799812,63.0896108],[21.5779368,63.08901],[21.5740597,63.0891509],[21.5737754,63.0912448],[21.5699346,63.0910721],[21.5698739,63.091244],[21.567844,63.091158],[21.5670454,63.0918859],[21.5656342,63.0927809],[21.5639684,63.0953272],[21.5563833,63.0999626],[21.5723159,63.1073608],[21.5844991,63.1025758],[21.591545,63.0998082],[21.5932587,63.099135],[21.5930904,63.0960687],[21.5927877,63.0925492],[21.5891633,63.0922585],[21.5879547,63.0921615],[21.5872105,63.0918098],[21.5799812,63.0896108]]]}},{"type":"Feature","id":"relation/11931012","properties":{"name":"Satama","ref":"","level":"pienalue","admin_level":10,"osm_relation_id":11931012,"parent_slug":"vaskiluoto","parent_name":"Vaskiluoto","parent_name_fi":"Vaskiluoto","parent_name_en":"Vaskiluoto","parent_name_fa":"واسکی‌لوتو","parent_ref":"03","parent_osm_relation_id":11931015,"outer_way_ids":[876260540,876260544,876249647,876249648,876249649,876260542],"source":"OpenStreetMap relation 11931012; source tag: Vaasan kaupungin paikkatietopalvelut 2016","name_fi":"Satama","name_en":"Satama","name_fa":null,"wikidata_id":"Q108321354","wikipedia_fi":"https://fi.wikipedia.org/wiki/Satama_(Vaasa)","wikipedia_fa":null},"geometry":{"type":"Polygon","coordinates":[[[21.5799812,63.0896108],[21.5802027,63.0894604],[21.5747397,63.0878065],[21.57362,63.0875944],[21.5723683,63.0874763],[21.5612449,63.0878764],[21.56092,63.0881847],[21.561001,63.0887594],[21.5615855,63.0887368],[21.5618136,63.08961],[21.5613359,63.0895903],[21.5612963,63.0897668],[21.5514333,63.0893453],[21.551098,63.0891421],[21.5511369,63.0886984],[21.5483555,63.0885715],[21.5460008,63.0870728],[21.5913485,63.0753042],[21.5914612,63.076657],[21.592096,63.0842755],[21.5927151,63.0917048],[21.5927877,63.0925492],[21.5891633,63.0922585],[21.5879547,63.0921615],[21.5872105,63.0918098],[21.5799812,63.0896108]]]}},{"type":"Feature","id":"relation/11931014","properties":{"name":"Sokeri","ref":"","level":"pienalue","admin_level":10,"osm_relation_id":11931014,"parent_slug":"vaskiluoto","parent_name":"Vaskiluoto","parent_name_fi":"Vaskiluoto","parent_name_en":"Vaskiluoto","parent_name_fa":"واسکی‌لوتو","parent_ref":"03","parent_osm_relation_id":11931015,"outer_way_ids":[876260546,876260541,876283919,876260540],"source":"OpenStreetMap relation 11931014; source tag: Vaasan kaupungin paikkatietopalvelut 2016","name_fi":"Sokeri","name_en":"Sokeri","name_fa":null,"wikidata_id":"Q108321317","wikipedia_fi":"https://fi.wikipedia.org/wiki/Sokeri_(Vaasa)","wikipedia_fa":null},"geometry":{"type":"Polygon","coordinates":[[[21.5799812,63.0896108],[21.5779368,63.08901],[21.5740597,63.0891509],[21.5737754,63.0912448],[21.5699346,63.0910721],[21.5698739,63.091244],[21.567844,63.091158],[21.5670454,63.0918859],[21.5656342,63.0927809],[21.5639684,63.0953272],[21.5563833,63.0999626],[21.5515986,63.0977404],[21.5348571,63.089964],[21.5425446,63.0879695],[21.5460008,63.0870728],[21.5483555,63.0885715],[21.5511369,63.0886984],[21.551098,63.0891421],[21.5514333,63.0893453],[21.5612963,63.0897668],[21.5613359,63.0895903],[21.5618136,63.08961],[21.5615855,63.0887368],[21.561001,63.0887594],[21.56092,63.0881847],[21.5612449,63.0878764],[21.5723683,63.0874763],[21.57362,63.0875944],[21.5747397,63.0878065],[21.5802027,63.0894604],[21.5799812,63.0896108]]]}},{"type":"Feature","id":"relation/11931111","properties":{"name":"Onkilahden ranta","ref":"","level":"pienalue","admin_level":10,"osm_relation_id":11931111,"parent_slug":"palosaari","parent_name":"Palosaari","parent_name_fi":"Palosaari","parent_name_en":"Palosaari","parent_name_fa":"پالوساری (واسا)","parent_ref":"04","parent_osm_relation_id":11931113,"outer_way_ids":[876265321,876265324,876265319,1540323446,876265314,1540323447,876255165],"source":"OpenStreetMap relation 11931111; source tag: Vaasan kaupungin paikkatietopalvelut 2016","name_fi":"Onkilahden ranta","name_en":null,"name_fa":null,"wikidata_id":null,"wikipedia_fi":null,"wikipedia_fa":null},"geometry":{"type":"Polygon","coordinates":[[[21.6013426,63.1025],[21.5913926,63.107265],[21.5974757,63.1099615],[21.6046667,63.108489],[21.6057011,63.1093822],[21.6065137,63.1093796],[21.6069233,63.1093783],[21.6101112,63.1099246],[21.6099196,63.1079494],[21.6092209,63.1076318],[21.6067833,63.1065238],[21.6025389,63.1030737],[21.6013426,63.1025]]]}},{"type":"Feature","id":"relation/11931110","properties":{"name":"Palosaaren keskus","ref":"","level":"pienalue","admin_level":10,"osm_relation_id":11931110,"parent_slug":"palosaari","parent_name":"Palosaari","parent_name_fi":"Palosaari","parent_name_en":"Palosaari","parent_name_fa":"پالوساری (واسا)","parent_ref":"04","parent_osm_relation_id":11931113,"outer_way_ids":[876265315,876265323,876265324],"source":"OpenStreetMap relation 11931110; source tag: Vaasan kaupungin paikkatietopalvelut 2016","name_fi":"Palosaaren keskus","name_en":"Palosaari center","name_fa":"مرکز پالوساری","wikidata_id":"Q108321714","wikipedia_fi":"https://fi.wikipedia.org/wiki/Palosaaren_keskus","wikipedia_fa":"https://fa.wikipedia.org/wiki/%D9%85%D8%B1%DA%A9%D8%B2_%D9%BE%D8%A7%D9%84%D9%88%D8%B3%D8%A7%D8%B1%DB%8C"},"geometry":{"type":"Polygon","coordinates":[[[21.5974757,63.1099615],[21.5851822,63.1124788],[21.5849449,63.1120189],[21.5860527,63.1114764],[21.5888904,63.108491],[21.5913926,63.107265],[21.5974757,63.1099615]]]}},{"type":"Feature","id":"relation/11931109","properties":{"name":"Sunti","ref":"","level":"pienalue","admin_level":10,"osm_relation_id":11931109,"parent_slug":"palosaari","parent_name":"Palosaari","parent_name_fi":"Palosaari","parent_name_en":"Palosaari","parent_name_fa":"پالوساری (واسا)","parent_ref":"04","parent_osm_relation_id":11931113,"outer_way_ids":[876265318,876260543,876265316,876265322,876265323],"source":"OpenStreetMap relation 11931109; source tag: Vaasan kaupungin paikkatietopalvelut 2016","name_fi":"Sunti","name_en":"Sunti","name_fa":"سونتی","wikidata_id":"Q108321655","wikipedia_fi":"https://fi.wikipedia.org/wiki/Sunti","wikipedia_fa":"https://fa.wikipedia.org/wiki/%D8%B3%D9%88%D9%86%D8%AA%DB%8C"},"geometry":{"type":"Polygon","coordinates":[[[21.5913926,63.107265],[21.588097,63.1058041],[21.5883283,63.1056308],[21.5882913,63.1055178],[21.5880581,63.1054702],[21.5878137,63.105449],[21.5875591,63.1054552],[21.5871359,63.1055043],[21.5869289,63.1054578],[21.5864319,63.1039117],[21.5844991,63.1025758],[21.5723159,63.1073608],[21.5819133,63.1131481],[21.582346,63.1130595],[21.5851822,63.1124788],[21.5849449,63.1120189],[21.5860527,63.1114764],[21.5888904,63.108491],[21.5913926,63.107265]]]}},{"type":"Feature","id":"relation/11931108","properties":{"name":"Vikinga","ref":"","level":"pienalue","admin_level":10,"osm_relation_id":11931108,"parent_slug":"palosaari","parent_name":"Palosaari","parent_name_fi":"Palosaari","parent_name_en":"Palosaari","parent_name_fa":"پالوساری (واسا)","parent_ref":"04","parent_osm_relation_id":11931113,"outer_way_ids":[876315774,876265313,876315747,876265322,876265315,876265319,1540323446,876265317],"source":"OpenStreetMap relation 11931108; source tag: Vaasan kaupungin paikkatietopalvelut 2016","name_fi":"Vikinga","name_en":"Vikinga","name_fa":"ویکینگا","wikidata_id":"Q11901404","wikipedia_fi":"https://fi.wikipedia.org/wiki/Vikinga","wikipedia_fa":"https://fa.wikipedia.org/wiki/%D9%88%DB%8C%DA%A9%DB%8C%D9%86%DA%AF%D8%A7"},"geometry":{"type":"Polygon","coordinates":[[[21.5990413,63.1186176],[21.5993107,63.1186819],[21.6041701,63.1198405],[21.6068499,63.1174425],[21.6076124,63.1172524],[21.6085586,63.1167011],[21.6127389,63.114628],[21.6148508,63.1128074],[21.6101112,63.1099246],[21.6069233,63.1093783],[21.6065137,63.1093796],[21.6057011,63.1093822],[21.6046667,63.108489],[21.5974757,63.1099615],[21.5851822,63.1124788],[21.582346,63.1130595],[21.5819133,63.1131481],[21.5857143,63.1154399],[21.5990413,63.1186176]]]}},{"type":"Feature","id":"relation/11931112","properties":{"name":"Yliopisto","ref":"","level":"pienalue","admin_level":10,"osm_relation_id":11931112,"parent_slug":"palosaari","parent_name":"Palosaari","parent_name_fi":"Palosaari","parent_name_en":"Palosaari","parent_name_fa":"پالوساری (واسا)","parent_ref":"04","parent_osm_relation_id":11931113,"outer_way_ids":[876265321,876265318,876265320,876249637],"source":"OpenStreetMap relation 11931112; source tag: Vaasan kaupungin paikkatietopalvelut 2016","name_fi":"Yliopisto","name_en":"Yliopisto","name_fa":"دانشگاه (منطقه کوچک واسا)","wikidata_id":"Q108321562","wikipedia_fi":"https://fi.wikipedia.org/wiki/Yliopisto_(Vaasa)","wikipedia_fa":"https://fa.wikipedia.org/wiki/%D8%AF%D8%A7%D9%86%D8%B4%DA%AF%D8%A7%D9%87_(%D9%85%D9%86%D8%B7%D9%82%D9%87_%DA%A9%D9%88%DA%86%DA%A9_%D9%88%D8%A7%D8%B3%D8%A7)"},"geometry":{"type":"Polygon","coordinates":[[[21.6013426,63.1025],[21.5913926,63.107265],[21.588097,63.1058041],[21.5883283,63.1056308],[21.5882913,63.1055178],[21.5880581,63.1054702],[21.5878137,63.105449],[21.5875591,63.1054552],[21.5871359,63.1055043],[21.5869289,63.1054578],[21.5864319,63.1039117],[21.5844991,63.1025758],[21.591545,63.0998082],[21.5932587,63.099135],[21.6013426,63.1025]]]}},{"type":"Feature","id":"relation/11931680","properties":{"name":"Gerbyn kylä","ref":"","level":"pienalue","admin_level":10,"osm_relation_id":11931680,"parent_slug":"gerby","parent_name":"Gerby","parent_name_fi":"Gerby","parent_name_en":"Gerby major district","parent_name_fa":"گربو","parent_ref":"05","parent_osm_relation_id":11931679,"outer_way_ids":[876315755,876315756,876315751,876315770,876315771,876315768,876315763],"source":"OpenStreetMap relation 11931680","name_fi":"Gerbyn kylä","name_en":"Gerby","name_fa":"روستای یربو","wikidata_id":"Q108331770","wikipedia_fi":"https://fi.wikipedia.org/wiki/Gerby_(pienalue)","wikipedia_fa":"https://fa.wikipedia.org/wiki/%D8%B1%D9%88%D8%B3%D8%AA%D8%A7%DB%8C_%DB%8C%D8%B1%D8%A8%D9%88"},"geometry":{"type":"Polygon","coordinates":[[[21.6053344,63.157409],[21.6040223,63.1578271],[21.6041172,63.1571861],[21.6028877,63.1567638],[21.5890247,63.1520015],[21.5907727,63.1468714],[21.5973729,63.1446423],[21.596908,63.1436792],[21.5933531,63.1433812],[21.5938493,63.1426573],[21.5941575,63.141416],[21.5943635,63.1398973],[21.594375,63.1398194],[21.5944707,63.1391705],[21.5969652,63.139258],[21.5990024,63.1386175],[21.6007866,63.1383008],[21.6024992,63.1379942],[21.6032642,63.1376275],[21.6038432,63.137151],[21.6044255,63.1367205],[21.6057159,63.1361705],[21.6076752,63.135708],[21.6085334,63.1352843],[21.6109621,63.1345932],[21.6108377,63.1343264],[21.6097881,63.1333527],[21.6066298,63.1311125],[21.6075864,63.1309344],[21.6062292,63.1296725],[21.6064808,63.1293664],[21.6071935,63.1295617],[21.607583,63.1299489],[21.6103592,63.1301711],[21.610879,63.1298614],[21.6152031,63.1320241],[21.6155855,63.132704],[21.6178611,63.1325767],[21.6206554,63.1321438],[21.6251353,63.1308576],[21.6254844,63.131048],[21.630652,63.1305327],[21.645048,63.1475792],[21.6436313,63.1479226],[21.6429127,63.147014],[21.6417534,63.1472627],[21.6400899,63.1470866],[21.6393635,63.1468776],[21.6391779,63.1468241],[21.6382682,63.1465624],[21.6369164,63.1460841],[21.6354922,63.1462203],[21.6345034,63.1463198],[21.6343868,63.1463212],[21.6325102,63.1463188],[21.630179,63.1462306],[21.6286922,63.1461231],[21.6277075,63.149362],[21.6260566,63.1490597],[21.6198331,63.1477438],[21.6197589,63.1516301],[21.6160568,63.1544879],[21.6053344,63.157409]]]}},{"type":"Feature","id":"relation/11931690","properties":{"name":"Gerbyn niemi","ref":"","level":"pienalue","admin_level":10,"osm_relation_id":11931690,"parent_slug":"gerby","parent_name":"Gerby","parent_name_fi":"Gerby","parent_name_en":"Gerby major district","parent_name_fa":"گربو","parent_ref":"05","parent_osm_relation_id":11931679,"outer_way_ids":[876315777,876315766,1540323457,876315760,876315759,876315780],"source":"OpenStreetMap relation 11931690; source tag: Vaasan kaupungin paikkatietopalvelut 2016","name_fi":"Gerbyn niemi","name_en":"Gerbyn niemi","name_fa":"شبه‌جزیره یربو","wikidata_id":"Q108331618","wikipedia_fi":"https://fi.wikipedia.org/wiki/Gerbyn_niemi","wikipedia_fa":"https://fa.wikipedia.org/wiki/%D8%B4%D8%A8%D9%87%E2%80%8C%D8%AC%D8%B2%DB%8C%D8%B1%D9%87_%DB%8C%D8%B1%D8%A8%D9%88"},"geometry":{"type":"Polygon","coordinates":[[[21.5922881,63.1213055],[21.5960548,63.1253555],[21.5981768,63.1275947],[21.6009242,63.1282051],[21.6011645,63.1287436],[21.5940355,63.127924],[21.5904145,63.1268412],[21.5896086,63.1272751],[21.5889408,63.1276346],[21.5885833,63.1275045],[21.5879522,63.1272701],[21.5870116,63.1269443],[21.5861733,63.1266557],[21.5855182,63.1264463],[21.5843534,63.1262151],[21.5835315,63.1261529],[21.5832952,63.126135],[21.5824698,63.1261527],[21.5815872,63.1262153],[21.5795142,63.1265578],[21.5777607,63.1268728],[21.5759285,63.1272361],[21.5738372,63.1277661],[21.5720077,63.1281862],[21.5715886,63.1282693],[21.5697125,63.1286411],[21.5680217,63.1289665],[21.5668939,63.1292549],[21.5657429,63.1296391],[21.5654864,63.1294875],[21.5645549,63.12986],[21.5647689,63.1299825],[21.5645497,63.1300767],[21.5638377,63.1305101],[21.5634357,63.1309762],[21.5632503,63.1317754],[21.5628938,63.1324868],[21.562297,63.1332437],[21.5616237,63.1339297],[21.5605066,63.1346579],[21.5584782,63.1355612],[21.5555131,63.1343877],[21.5587355,63.1313369],[21.5552506,63.130417],[21.5572694,63.1256118],[21.5660162,63.1197064],[21.5743615,63.1188836],[21.5844653,63.1202487],[21.5922881,63.1213055]]]}},{"type":"Feature","id":"relation/11931678","properties":{"name":"Gerbyn saaristo","ref":"","level":"pienalue","admin_level":10,"osm_relation_id":11931678,"parent_slug":"gerby","parent_name":"Gerby","parent_name_fi":"Gerby","parent_name_en":"Gerby major district","parent_name_fa":"گربو","parent_ref":"05","parent_osm_relation_id":11931679,"outer_way_ids":[876265316,876260547,876260541,876283921,1484822084,137751397,1484822082,1484822081,1540323458,876315780,1540323449,1540323451,876315746,876315776,876315747,1484822151,1484822150],"source":"OpenStreetMap relation 11931678; source tag: Vaasan kaupungin paikkatietopalvelut 2016","name_fi":"Gerbyn saaristo","name_en":"Gerby archipelago","name_fa":"مجمع‌الجزایر یربو","wikidata_id":"Q108332095","wikipedia_fi":"https://fi.wikipedia.org/wiki/Gerbyn_saaristo","wikipedia_fa":"https://fa.wikipedia.org/wiki/%D9%85%D8%AC%D9%85%D8%B9%E2%80%8C%D8%A7%D9%84%D8%AC%D8%B2%D8%A7%DB%8C%D8%B1_%DB%8C%D8%B1%D8%A8%D9%88"},"geometry":{"type":"MultiPolygon","coordinates":[[[[21.5723159,63.1073608],[21.5819133,63.1131481],[21.5857143,63.1154399],[21.5990413,63.1186176],[21.5922881,63.1213055],[21.5844653,63.1202487],[21.5743615,63.1188836],[21.5660162,63.1197064],[21.5572694,63.1256118],[21.5552506,63.130417],[21.5587355,63.1313369],[21.5555131,63.1343877],[21.5541878,63.1356424],[21.543921,63.1424388],[21.53927,63.1455172],[21.5388353,63.1475256],[21.5426859,63.1476807],[21.5412318,63.150889],[21.5365431,63.1541249],[21.5336655,63.1655195],[21.535114,63.1705724],[21.5301981,63.1702882],[21.5254767,63.1697972],[21.5170346,63.1682048],[21.502355,63.1660977],[21.4905821,63.1742758],[21.4720401,63.178854],[21.4630798,63.170817],[21.443328,63.1752267],[21.4480708,63.1569366],[21.4115917,63.136283],[21.3884629,63.1442727],[21.3054119,63.1361086],[21.2936604,63.1349532],[21.2866903,63.1342875],[21.4633339,63.1023455],[21.5342775,63.0900644],[21.5348571,63.089964],[21.5515986,63.0977404],[21.5563833,63.0999626],[21.5723159,63.1073608]]],[[[21.3999941,63.163219],[21.3973581,63.1613134],[21.3963716,63.1609848],[21.3945765,63.1613499],[21.3922316,63.1623866],[21.3885767,63.161255],[21.3792778,63.1592105],[21.3760358,63.1622739],[21.3778168,63.1674659],[21.3765212,63.1718539],[21.3803809,63.1727464],[21.385708,63.1713608],[21.3874704,63.1695288],[21.3906044,63.1681034],[21.3996158,63.167783],[21.3999941,63.163219]]]]}},{"type":"Feature","id":"relation/11931689","properties":{"name":"Isolahti","ref":"","level":"pienalue","admin_level":10,"osm_relation_id":11931689,"parent_slug":"gerby","parent_name":"Gerby","parent_name_fi":"Gerby","parent_name_en":"Gerby major district","parent_name_fa":"گربو","parent_ref":"05","parent_osm_relation_id":11931679,"outer_way_ids":[876315775,876315774,876315776,876315777,876315778,876315779],"source":"OpenStreetMap relation 11931689; source tag: Vaasan kaupungin paikkatietopalvelut 2016","name_fi":"Isolahti","name_en":"Isolahti","name_fa":"ایسولاهتی","wikidata_id":"Q10681443","wikipedia_fi":"https://fi.wikipedia.org/wiki/Isolahti","wikipedia_fa":"https://fa.wikipedia.org/wiki/%D8%A7%DB%8C%D8%B3%D9%88%D9%84%D8%A7%D9%87%D8%AA%DB%8C"},"geometry":{"type":"Polygon","coordinates":[[[21.6041701,63.1198405],[21.60349,63.1206772],[21.6030369,63.1214415],[21.6026104,63.1228549],[21.6026098,63.1243341],[21.60295,63.1259025],[21.6033703,63.1271572],[21.6038291,63.1281565],[21.6041913,63.1287218],[21.6043774,63.1296031],[21.6041136,63.1296474],[21.6038621,63.1293997],[21.603368,63.1295008],[21.6028355,63.1289912],[21.6017319,63.1290717],[21.6015513,63.1287192],[21.6011645,63.1287436],[21.6009242,63.1282051],[21.5981768,63.1275947],[21.5960548,63.1253555],[21.5922881,63.1213055],[21.5990413,63.1186176],[21.5993107,63.1186819],[21.6041701,63.1198405]]]}},{"type":"Feature","id":"relation/11931684","properties":{"name":"Kortelaakso","ref":"","level":"pienalue","admin_level":10,"osm_relation_id":11931684,"parent_slug":"gerby","parent_name":"Gerby","parent_name_fi":"Gerby","parent_name_en":"Gerby major district","parent_name_fa":"گربو","parent_ref":"05","parent_osm_relation_id":11931679,"outer_way_ids":[876315764,876315758,876315763,876315769,876315762],"source":"OpenStreetMap relation 11931684; source tag: Vaasan kaupungin paikkatietopalvelut 2016","name_fi":"Kortelaakso","name_en":"Kortelaakso","name_fa":"کورتلاکسو","wikidata_id":"Q108326443","wikipedia_fi":"https://fi.wikipedia.org/wiki/Kortelaakso","wikipedia_fa":"https://fa.wikipedia.org/wiki/%DA%A9%D9%88%D8%B1%D8%AA%D9%84%D8%A7%DA%A9%D8%B3%D9%88"},"geometry":{"type":"Polygon","coordinates":[[[21.5796316,63.1429683],[21.579563,63.141962],[21.5807401,63.1416765],[21.5795512,63.1333729],[21.5829425,63.1333692],[21.5855602,63.1337288],[21.5888639,63.1338673],[21.5899535,63.1347898],[21.5891234,63.1352013],[21.5901509,63.1357798],[21.5912741,63.1354019],[21.5923895,63.1359784],[21.5933508,63.1358064],[21.5944737,63.1358268],[21.5957398,63.1360731],[21.5963902,63.1361973],[21.5952415,63.1371907],[21.5948837,63.1376951],[21.5946125,63.1382093],[21.5944707,63.1391705],[21.594375,63.1398194],[21.5943635,63.1398973],[21.5941575,63.141416],[21.5938493,63.1426573],[21.5933531,63.1433812],[21.5880421,63.1429359],[21.5796316,63.1429683]]]}},{"type":"Feature","id":"relation/11931686","properties":{"name":"Lillby","ref":"","level":"pienalue","admin_level":10,"osm_relation_id":11931686,"parent_slug":"gerby","parent_name":"Gerby","parent_name_fi":"Gerby","parent_name_en":"Gerby major district","parent_name_fa":"گربو","parent_ref":"05","parent_osm_relation_id":11931679,"outer_way_ids":[876315767,876315769,876315768,876315772,876315779],"source":"OpenStreetMap relation 11931686; source tag: Vaasan kaupungin paikkatietopalvelut 2016","name_fi":"Lillby","name_en":"Lillby","name_fa":"لیل‌بو","wikidata_id":"Q108331447","wikipedia_fi":"https://fi.wikipedia.org/wiki/Lillby_(Vaasa)","wikipedia_fa":"https://fa.wikipedia.org/wiki/%D9%84%DB%8C%D9%84%E2%80%8C%D8%A8%D9%88"},"geometry":{"type":"Polygon","coordinates":[[[21.5963902,63.1361973],[21.5969314,63.1355841],[21.597234,63.1351183],[21.5974553,63.1348729],[21.5978262,63.134627],[21.598283,63.1344522],[21.5992363,63.1341938],[21.6001193,63.1338834],[21.6007864,63.1334901],[21.6014061,63.1329131],[21.6017112,63.1323388],[21.6019673,63.1316929],[21.6022487,63.1308414],[21.6023809,63.1299176],[21.6037293,63.129712],[21.6041136,63.1296474],[21.6043774,63.1296031],[21.6064635,63.1309946],[21.6066298,63.1311125],[21.6097881,63.1333527],[21.6108377,63.1343264],[21.6109621,63.1345932],[21.6085334,63.1352843],[21.6076752,63.135708],[21.6057159,63.1361705],[21.6044255,63.1367205],[21.6038432,63.137151],[21.6032642,63.1376275],[21.6024992,63.1379942],[21.6007866,63.1383008],[21.5990024,63.1386175],[21.5969652,63.139258],[21.5944707,63.1391705],[21.5946125,63.1382093],[21.5948837,63.1376951],[21.5952415,63.1371907],[21.5963902,63.1361973]]]}},{"type":"Feature","id":"relation/11931683","properties":{"name":"Länsimetsä","ref":"","level":"pienalue","admin_level":10,"osm_relation_id":11931683,"parent_slug":"gerby","parent_name":"Gerby","parent_name_fi":"Gerby","parent_name_en":"Gerby major district","parent_name_fa":"گربو","parent_ref":"05","parent_osm_relation_id":11931679,"outer_way_ids":[876315760,1540323455,876315765,1540323456,876315757,876315761,1540323452,876315764],"source":"OpenStreetMap relation 11931683; source tag: Vaasan kaupungin paikkatietopalvelut 2016","name_fi":"Länsimetsä","name_en":"Länsimetsä","name_fa":"لنسی‌متسه","wikidata_id":"Q11880048","wikipedia_fi":"https://fi.wikipedia.org/wiki/L%C3%A4nsimets%C3%A4","wikipedia_fa":"https://fa.wikipedia.org/wiki/%D9%84%D9%86%D8%B3%DB%8C%E2%80%8C%D9%85%D8%AA%D8%B3%D9%87"},"geometry":{"type":"Polygon","coordinates":[[[21.5889408,63.1276346],[21.5885833,63.1275045],[21.5879522,63.1272701],[21.5870116,63.1269443],[21.5861733,63.1266557],[21.5855182,63.1264463],[21.5843534,63.1262151],[21.5835315,63.1261529],[21.5832952,63.126135],[21.5824698,63.1261527],[21.5815872,63.1262153],[21.5795142,63.1265578],[21.5777607,63.1268728],[21.5759285,63.1272361],[21.5738372,63.1277661],[21.5720077,63.1281862],[21.5715886,63.1282693],[21.5697125,63.1286411],[21.5680217,63.1289665],[21.5668939,63.1292549],[21.5657429,63.1296391],[21.5654864,63.1294875],[21.5645549,63.12986],[21.5647689,63.1299825],[21.5645497,63.1300767],[21.5638377,63.1305101],[21.5634357,63.1309762],[21.5632503,63.1317754],[21.5628938,63.1324868],[21.562297,63.1332437],[21.5616237,63.1339297],[21.5605066,63.1346579],[21.5584782,63.1355612],[21.5610174,63.136163],[21.5626877,63.1369032],[21.5635938,63.1377584],[21.5641542,63.1379113],[21.5640285,63.1388171],[21.5633496,63.1388989],[21.5634223,63.1396342],[21.5639098,63.1403658],[21.5656962,63.1403765],[21.5658892,63.1401822],[21.568609,63.1396897],[21.5696442,63.140255],[21.5708092,63.140118],[21.5715594,63.1409059],[21.571267,63.1409642],[21.5715814,63.1432864],[21.5746822,63.1436238],[21.5772955,63.1440618],[21.5796316,63.1429683],[21.579563,63.141962],[21.5807401,63.1416765],[21.5795512,63.1333729],[21.5829425,63.1333692],[21.5829172,63.1317765],[21.5829034,63.1309093],[21.5832337,63.1307939],[21.5833586,63.1296883],[21.5850988,63.1292929],[21.5864369,63.1289259],[21.5879223,63.1284436],[21.5883697,63.1282638],[21.5890174,63.1279498],[21.5885684,63.1278062],[21.5889408,63.1276346]]]}},{"type":"Feature","id":"relation/11931687","properties":{"name":"Pukinjärvi","ref":"","level":"pienalue","admin_level":10,"osm_relation_id":11931687,"parent_slug":"gerby","parent_name":"Gerby","parent_name_fi":"Gerby","parent_name_en":"Gerby major district","parent_name_fa":"گربو","parent_ref":"05","parent_osm_relation_id":11931679,"outer_way_ids":[876315770,876315773,876315749,1540323463],"source":"OpenStreetMap relation 11931687; source tag: Vaasan kaupungin paikkatietopalvelut 2016","name_fi":"Pukinjärvi","name_en":"Pukinjärvi","name_fa":"پوکین‌یروی","wikidata_id":"Q18661483","wikipedia_fi":"https://fi.wikipedia.org/wiki/Pukinj%C3%A4rvi","wikipedia_fa":"https://fa.wikipedia.org/wiki/%D9%BE%D9%88%DA%A9%DB%8C%D9%86%E2%80%8C%DB%8C%D8%B1%D9%88%DB%8C"},"geometry":{"type":"Polygon","coordinates":[[[21.6064808,63.1293664],[21.6071935,63.1295617],[21.607583,63.1299489],[21.6103592,63.1301711],[21.610879,63.1298614],[21.6152031,63.1320241],[21.6155855,63.132704],[21.6178611,63.1325767],[21.6206554,63.1321438],[21.6251353,63.1308576],[21.6254844,63.131048],[21.630652,63.1305327],[21.6235312,63.1220971],[21.6194133,63.1220698],[21.6183849,63.1243873],[21.6180386,63.1243166],[21.6175272,63.124741],[21.6164155,63.1247785],[21.6134168,63.126421],[21.6124568,63.1260779],[21.6074409,63.1287201],[21.6062338,63.1290425],[21.6064808,63.1293664]]]}},{"type":"Feature","id":"relation/11931682","properties":{"name":"Rajarinne","ref":"","level":"pienalue","admin_level":10,"osm_relation_id":11931682,"parent_slug":"gerby","parent_name":"Gerby","parent_name_fi":"Gerby","parent_name_en":"Gerby major district","parent_name_fa":"گربو","parent_ref":"05","parent_osm_relation_id":11931679,"outer_way_ids":[876315757,876315754],"source":"OpenStreetMap relation 11931682; source tag: Vaasan kaupungin paikkatietopalvelut 2016","name_fi":"Rajarinne","name_en":"Rajarinne","name_fa":"راجارینه","wikidata_id":"Q108331492","wikipedia_fi":"https://fi.wikipedia.org/wiki/Rajarinne","wikipedia_fa":"https://fa.wikipedia.org/wiki/%D8%B1%D8%A7%D8%AC%D8%A7%D8%B1%DB%8C%D9%86%D9%87"},"geometry":{"type":"Polygon","coordinates":[[[21.5715814,63.1432864],[21.571267,63.1409642],[21.5715594,63.1409059],[21.5708092,63.140118],[21.5696442,63.140255],[21.568609,63.1396897],[21.5658892,63.1401822],[21.5656962,63.1403765],[21.5639098,63.1403658],[21.5634223,63.1396342],[21.5633496,63.1388989],[21.5640285,63.1388171],[21.5641542,63.1379113],[21.5635938,63.1377584],[21.5626877,63.1369032],[21.5610174,63.136163],[21.5584782,63.1355612],[21.5576401,63.1361055],[21.5569414,63.1366709],[21.556395,63.1371331],[21.5560176,63.1374737],[21.555735,63.137932],[21.5555497,63.1385132],[21.5553897,63.1388487],[21.5551601,63.1391842],[21.5546115,63.1395667],[21.5541331,63.1400433],[21.5539289,63.1404028],[21.5538743,63.1407448],[21.5539184,63.1411105],[21.5539083,63.1414607],[21.5533977,63.1419405],[21.5531639,63.1421936],[21.5530348,63.1424575],[21.5530109,63.1428127],[21.5529228,63.142991],[21.5528225,63.1431784],[21.5526705,63.1433878],[21.5526341,63.1435432],[21.5527919,63.1437724],[21.5530078,63.1439306],[21.553327,63.1440581],[21.5537745,63.1441563],[21.5543651,63.1442225],[21.5549607,63.1443053],[21.555252,63.1443944],[21.5554507,63.1444827],[21.555681,63.1446381],[21.5558237,63.144818],[21.5559864,63.1450492],[21.5562462,63.1453629],[21.5564936,63.1455478],[21.5572474,63.1460171],[21.5576599,63.1463191],[21.5577242,63.1463939],[21.5580008,63.1463608],[21.5575936,63.1456922],[21.558884,63.1445908],[21.5593139,63.1441531],[21.5595487,63.1437143],[21.5597175,63.1434379],[21.5601197,63.1432043],[21.560521,63.1430109],[21.5611895,63.1428332],[21.5626996,63.1441416],[21.564371,63.1449047],[21.5657275,63.1451392],[21.5668417,63.1451341],[21.5685089,63.1448364],[21.5695684,63.1451736],[21.5706066,63.145504],[21.5710835,63.1453429],[21.5686263,63.1446014],[21.5690606,63.1444154],[21.5694321,63.1445387],[21.5699168,63.1445001],[21.5712139,63.1444442],[21.5715814,63.1432864]]]}},{"type":"Feature","id":"relation/11931685","properties":{"name":"Vanha Gerby","ref":"","level":"pienalue","admin_level":10,"osm_relation_id":11931685,"parent_slug":"gerby","parent_name":"Gerby","parent_name_fi":"Gerby","parent_name_en":"Gerby major district","parent_name_fa":"گربو","parent_ref":"05","parent_osm_relation_id":11931679,"outer_way_ids":[876315778,876315766,1540323457,1540323455,876315765,1540323456,876315762,876315767],"source":"OpenStreetMap relation 11931685; source tag: Vaasan kaupungin paikkatietopalvelut 2016","name_fi":"Vanha Gerby","name_en":"Vanha Gerby","name_fa":"یربوی قدیم","wikidata_id":"Q108325206","wikipedia_fi":"https://fi.wikipedia.org/wiki/Vanha_Gerby","wikipedia_fa":"https://fa.wikipedia.org/wiki/%DB%8C%D8%B1%D8%A8%D9%88%DB%8C_%D9%82%D8%AF%DB%8C%D9%85"},"geometry":{"type":"Polygon","coordinates":[[[21.6011645,63.1287436],[21.6015513,63.1287192],[21.6017319,63.1290717],[21.6028355,63.1289912],[21.603368,63.1295008],[21.6038621,63.1293997],[21.6041136,63.1296474],[21.6037293,63.129712],[21.6023809,63.1299176],[21.6022487,63.1308414],[21.6019673,63.1316929],[21.6017112,63.1323388],[21.6014061,63.1329131],[21.6007864,63.1334901],[21.6001193,63.1338834],[21.5992363,63.1341938],[21.598283,63.1344522],[21.5978262,63.134627],[21.5974553,63.1348729],[21.597234,63.1351183],[21.5969314,63.1355841],[21.5963902,63.1361973],[21.5957398,63.1360731],[21.5944737,63.1358268],[21.5933508,63.1358064],[21.5923895,63.1359784],[21.5912741,63.1354019],[21.5901509,63.1357798],[21.5891234,63.1352013],[21.5899535,63.1347898],[21.5888639,63.1338673],[21.5855602,63.1337288],[21.5829425,63.1333692],[21.5829172,63.1317765],[21.5829034,63.1309093],[21.5832337,63.1307939],[21.5833586,63.1296883],[21.5850988,63.1292929],[21.5864369,63.1289259],[21.5879223,63.1284436],[21.5883697,63.1282638],[21.5890174,63.1279498],[21.5885684,63.1278062],[21.5889408,63.1276346],[21.5896086,63.1272751],[21.5904145,63.1268412],[21.5940355,63.127924],[21.6011645,63.1287436]]]}},{"type":"Feature","id":"relation/11931688","properties":{"name":"Vetokannas","ref":"","level":"pienalue","admin_level":10,"osm_relation_id":11931688,"parent_slug":"gerby","parent_name":"Gerby","parent_name_fi":"Gerby","parent_name_en":"Gerby major district","parent_name_fa":"گربو","parent_ref":"05","parent_osm_relation_id":11931679,"outer_way_ids":[876315771,1540323463,876315749,1540323464,876315752,1540323462,876315750,876265313,876315775,876315772],"source":"OpenStreetMap relation 11931688; source tag: Vaasan kaupungin paikkatietopalvelut 2016","name_fi":"Vetokannas","name_en":"Vetokannas","name_fa":"وتوکاناس","wikidata_id":"Q11901131","wikipedia_fi":"https://fi.wikipedia.org/wiki/Vetokannas","wikipedia_fa":"https://fa.wikipedia.org/wiki/%D9%88%D8%AA%D9%88%DA%A9%D8%A7%D9%86%D8%A7%D8%B3"},"geometry":{"type":"Polygon","coordinates":[[[21.6064808,63.1293664],[21.6062292,63.1296725],[21.6075864,63.1309344],[21.6066298,63.1311125],[21.6064635,63.1309946],[21.6043774,63.1296031],[21.6041913,63.1287218],[21.6038291,63.1281565],[21.6033703,63.1271572],[21.60295,63.1259025],[21.6026098,63.1243341],[21.6026104,63.1228549],[21.6030369,63.1214415],[21.60349,63.1206772],[21.6041701,63.1198405],[21.6068499,63.1174425],[21.6076124,63.1172524],[21.6085586,63.1167011],[21.6127389,63.114628],[21.6148508,63.1128074],[21.6189074,63.1111569],[21.6188893,63.1122047],[21.6186264,63.1128099],[21.6186081,63.1131636],[21.618505,63.1151506],[21.6184644,63.1159325],[21.6163119,63.1186177],[21.6198767,63.1190247],[21.6202985,63.119011],[21.6211546,63.1198284],[21.6235312,63.1220971],[21.6194133,63.1220698],[21.6183849,63.1243873],[21.6180386,63.1243166],[21.6175272,63.124741],[21.6164155,63.1247785],[21.6134168,63.126421],[21.6124568,63.1260779],[21.6074409,63.1287201],[21.6062338,63.1290425],[21.6064808,63.1293664]]]}},{"type":"Feature","id":"relation/11931681","properties":{"name":"Västervikin kylä","ref":"","level":"pienalue","admin_level":10,"osm_relation_id":11931681,"parent_slug":"gerby","parent_name":"Gerby","parent_name_fi":"Gerby","parent_name_en":"Gerby major district","parent_name_fa":"گربو","parent_ref":"05","parent_osm_relation_id":11931679,"outer_way_ids":[1540323449,1540323451,876315746,876315748,1484822135,876315755,876315758,1540323452,876315761,876315754,876315759],"source":"OpenStreetMap relation 11931681; source tag: Vaasan kaupungin paikkatietopalvelut 2016","name_fi":"Västervikin kylä","name_en":"Västervik","name_fa":"وسترویک (فنلاند)","wikidata_id":"Q11902173","wikipedia_fi":"https://fi.wikipedia.org/wiki/V%C3%A4stervik_(Vaasa)","wikipedia_fa":"https://fa.wikipedia.org/wiki/%D9%88%D8%B3%D8%AA%D8%B1%D9%88%DB%8C%DA%A9_(%D9%81%D9%86%D9%84%D8%A7%D9%86%D8%AF)"},"geometry":{"type":"Polygon","coordinates":[[[21.5555131,63.1343877],[21.5541878,63.1356424],[21.543921,63.1424388],[21.53927,63.1455172],[21.5388353,63.1475256],[21.5426859,63.1476807],[21.5412318,63.150889],[21.5365431,63.1541249],[21.5336655,63.1655195],[21.535114,63.1705724],[21.5367002,63.1706641],[21.5525956,63.1690376],[21.5569455,63.1686699],[21.5694589,63.1673678],[21.5870958,63.1640923],[21.5938784,63.1627892],[21.5979181,63.1620698],[21.5971302,63.1624042],[21.5970142,63.1627751],[21.5994492,63.1639568],[21.6014028,63.1638871],[21.6000927,63.1616641],[21.6034823,63.160268],[21.6053344,63.157409],[21.6040223,63.1578271],[21.6041172,63.1571861],[21.6028877,63.1567638],[21.5890247,63.1520015],[21.5907727,63.1468714],[21.5973729,63.1446423],[21.596908,63.1436792],[21.5933531,63.1433812],[21.5880421,63.1429359],[21.5796316,63.1429683],[21.5772955,63.1440618],[21.5746822,63.1436238],[21.5715814,63.1432864],[21.5712139,63.1444442],[21.5699168,63.1445001],[21.5694321,63.1445387],[21.5690606,63.1444154],[21.5686263,63.1446014],[21.5710835,63.1453429],[21.5706066,63.145504],[21.5695684,63.1451736],[21.5685089,63.1448364],[21.5668417,63.1451341],[21.5657275,63.1451392],[21.564371,63.1449047],[21.5626996,63.1441416],[21.5611895,63.1428332],[21.560521,63.1430109],[21.5601197,63.1432043],[21.5597175,63.1434379],[21.5595487,63.1437143],[21.5593139,63.1441531],[21.558884,63.1445908],[21.5575936,63.1456922],[21.5580008,63.1463608],[21.5577242,63.1463939],[21.5576599,63.1463191],[21.5572474,63.1460171],[21.5564936,63.1455478],[21.5562462,63.1453629],[21.5559864,63.1450492],[21.5558237,63.144818],[21.555681,63.1446381],[21.5554507,63.1444827],[21.555252,63.1443944],[21.5549607,63.1443053],[21.5543651,63.1442225],[21.5537745,63.1441563],[21.553327,63.1440581],[21.5530078,63.1439306],[21.5527919,63.1437724],[21.5526341,63.1435432],[21.5526705,63.1433878],[21.5528225,63.1431784],[21.5529228,63.142991],[21.5530109,63.1428127],[21.5530348,63.1424575],[21.5531639,63.1421936],[21.5533977,63.1419405],[21.5539083,63.1414607],[21.5539184,63.1411105],[21.5538743,63.1407448],[21.5539289,63.1404028],[21.5541331,63.1400433],[21.5546115,63.1395667],[21.5551601,63.1391842],[21.5553897,63.1388487],[21.5555497,63.1385132],[21.555735,63.137932],[21.5560176,63.1374737],[21.556395,63.1371331],[21.5569414,63.1366709],[21.5576401,63.1361055],[21.5584782,63.1355612],[21.5555131,63.1343877]]]}},{"type":"Feature","id":"relation/11931728","properties":{"name":"Böle","ref":"","level":"pienalue","admin_level":10,"osm_relation_id":11931728,"parent_slug":"kotiranta","parent_name":"Kotiranta","parent_name_fi":"Kotiranta","parent_name_en":"Kotiranta major district","parent_name_fa":"کوتی‌رانتا","parent_ref":"06","parent_osm_relation_id":11931725,"outer_way_ids":[876326924,876326923,876326925,876315751,1484822128,876315753],"source":"OpenStreetMap relation 11931728; source tag: Vaasan kaupungin paikkatietopalvelut 2016","name_fi":"Böle","name_en":"Böle","name_fa":null,"wikidata_id":"Q56401338","wikipedia_fi":"https://fi.wikipedia.org/wiki/B%C3%B6le_(Vaasa)","wikipedia_fa":null},"geometry":{"type":"Polygon","coordinates":[[[21.6651596,63.1264645],[21.6656152,63.1263271],[21.6657998,63.1251172],[21.6686757,63.1247419],[21.6675503,63.1231592],[21.6658958,63.1213023],[21.6650455,63.1211783],[21.6650595,63.1205944],[21.664467,63.1203735],[21.6645216,63.1203096],[21.6637125,63.1201933],[21.6612195,63.1199802],[21.6589247,63.1198866],[21.6568361,63.1198469],[21.6548879,63.1199152],[21.6531355,63.1201522],[21.6507697,63.1205403],[21.6489515,63.1206661],[21.6470643,63.1206743],[21.643938,63.1204759],[21.6436866,63.1210073],[21.6419135,63.1247554],[21.6446088,63.1281265],[21.6376978,63.1292554],[21.630652,63.1305327],[21.645048,63.1475792],[21.6468542,63.1471413],[21.6492912,63.1475927],[21.6536599,63.1476949],[21.6532309,63.1472581],[21.6551183,63.1470991],[21.6568148,63.1468105],[21.6565726,63.1465229],[21.6554405,63.144585],[21.6550439,63.1445607],[21.655243,63.1440291],[21.6544109,63.1439703],[21.6548557,63.1435834],[21.6552279,63.1431149],[21.6563016,63.1427047],[21.6572628,63.1419004],[21.6588674,63.1412229],[21.6593021,63.1409483],[21.6596722,63.140574],[21.6603963,63.1396027],[21.6605599,63.1390806],[21.661606,63.1386322],[21.66207,63.1380946],[21.6628741,63.1364479],[21.6637972,63.1359315],[21.6634481,63.1358351],[21.6631127,63.1355644],[21.6617086,63.1358171],[21.6615762,63.1356019],[21.6619978,63.1352731],[21.6621719,63.134814],[21.6642302,63.1347852],[21.6653257,63.1332696],[21.6664561,63.1334194],[21.6670098,63.1320649],[21.6660729,63.1315512],[21.6660596,63.1312329],[21.6648536,63.1298444],[21.6646738,63.1297613],[21.6640505,63.1296658],[21.6637917,63.1295746],[21.6674029,63.1284194],[21.6643527,63.1267086],[21.6651596,63.1264645]]]}},{"type":"Feature","id":"relation/11931726","properties":{"name":"Kotiranta","ref":"","level":"pienalue","admin_level":10,"osm_relation_id":11931726,"parent_slug":"kotiranta","parent_name":"Kotiranta","parent_name_fi":"Kotiranta","parent_name_en":"Kotiranta major district","parent_name_fa":"کوتی‌رانتا","parent_ref":"06","parent_osm_relation_id":11931725,"outer_way_ids":[876326926,876326919,876326920,876255169,876255164],"source":"OpenStreetMap relation 11931726","name_fi":"Kotiranta","name_en":"Kotiranta","name_fa":null,"wikidata_id":"Q11872834","wikipedia_fi":"https://fi.wikipedia.org/wiki/Kotiranta","wikipedia_fa":null},"geometry":{"type":"Polygon","coordinates":[[[21.64285,63.1124991],[21.6416384,63.1124003],[21.6373583,63.1116349],[21.6318781,63.1122575],[21.6257933,63.1113492],[21.6223243,63.1097666],[21.6300139,63.1066376],[21.6389351,63.1031662],[21.6397097,63.1034563],[21.6415087,63.1026362],[21.6418266,63.10257],[21.6485839,63.1053425],[21.6469577,63.1062093],[21.647081,63.1064493],[21.6460308,63.1066977],[21.645454,63.1069164],[21.6450394,63.1071728],[21.6427581,63.1094582],[21.6446078,63.1097936],[21.6436417,63.1107498],[21.6431201,63.1111211],[21.6433866,63.1119118],[21.64285,63.1124991]]]}},{"type":"Feature","id":"relation/11931724","properties":{"name":"Kustaala","ref":"","level":"pienalue","admin_level":10,"osm_relation_id":11931724,"parent_slug":"kotiranta","parent_name":"Kotiranta","parent_name_fi":"Kotiranta","parent_name_en":"Kotiranta major district","parent_name_fa":"کوتی‌رانتا","parent_ref":"06","parent_osm_relation_id":11931725,"outer_way_ids":[876326918,876326926,876326917,876326925,876315773,1540323464,876315752,1540323462],"source":"OpenStreetMap relation 11931724; source tag: Vaasan kaupungin paikkatietopalvelut 2016","name_fi":"Kustaala","name_en":"Kustaala","name_fa":null,"wikidata_id":"Q56401334","wikipedia_fi":"https://fi.wikipedia.org/wiki/Kustaala","wikipedia_fa":null},"geometry":{"type":"Polygon","coordinates":[[[21.6189074,63.1111569],[21.6223243,63.1097666],[21.6257933,63.1113492],[21.6318781,63.1122575],[21.6373583,63.1116349],[21.6416384,63.1124003],[21.64285,63.1124991],[21.6408352,63.1148226],[21.6422558,63.1150466],[21.6427844,63.115589],[21.6405543,63.1184329],[21.6391731,63.1189271],[21.6391299,63.1200286],[21.6422317,63.1202615],[21.643938,63.1204759],[21.6436866,63.1210073],[21.6419135,63.1247554],[21.6446088,63.1281265],[21.6376978,63.1292554],[21.630652,63.1305327],[21.6235312,63.1220971],[21.6211546,63.1198284],[21.6202985,63.119011],[21.6198767,63.1190247],[21.6163119,63.1186177],[21.6184644,63.1159325],[21.618505,63.1151506],[21.6186081,63.1131636],[21.6186264,63.1128099],[21.6188893,63.1122047],[21.6189074,63.1111569]]]}},{"type":"Feature","id":"relation/11931727","properties":{"name":"Metsäkallio","ref":"","level":"pienalue","admin_level":10,"osm_relation_id":11931727,"parent_slug":"kotiranta","parent_name":"Kotiranta","parent_name_fi":"Kotiranta","parent_name_en":"Kotiranta major district","parent_name_fa":"کوتی‌رانتا","parent_ref":"06","parent_osm_relation_id":11931725,"outer_way_ids":[876326921,876326922,876326923,876326917,876326919],"source":"OpenStreetMap relation 11931727; source tag: Vaasan kaupungin paikkatietopalvelut 2016","name_fi":"Metsäkallio","name_en":"Metsäkallio","name_fa":"متسه‌کالیو","wikidata_id":"Q18660819","wikipedia_fi":"https://fi.wikipedia.org/wiki/Mets%C3%A4kallio","wikipedia_fa":"https://fa.wikipedia.org/wiki/%D9%85%D8%AA%D8%B3%D9%87%E2%80%8C%DA%A9%D8%A7%D9%84%DB%8C%D9%88"},"geometry":{"type":"Polygon","coordinates":[[[21.6485839,63.1053425],[21.6510875,63.1061819],[21.6542512,63.1071134],[21.6653526,63.1100057],[21.6641804,63.111064],[21.6653448,63.1127658],[21.6626211,63.1128711],[21.6629853,63.1133459],[21.6632013,63.1136274],[21.6634838,63.1139956],[21.6659958,63.1137329],[21.6658122,63.1142516],[21.665247,63.1149536],[21.6646781,63.1156603],[21.6644648,63.1158602],[21.6627909,63.1174281],[21.6639114,63.1192863],[21.6634521,63.1195255],[21.6637637,63.1198962],[21.6637125,63.1201933],[21.6612195,63.1199802],[21.6589247,63.1198866],[21.6568361,63.1198469],[21.6548879,63.1199152],[21.6531355,63.1201522],[21.6507697,63.1205403],[21.6489515,63.1206661],[21.6470643,63.1206743],[21.643938,63.1204759],[21.6422317,63.1202615],[21.6391299,63.1200286],[21.6391731,63.1189271],[21.6405543,63.1184329],[21.6427844,63.115589],[21.6422558,63.1150466],[21.6408352,63.1148226],[21.64285,63.1124991],[21.6433866,63.1119118],[21.6431201,63.1111211],[21.6436417,63.1107498],[21.6446078,63.1097936],[21.6427581,63.1094582],[21.6450394,63.1071728],[21.645454,63.1069164],[21.6460308,63.1066977],[21.647081,63.1064493],[21.6469577,63.1062093],[21.6485839,63.1053425]]]}},{"type":"Feature","id":"relation/11931777","properties":{"name":"Asevelikylä","ref":"","level":"pienalue","admin_level":10,"osm_relation_id":11931777,"parent_slug":"huutoniemi","parent_name":"Huutoniemi","parent_name_fi":"Huutoniemi","parent_name_en":"Huutoniemi major district","parent_name_fa":"هوتونیمی","parent_ref":"07","parent_osm_relation_id":11931778,"outer_way_ids":[876326920,876326921,876332280,876332279,876332287,876332284],"source":"OpenStreetMap relation 11931777; source tag: Vaasan kaupungin paikkatietopalvelut 2016","name_fi":"Asevelikylä","name_en":"Asevelikylä","name_fa":null,"wikidata_id":"Q11853090","wikipedia_fi":"https://fi.wikipedia.org/wiki/Asevelikyl%C3%A4","wikipedia_fa":null},"geometry":{"type":"Polygon","coordinates":[[[21.6418266,63.10257],[21.6485839,63.1053425],[21.6510875,63.1061819],[21.6542512,63.1071134],[21.6653526,63.1100057],[21.6664035,63.1090569],[21.6669801,63.1089569],[21.6634379,63.1058217],[21.6608725,63.0990804],[21.6600701,63.0971648],[21.659116,63.0973986],[21.6590036,63.0962667],[21.65764,63.0956991],[21.6570008,63.0960592],[21.6418266,63.10257]]]}},{"type":"Feature","id":"relation/11931782","properties":{"name":"Huutoniemi","ref":"","level":"pienalue","admin_level":10,"osm_relation_id":11931782,"parent_slug":"huutoniemi","parent_name":"Huutoniemi","parent_name_fi":"Huutoniemi","parent_name_en":"Huutoniemi major district","parent_name_fa":"هوتونیمی","parent_ref":"07","parent_osm_relation_id":11931778,"outer_way_ids":[876255167,876273527,876273531,876332292,1540722532,876332291,876332293,876338129,1540722539,876332288,876332289,876332287],"source":"OpenStreetMap relation 11931782; source tag: Vaasan kaupungin paikkatietopalvelut 2016","name_fi":"Huutoniemi","name_en":"Huutoniemi","name_fa":"هوتونیمی (منطقه کوچک)","wikidata_id":"Q11863881","wikipedia_fi":"https://fi.wikipedia.org/wiki/Huutoniemi","wikipedia_fa":"https://fa.wikipedia.org/wiki/%D9%87%D9%88%D8%AA%D9%88%D9%86%DB%8C%D9%85%DB%8C_(%D9%85%D9%86%D8%B7%D9%82%D9%87_%DA%A9%D9%88%DA%86%DA%A9)"},"geometry":{"type":"Polygon","coordinates":[[[21.65764,63.0956991],[21.6568134,63.0953004],[21.6563589,63.0953085],[21.655424,63.0920069],[21.653677,63.0924646],[21.6549456,63.0907127],[21.654049,63.090582],[21.6546927,63.0895236],[21.6506677,63.088531],[21.6528987,63.0878408],[21.6541883,63.0872563],[21.6550074,63.0868136],[21.6559834,63.0861794],[21.6571196,63.0852422],[21.65824,63.0842348],[21.6594301,63.0832274],[21.6602975,63.0826068],[21.6613043,63.0819863],[21.6623796,63.0815124],[21.6635711,63.08107],[21.6655833,63.08039],[21.6674097,63.0798257],[21.6694303,63.0792721],[21.6701029,63.0790878],[21.6724159,63.0786197],[21.6769379,63.078002],[21.6805562,63.0776143],[21.6848278,63.0772762],[21.6846472,63.077589],[21.6829695,63.0796055],[21.6810125,63.08143],[21.6782508,63.0835244],[21.6753001,63.0852781],[21.6731963,63.0863311],[21.6713571,63.0872316],[21.6688083,63.0881446],[21.6687331,63.0895565],[21.669818,63.090109],[21.6836862,63.0899983],[21.6858939,63.090073],[21.6871256,63.0900562],[21.6884209,63.0898446],[21.688994,63.0896222],[21.6898477,63.0892831],[21.690767,63.0886958],[21.6913088,63.088231],[21.6921294,63.0877241],[21.6935083,63.0872278],[21.6954764,63.0867412],[21.6980248,63.0863957],[21.6981955,63.0866888],[21.7052317,63.0860143],[21.7039352,63.0879475],[21.7035057,63.0893481],[21.7027605,63.0917777],[21.6958741,63.0930487],[21.6853921,63.0949832],[21.679141,63.0963604],[21.6744906,63.0969313],[21.6709287,63.0971162],[21.6690369,63.0970356],[21.665689,63.0969084],[21.6621676,63.0967746],[21.6630887,63.0964925],[21.662652,63.0962549],[21.6606178,63.0969718],[21.6600701,63.0971648],[21.659116,63.0973986],[21.6590036,63.0962667],[21.65764,63.0956991]]]}},{"type":"Feature","id":"relation/11931781","properties":{"name":"Melaniemi","ref":"","level":"pienalue","admin_level":10,"osm_relation_id":11931781,"parent_slug":"huutoniemi","parent_name":"Huutoniemi","parent_name_fi":"Huutoniemi","parent_name_en":"Huutoniemi major district","parent_name_fa":"هوتونیمی","parent_ref":"07","parent_osm_relation_id":11931778,"outer_way_ids":[876332291,876332282,876332281],"source":"OpenStreetMap relation 11931781; source tag: Vaasan kaupungin paikkatietopalvelut 2016","name_fi":"Melaniemi","name_en":"Melaniemi","name_fa":null,"wikidata_id":"Q11882018","wikipedia_fi":"https://fi.wikipedia.org/wiki/Melaniemi","wikipedia_fa":null},"geometry":{"type":"Polygon","coordinates":[[[21.6846472,63.077589],[21.6829695,63.0796055],[21.6810125,63.08143],[21.6782508,63.0835244],[21.6753001,63.0852781],[21.6731963,63.0863311],[21.6713571,63.0872316],[21.6688083,63.0881446],[21.6687331,63.0895565],[21.669818,63.090109],[21.6836862,63.0899983],[21.6858939,63.090073],[21.6871256,63.0900562],[21.6884209,63.0898446],[21.688994,63.0896222],[21.6898477,63.0892831],[21.690767,63.0886958],[21.6913088,63.088231],[21.6921294,63.0877241],[21.6935083,63.0872278],[21.6954764,63.0867412],[21.6980248,63.0863957],[21.6981955,63.0866888],[21.7052317,63.0860143],[21.7054633,63.085669],[21.7056712,63.0850584],[21.7067836,63.0837835],[21.7077769,63.0831686],[21.7079038,63.0825003],[21.7085172,63.0815964],[21.7089576,63.0798578],[21.7095985,63.078733],[21.7089188,63.0787637],[21.7085072,63.0787835],[21.7062052,63.078698],[21.7030978,63.0784447],[21.7025931,63.0782125],[21.6977595,63.0774671],[21.6953429,63.0771687],[21.6945722,63.0771708],[21.6940124,63.0771723],[21.6919032,63.0772084],[21.6912407,63.0772816],[21.6905268,63.0773607],[21.6900514,63.0772916],[21.6899747,63.0772804],[21.6896378,63.0772999],[21.6884123,63.0773709],[21.6874068,63.0774292],[21.6862811,63.0774944],[21.6846472,63.077589]]]}},{"type":"Feature","id":"relation/11931779","properties":{"name":"Purola","ref":"","level":"pienalue","admin_level":10,"osm_relation_id":11931779,"parent_slug":"huutoniemi","parent_name":"Huutoniemi","parent_name_fi":"Huutoniemi","parent_name_en":"Huutoniemi major district","parent_name_fa":"هوتونیمی","parent_ref":"07","parent_osm_relation_id":11931778,"outer_way_ids":[876332289,876332285,876332283,876332279],"source":"OpenStreetMap relation 11931779; source tag: Vaasan kaupungin paikkatietopalvelut 2016","name_fi":"Purola","name_en":"Purola","name_fa":"پورولا","wikidata_id":"Q11889151","wikipedia_fi":"https://fi.wikipedia.org/wiki/Purola_(Vaasa)","wikipedia_fa":"https://fa.wikipedia.org/wiki/%D9%BE%D9%88%D8%B1%D9%88%D9%84%D8%A7"},"geometry":{"type":"Polygon","coordinates":[[[21.6709287,63.0971162],[21.6690369,63.0970356],[21.665689,63.0969084],[21.6621676,63.0967746],[21.6630887,63.0964925],[21.662652,63.0962549],[21.6606178,63.0969718],[21.6600701,63.0971648],[21.6608725,63.0990804],[21.6634379,63.1058217],[21.6669801,63.1089569],[21.6680656,63.1087687],[21.6764214,63.1051153],[21.679299,63.1042508],[21.6840791,63.1036108],[21.6854392,63.1033022],[21.6867254,63.1030957],[21.6862187,63.1017918],[21.6826712,63.1021109],[21.6820484,63.101234],[21.6809179,63.1012021],[21.6762335,63.0993108],[21.6747086,63.0985568],[21.6725796,63.0975708],[21.6709287,63.0971162]]]}},{"type":"Feature","id":"relation/11931780","properties":{"name":"Teeriniemi","ref":"","level":"pienalue","admin_level":10,"osm_relation_id":11931780,"parent_slug":"huutoniemi","parent_name":"Huutoniemi","parent_name_fi":"Huutoniemi","parent_name_en":"Huutoniemi major district","parent_name_fa":"هوتونیمی","parent_ref":"07","parent_osm_relation_id":11931778,"outer_way_ids":[1540722539,876332288,876332285,876332286,876332290,1540722538],"source":"OpenStreetMap relation 11931780; source tag: Vaasan kaupungin paikkatietopalvelut 2016","name_fi":"Teeriniemi","name_en":"Teeriniemi","name_fa":"ترینیمی","wikidata_id":"Q11896753","wikipedia_fi":"https://fi.wikipedia.org/wiki/Teeriniemi","wikipedia_fa":"https://fa.wikipedia.org/wiki/%D8%AA%D8%B1%DB%8C%D9%86%DB%8C%D9%85%DB%8C"},"geometry":{"type":"Polygon","coordinates":[[[21.6958741,63.0930487],[21.7027605,63.0917777],[21.7015985,63.095566],[21.7010819,63.0972498],[21.7045493,63.1005894],[21.6896895,63.1026198],[21.6867254,63.1030957],[21.6862187,63.1017918],[21.6826712,63.1021109],[21.6820484,63.101234],[21.6809179,63.1012021],[21.6762335,63.0993108],[21.6747086,63.0985568],[21.6725796,63.0975708],[21.6709287,63.0971162],[21.6744906,63.0969313],[21.679141,63.0963604],[21.6853921,63.0949832],[21.6958741,63.0930487]]]}},{"type":"Feature","id":"relation/11931941","properties":{"name":"Alkula","ref":"","level":"pienalue","admin_level":10,"osm_relation_id":11931941,"parent_slug":"ristinummi","parent_name":"Ristinummi","parent_name_fi":"Ristinummi","parent_name_en":"Ristinummi major district","parent_name_fa":"ریستینومی","parent_ref":"08","parent_osm_relation_id":11931939,"outer_way_ids":[876338124,876338126,876338132,876338123,876332281],"source":"OpenStreetMap relation 11931941; source tag: Vaasan kaupungin paikkatietopalvelut 2016","name_fi":"Alkula","name_en":"Alkula","name_fa":null,"wikidata_id":"Q56401328","wikipedia_fi":"https://fi.wikipedia.org/wiki/Alkula","wikipedia_fa":null},"geometry":{"type":"Polygon","coordinates":[[[21.7095985,63.078733],[21.7101465,63.0787076],[21.7122579,63.078528],[21.7161004,63.0777232],[21.7193564,63.077116],[21.722081,63.0765337],[21.7245784,63.0758347],[21.727415,63.074965],[21.7299904,63.0741304],[21.7324112,63.0733998],[21.7344226,63.0728289],[21.7363259,63.0724934],[21.7390144,63.0722274],[21.7437742,63.0718328],[21.7431545,63.0722366],[21.7419115,63.0730787],[21.7407074,63.0795746],[21.7404651,63.0800789],[21.7359959,63.0846533],[21.7356225,63.0844567],[21.73504,63.0843653],[21.7317299,63.0845487],[21.729333,63.0849347],[21.729091,63.0846579],[21.7287561,63.0844021],[21.7281112,63.0841734],[21.7273965,63.0840079],[21.7166757,63.0827667],[21.7158499,63.083296],[21.7144945,63.0840896],[21.71336,63.0846778],[21.7123699,63.0850779],[21.7109574,63.0853652],[21.7094067,63.0855898],[21.7052317,63.0860143],[21.7054633,63.085669],[21.7056712,63.0850584],[21.7067836,63.0837835],[21.7077769,63.0831686],[21.7079038,63.0825003],[21.7085172,63.0815964],[21.7089576,63.0798578],[21.7095985,63.078733]]]}},{"type":"Feature","id":"relation/11931943","properties":{"name":"Haapaniemi","ref":"","level":"pienalue","admin_level":10,"osm_relation_id":11931943,"parent_slug":"ristinummi","parent_name":"Ristinummi","parent_name_fi":"Ristinummi","parent_name_en":"Ristinummi major district","parent_name_fa":"ریستینومی","parent_ref":"08","parent_osm_relation_id":11931939,"outer_way_ids":[876338128,876338131,876338123,876332293],"source":"OpenStreetMap relation 11931943; source tag: Vaasan kaupungin paikkatietopalvelut 2016","name_fi":"Haapaniemi","name_en":"Haapaniemi","name_fa":null,"wikidata_id":"Q11861114","wikipedia_fi":"https://fi.wikipedia.org/wiki/Haapaniemi_(Vaasa)","wikipedia_fa":null},"geometry":{"type":"Polygon","coordinates":[[[21.7035057,63.0893481],[21.7094834,63.090136],[21.7361415,63.0851957],[21.7359959,63.0846533],[21.7356225,63.0844567],[21.73504,63.0843653],[21.7317299,63.0845487],[21.729333,63.0849347],[21.729091,63.0846579],[21.7287561,63.0844021],[21.7281112,63.0841734],[21.7273965,63.0840079],[21.7166757,63.0827667],[21.7158499,63.083296],[21.7144945,63.0840896],[21.71336,63.0846778],[21.7123699,63.0850779],[21.7109574,63.0853652],[21.7094067,63.0855898],[21.7052317,63.0860143],[21.7039352,63.0879475],[21.7035057,63.0893481]]]}},{"type":"Feature","id":"relation/11931942","properties":{"name":"Ristinummi","ref":"","level":"pienalue","admin_level":10,"osm_relation_id":11931942,"parent_slug":"ristinummi","parent_name":"Ristinummi","parent_name_fi":"Ristinummi","parent_name_en":"Ristinummi major district","parent_name_fa":"ریستینومی","parent_ref":"08","parent_osm_relation_id":11931939,"outer_way_ids":[876338133,876338130,876338128,876338129,1540722538,876332290],"source":"OpenStreetMap relation 11931942; source tag: Vaasan kaupungin paikkatietopalvelut 2016","name_fi":"Ristinummi","name_en":"Ristinummi","name_fa":"ریستینومی (منطقه کوچک)","wikidata_id":"Q24368330","wikipedia_fi":"https://fi.wikipedia.org/wiki/Ristinummi_(Vaasa)","wikipedia_fa":"https://fa.wikipedia.org/wiki/%D8%B1%DB%8C%D8%B3%D8%AA%DB%8C%D9%86%D9%88%D9%85%DB%8C_(%D9%85%D9%86%D8%B7%D9%82%D9%87_%DA%A9%D9%88%DA%86%DA%A9)"},"geometry":{"type":"Polygon","coordinates":[[[21.7045493,63.1005894],[21.7051788,63.1012541],[21.709445,63.1050846],[21.7138682,63.1095136],[21.7156107,63.1107395],[21.7155485,63.1107516],[21.7160075,63.1111407],[21.7160695,63.1111288],[21.7168554,63.112161],[21.7172749,63.114188],[21.717587,63.1148836],[21.719318,63.1166712],[21.721815,63.1160763],[21.7248539,63.1154743],[21.7254994,63.1154101],[21.7269133,63.1150431],[21.7275582,63.1149344],[21.7293792,63.1144421],[21.7308556,63.1105852],[21.736175,63.0994438],[21.7382681,63.0991355],[21.7410874,63.089053],[21.7397694,63.089039],[21.7395666,63.088661],[21.739385,63.0885429],[21.739082,63.0883553],[21.7389757,63.0881795],[21.7386672,63.0879831],[21.738475,63.0877554],[21.7384437,63.0874135],[21.7380735,63.0870376],[21.7378768,63.0869825],[21.73788,63.086839],[21.7376846,63.0867691],[21.737721,63.086676],[21.7376715,63.0865977],[21.7373272,63.0864824],[21.7373133,63.0862989],[21.7372438,63.0862013],[21.7368539,63.0861016],[21.7365372,63.0859533],[21.7363476,63.0857837],[21.7364026,63.0856063],[21.7362778,63.0854057],[21.7361415,63.0851957],[21.7094834,63.090136],[21.7035057,63.0893481],[21.7027605,63.0917777],[21.7015985,63.095566],[21.7010819,63.0972498],[21.7045493,63.1005894]]]}},{"type":"Feature","id":"relation/11931938","properties":{"name":"Vanha Satama","ref":"","level":"pienalue","admin_level":10,"osm_relation_id":11931938,"parent_slug":"ristinummi","parent_name":"Ristinummi","parent_name_fi":"Ristinummi","parent_name_en":"Ristinummi major district","parent_name_fa":"ریستینومی","parent_ref":"08","parent_osm_relation_id":11931939,"outer_way_ids":[1540722536,876338122,1484184446,876273528,1540722533,1540722535,876338120,876338127],"source":"OpenStreetMap relation 11931938; source tag: Vaasan kaupungin paikkatietopalvelut 2016","name_fi":"Vanha Satama","name_en":"Vanhasatama","name_fa":"وانهاساتاما","wikidata_id":"Q108353825","wikipedia_fi":"https://fi.wikipedia.org/wiki/Vanhasatama","wikipedia_fa":"https://fa.wikipedia.org/wiki/%D9%88%D8%A7%D9%86%D9%87%D8%A7%D8%B3%D8%A7%D8%AA%D8%A7%D9%85%D8%A7"},"geometry":{"type":"Polygon","coordinates":[[[21.7342552,63.0436578],[21.7340243,63.0421166],[21.7285699,63.0423732],[21.7265132,63.04247],[21.7164847,63.0429417],[21.6837987,63.0496866],[21.661644,63.0564502],[21.6495589,63.0601924],[21.648879,63.0604124],[21.6854242,63.0669381],[21.6861535,63.0673601],[21.6867398,63.0678209],[21.6868465,63.0683109],[21.6867528,63.0688658],[21.6868224,63.0694149],[21.6869778,63.069977],[21.6878359,63.0706182],[21.691917,63.0731858],[21.6961216,63.0740984],[21.6998907,63.0703367],[21.7019676,63.0682637],[21.7044938,63.0687929],[21.7046673,63.0685155],[21.7047478,63.068196],[21.7170466,63.0699409],[21.717528,63.0691388],[21.7195427,63.0692656],[21.7203398,63.0686984],[21.7208634,63.068709],[21.7215855,63.0689123],[21.7222908,63.0691832],[21.7227897,63.069412],[21.7229247,63.0697251],[21.7236562,63.069789],[21.7240834,63.0687636],[21.7240589,63.0685035],[21.7240809,63.068096],[21.7239261,63.0677181],[21.7238875,63.0672455],[21.7243278,63.066405],[21.7245539,63.0657289],[21.7246054,63.065575],[21.7251814,63.0652117],[21.7254726,63.0649356],[21.7257249,63.0644894],[21.7259554,63.0628569],[21.7264168,63.0622743],[21.7274571,63.0615886],[21.7233883,63.0609405],[21.7244918,63.0589888],[21.7253623,63.0580985],[21.7266808,63.0570879],[21.7290985,63.0555579],[21.7318938,63.0541189],[21.7332626,63.0532541],[21.7340445,63.0522632],[21.73479,63.0504462],[21.7351081,63.0492605],[21.7347478,63.0477546],[21.7345283,63.0456175],[21.7342552,63.0436578]]]}},{"type":"Feature","id":"relation/11931940","properties":{"name":"Vanha-Vaasa","ref":"","level":"pienalue","admin_level":10,"osm_relation_id":11931940,"parent_slug":"ristinummi","parent_name":"Ristinummi","parent_name_fi":"Ristinummi","parent_name_en":"Ristinummi major district","parent_name_fa":"ریستینومی","parent_ref":"08","parent_osm_relation_id":11931939,"outer_way_ids":[876338120,1540722535,1540722533,876338121,876338126,876338125],"source":"OpenStreetMap relation 11931940; source tag: Vaasan kaupungin paikkatietopalvelut 2016","name_fi":"Vanha-Vaasa","name_en":"Old Vaasa","name_fa":"واسای قدیم","wikidata_id":"Q10502448","wikipedia_fi":"https://fi.wikipedia.org/wiki/Vanha_Vaasa","wikipedia_fa":"https://fa.wikipedia.org/wiki/%D9%88%D8%A7%D8%B3%D8%A7%DB%8C_%D9%82%D8%AF%DB%8C%D9%85"},"geometry":{"type":"Polygon","coordinates":[[[21.7019676,63.0682637],[21.7044938,63.0687929],[21.7046673,63.0685155],[21.7047478,63.068196],[21.7170466,63.0699409],[21.717528,63.0691388],[21.7195427,63.0692656],[21.7203398,63.0686984],[21.7208634,63.068709],[21.7215855,63.0689123],[21.7222908,63.0691832],[21.7227897,63.069412],[21.7229247,63.0697251],[21.7236562,63.069789],[21.7240834,63.0687636],[21.7240589,63.0685035],[21.7240809,63.068096],[21.7239261,63.0677181],[21.7238875,63.0672455],[21.7243278,63.066405],[21.7245539,63.0657289],[21.7246054,63.065575],[21.7251814,63.0652117],[21.7254726,63.0649356],[21.7257249,63.0644894],[21.7259554,63.0628569],[21.7264168,63.0622743],[21.7274571,63.0615886],[21.7233883,63.0609405],[21.7244918,63.0589888],[21.7253623,63.0580985],[21.7266808,63.0570879],[21.7290985,63.0555579],[21.7318938,63.0541189],[21.7332626,63.0532541],[21.7341032,63.0535984],[21.735146,63.0549856],[21.7362365,63.055495],[21.7368145,63.0564155],[21.7375294,63.0567983],[21.7382328,63.0570157],[21.7388088,63.0573826],[21.7397317,63.0576807],[21.7401689,63.0579396],[21.740725,63.0581664],[21.7419936,63.058336],[21.7428163,63.0584909],[21.7434555,63.0587087],[21.7441642,63.0591847],[21.7445209,63.0595191],[21.7451702,63.0600267],[21.7454626,63.0605228],[21.7457896,63.061587],[21.7462027,63.0627271],[21.7463793,63.0630889],[21.7464275,63.0633508],[21.7464628,63.0635955],[21.7465004,63.0637169],[21.7465198,63.0637511],[21.7466353,63.0640373],[21.7467803,63.0641006],[21.7472253,63.0641603],[21.7453426,63.0687603],[21.7442189,63.0714858],[21.7437742,63.0718328],[21.7390144,63.0722274],[21.7363259,63.0724934],[21.7344226,63.0728289],[21.7324112,63.0733998],[21.7299904,63.0741304],[21.727415,63.074965],[21.7245784,63.0758347],[21.722081,63.0765337],[21.7193564,63.077116],[21.7161004,63.0777232],[21.7122579,63.078528],[21.7117087,63.0784516],[21.7105408,63.0774506],[21.6974208,63.0747783],[21.6964184,63.0742537],[21.6961216,63.0740984],[21.6998907,63.0703367],[21.7019676,63.0682637]]]}},{"type":"Feature","id":"relation/11932030","properties":{"name":"Höstvesi","ref":"","level":"pienalue","admin_level":10,"osm_relation_id":11932030,"parent_slug":"hostvesi","parent_name":"Höstvesi","parent_name_fi":"Höstvesi","parent_name_en":"Höstvesi major district","parent_name_fa":"هوستوسی","parent_ref":"09","parent_osm_relation_id":11932028,"outer_way_ids":[876343892,876343890,876343893],"source":"OpenStreetMap relation 11932030; source tag: Vaasan kaupungin paikkatietopalvelut 2016","name_fi":"Höstvesi","name_en":"Höstvesi","name_fa":"هوست‌وسی","wikidata_id":"Q108369659","wikipedia_fi":"https://fi.wikipedia.org/wiki/H%C3%B6stvesi","wikipedia_fa":"https://fa.wikipedia.org/wiki/%D9%87%D9%88%D8%B3%D8%AA%E2%80%8C%D9%88%D8%B3%DB%8C"},"geometry":{"type":"Polygon","coordinates":[[[21.8281536,63.0627137],[21.8274206,63.0627346],[21.8267623,63.0626878],[21.8254502,63.0624519],[21.8246465,63.0622397],[21.8239176,63.0619373],[21.8237515,63.0614957],[21.8237349,63.0610428],[21.8231644,63.0602258],[21.8206642,63.0596739],[21.8168117,63.0591165],[21.8129625,63.0603749],[21.7937511,63.058729],[21.7916993,63.0660735],[21.7881476,63.06601],[21.7864653,63.0600946],[21.7885556,63.0584525],[21.7839859,63.0578386],[21.7794054,63.0600355],[21.779081,63.0606147],[21.778829,63.0637593],[21.7779699,63.0657308],[21.7634499,63.0642911],[21.7599518,63.0653171],[21.7602139,63.065641],[21.7602924,63.0659547],[21.7605399,63.0671409],[21.7607632,63.0676358],[21.7609249,63.0683172],[21.7613176,63.0688067],[21.7601606,63.068776],[21.7591077,63.0688139],[21.7586835,63.0687195],[21.757116,63.0708731],[21.7553984,63.0709617],[21.7544782,63.0726648],[21.7555603,63.072738],[21.7572145,63.0727658],[21.7601678,63.0725567],[21.7609224,63.0748576],[21.7772367,63.0798914],[21.7909453,63.082314],[21.7969202,63.0847202],[21.8026818,63.0874213],[21.8070894,63.0930918],[21.8252899,63.0669719],[21.827369,63.0638152],[21.8281536,63.0627137]]]}},{"type":"Feature","id":"relation/11932027","properties":{"name":"Pilvilampi","ref":"","level":"pienalue","admin_level":10,"osm_relation_id":11932027,"parent_slug":"hostvesi","parent_name":"Höstvesi","parent_name_fi":"Höstvesi","parent_name_en":"Höstvesi major district","parent_name_fa":"هوستوسی","parent_ref":"09","parent_osm_relation_id":11932028,"outer_way_ids":[876338130,1484184448,876343891,1484184447,1540722541,876343890,876343894,876338132,876338131],"source":"OpenStreetMap relation 11932027; source tag: Vaasan kaupungin paikkatietopalvelut 2016","name_fi":"Pilvilampi","name_en":"Pilvilampi","name_fa":"پیلوی‌لامپی","wikidata_id":"Q108369598","wikipedia_fi":"https://fi.wikipedia.org/wiki/Pilvilampi_(pienalue)","wikipedia_fa":"https://fa.wikipedia.org/wiki/%D9%BE%DB%8C%D9%84%D9%88%DB%8C%E2%80%8C%D9%84%D8%A7%D9%85%D9%BE%DB%8C"},"geometry":{"type":"Polygon","coordinates":[[[21.7361415,63.0851957],[21.7362778,63.0854057],[21.7364026,63.0856063],[21.7363476,63.0857837],[21.7365372,63.0859533],[21.7368539,63.0861016],[21.7372438,63.0862013],[21.7373133,63.0862989],[21.7373272,63.0864824],[21.7376715,63.0865977],[21.737721,63.086676],[21.7376846,63.0867691],[21.73788,63.086839],[21.7378768,63.0869825],[21.7380735,63.0870376],[21.7384437,63.0874135],[21.738475,63.0877554],[21.7386672,63.0879831],[21.7389757,63.0881795],[21.739082,63.0883553],[21.739385,63.0885429],[21.7395666,63.088661],[21.7397694,63.089039],[21.7410874,63.089053],[21.7382681,63.0991355],[21.736175,63.0994438],[21.7308556,63.1105852],[21.7293792,63.1144421],[21.7304922,63.1144937],[21.7405284,63.1145289],[21.7410848,63.1133658],[21.7446032,63.1094464],[21.7551599,63.1126288],[21.7542089,63.1144382],[21.752947,63.1145786],[21.7524863,63.1150475],[21.7526583,63.1156846],[21.7535425,63.1157036],[21.7503978,63.121677],[21.7577964,63.124733],[21.7587031,63.1251075],[21.779966,63.1145742],[21.7808981,63.1152716],[21.7846428,63.1151244],[21.785229,63.1151849],[21.7863408,63.1149006],[21.7884208,63.114959],[21.7890771,63.1147384],[21.7898542,63.1147845],[21.7911501,63.1145526],[21.7923665,63.1134621],[21.8024025,63.1125668],[21.8035143,63.1127129],[21.8041604,63.1130889],[21.8048869,63.1129941],[21.8050374,63.1126362],[21.8048532,63.1123501],[21.8143742,63.111526],[21.800379,63.1062402],[21.8007025,63.104995],[21.8009113,63.0955947],[21.8034447,63.0952978],[21.8057389,63.095029],[21.8070894,63.0930918],[21.8026818,63.0874213],[21.7969202,63.0847202],[21.7909453,63.082314],[21.7772367,63.0798914],[21.7609224,63.0748576],[21.7601678,63.0725567],[21.7572145,63.0727658],[21.7555603,63.072738],[21.7544782,63.0726648],[21.7506935,63.0721551],[21.7477284,63.0718576],[21.7462209,63.0717855],[21.7437742,63.0718328],[21.7431545,63.0722366],[21.7419115,63.0730787],[21.7407074,63.0795746],[21.7404651,63.0800789],[21.7359959,63.0846533],[21.7361415,63.0851957]]]}},{"type":"Feature","id":"relation/11932029","properties":{"name":"Runsor","ref":"","level":"pienalue","admin_level":10,"osm_relation_id":11932029,"parent_slug":"hostvesi","parent_name":"Höstvesi","parent_name_fi":"Höstvesi","parent_name_en":"Höstvesi major district","parent_name_fa":"هوستوسی","parent_ref":"09","parent_osm_relation_id":11932028,"outer_way_ids":[876338125,876338127,628848524,876343895,876343892,876343894],"source":"OpenStreetMap relation 11932029; source tag: Vaasan kaupungin paikkatietopalvelut 2016","name_fi":"Runsor","name_en":"Runsor","name_fa":null,"wikidata_id":"Q18661758","wikipedia_fi":"https://fi.wikipedia.org/wiki/Runsor","wikipedia_fa":null},"geometry":{"type":"Polygon","coordinates":[[[21.7437742,63.0718328],[21.7442189,63.0714858],[21.7453426,63.0687603],[21.7472253,63.0641603],[21.7467803,63.0641006],[21.7466353,63.0640373],[21.7465198,63.0637511],[21.7465004,63.0637169],[21.7464628,63.0635955],[21.7464275,63.0633508],[21.7463793,63.0630889],[21.7462027,63.0627271],[21.7457896,63.061587],[21.7454626,63.0605228],[21.7451702,63.0600267],[21.7445209,63.0595191],[21.7441642,63.0591847],[21.7434555,63.0587087],[21.7428163,63.0584909],[21.7419936,63.058336],[21.740725,63.0581664],[21.7401689,63.0579396],[21.7397317,63.0576807],[21.7388088,63.0573826],[21.7382328,63.0570157],[21.7375294,63.0567983],[21.7368145,63.0564155],[21.7362365,63.055495],[21.735146,63.0549856],[21.7341032,63.0535984],[21.7332626,63.0532541],[21.7340445,63.0522632],[21.73479,63.0504462],[21.7351081,63.0492605],[21.7347478,63.0477546],[21.7345283,63.0456175],[21.7342552,63.0436578],[21.7375599,63.0433826],[21.7442701,63.0428268],[21.7451192,63.0427187],[21.7446488,63.0421066],[21.748327,63.04152],[21.7501705,63.0413375],[21.7552902,63.0402368],[21.7606492,63.0391864],[21.7627487,63.0388904],[21.7662531,63.0382567],[21.766917,63.038181],[21.7696429,63.0381415],[21.7703651,63.0380549],[21.7723225,63.0377067],[21.7773186,63.0393981],[21.7776276,63.0395145],[21.7775599,63.0396042],[21.7790241,63.0402129],[21.7796824,63.0404415],[21.7801401,63.0396029],[21.7804918,63.0395175],[21.7848963,63.0401575],[21.7854827,63.0403688],[21.7863855,63.0407536],[21.785153,63.0418996],[21.785153,63.0422224],[21.7867623,63.0428823],[21.786815,63.0432608],[21.787987,63.0437689],[21.7877297,63.0438702],[21.788406,63.0441995],[21.7893762,63.0443519],[21.7921507,63.0454949],[21.8018468,63.0505926],[21.8103266,63.0539286],[21.8179807,63.0571008],[21.8189808,63.0571594],[21.8203301,63.0574169],[21.8192427,63.0579157],[21.8198974,63.0581706],[21.8201538,63.0580863],[21.8288944,63.0616736],[21.8281536,63.0627137],[21.8274206,63.0627346],[21.8267623,63.0626878],[21.8254502,63.0624519],[21.8246465,63.0622397],[21.8239176,63.0619373],[21.8237515,63.0614957],[21.8237349,63.0610428],[21.8231644,63.0602258],[21.8206642,63.0596739],[21.8168117,63.0591165],[21.8129625,63.0603749],[21.7937511,63.058729],[21.7916993,63.0660735],[21.7881476,63.06601],[21.7864653,63.0600946],[21.7885556,63.0584525],[21.7839859,63.0578386],[21.7794054,63.0600355],[21.779081,63.0606147],[21.778829,63.0637593],[21.7779699,63.0657308],[21.7634499,63.0642911],[21.7599518,63.0653171],[21.7602139,63.065641],[21.7602924,63.0659547],[21.7605399,63.0671409],[21.7607632,63.0676358],[21.7609249,63.0683172],[21.7613176,63.0688067],[21.7601606,63.068776],[21.7591077,63.0688139],[21.7586835,63.0687195],[21.757116,63.0708731],[21.7553984,63.0709617],[21.7544782,63.0726648],[21.7506935,63.0721551],[21.7477284,63.0718576],[21.7462209,63.0717855],[21.7437742,63.0718328]]]}},{"type":"Feature","id":"relation/11931137","properties":{"name":"Korkeamäki","ref":"","level":"pienalue","admin_level":10,"osm_relation_id":11931137,"parent_slug":"suvilahti","parent_name":"Suvilahti","parent_name_fi":"Suvilahti","parent_name_en":"Suvilahti major district","parent_name_fa":"سووی‌لاهتی (منطقه بزرگ واسا)","parent_ref":"10","parent_osm_relation_id":11931139,"outer_way_ids":[876273525,876273531,876249652],"source":"OpenStreetMap relation 11931137; source tag: Vaasan kaupungin paikkatietopalvelut 2016","name_fi":"Korkeamäki","name_en":"Korkeamäki","name_fa":"کورکئامکی","wikidata_id":"Q11872617","wikipedia_fi":"https://fi.wikipedia.org/wiki/Korkeam%C3%A4ki","wikipedia_fa":"https://fa.wikipedia.org/wiki/%DA%A9%D9%88%D8%B1%DA%A9%D8%A6%D8%A7%D9%85%DA%A9%DB%8C"},"geometry":{"type":"Polygon","coordinates":[[[21.6674097,63.0798257],[21.6662744,63.0786563],[21.6591782,63.0799607],[21.6571093,63.0801456],[21.654176,63.080342],[21.6500817,63.0806239],[21.6464648,63.0808988],[21.6451886,63.0809642],[21.6438468,63.081129],[21.6412344,63.0815935],[21.6528987,63.0878408],[21.6541883,63.0872563],[21.6550074,63.0868136],[21.6559834,63.0861794],[21.6571196,63.0852422],[21.65824,63.0842348],[21.6594301,63.0832274],[21.6602975,63.0826068],[21.6613043,63.0819863],[21.6623796,63.0815124],[21.6635711,63.08107],[21.6655833,63.08039],[21.6674097,63.0798257]]]}},{"type":"Feature","id":"relation/11931138","properties":{"name":"Suvilahti","ref":"","level":"pienalue","admin_level":10,"osm_relation_id":11931138,"parent_slug":"suvilahti","parent_name":"Suvilahti","parent_name_fi":"Suvilahti","parent_name_en":"Suvilahti major district","parent_name_fa":"سووی‌لاهتی (منطقه بزرگ واسا)","parent_ref":"10","parent_osm_relation_id":11931139,"outer_way_ids":[876249656,876273526,876273525,876332292,1540722532,876332282,876338121,876338124,876273528,876273530,876249659,876249658],"source":"OpenStreetMap relation 11931138; source tag: Vaasan kaupungin paikkatietopalvelut 2016","name_fi":"Suvilahti","name_en":"Suvilahti","name_fa":"سووی‌لاهتی (واسا)","wikidata_id":"Q18662164","wikipedia_fi":"https://fi.wikipedia.org/wiki/Suvilahti_(Vaasa)","wikipedia_fa":"https://fa.wikipedia.org/wiki/%D8%B3%D9%88%D9%88%DB%8C%E2%80%8C%D9%84%D8%A7%D9%87%D8%AA%DB%8C_(%D9%88%D8%A7%D8%B3%D8%A7)"},"geometry":{"type":"Polygon","coordinates":[[[21.6380209,63.0823914],[21.6315791,63.0801974],[21.6182755,63.0756656],[21.6060288,63.0714933],[21.6169627,63.0686547],[21.6374788,63.0633276],[21.6390398,63.0628977],[21.6487711,63.0604459],[21.648879,63.0604124],[21.6854242,63.0669381],[21.6861535,63.0673601],[21.6867398,63.0678209],[21.6868465,63.0683109],[21.6867528,63.0688658],[21.6868224,63.0694149],[21.6869778,63.069977],[21.6878359,63.0706182],[21.691917,63.0731858],[21.6961216,63.0740984],[21.6964184,63.0742537],[21.6974208,63.0747783],[21.7105408,63.0774506],[21.7117087,63.0784516],[21.7122579,63.078528],[21.7101465,63.0787076],[21.7095985,63.078733],[21.7089188,63.0787637],[21.7085072,63.0787835],[21.7062052,63.078698],[21.7030978,63.0784447],[21.7025931,63.0782125],[21.6977595,63.0774671],[21.6953429,63.0771687],[21.6945722,63.0771708],[21.6940124,63.0771723],[21.6919032,63.0772084],[21.6912407,63.0772816],[21.6905268,63.0773607],[21.6900514,63.0772916],[21.6899747,63.0772804],[21.6896378,63.0772999],[21.6884123,63.0773709],[21.6874068,63.0774292],[21.6862811,63.0774944],[21.6846472,63.077589],[21.6848278,63.0772762],[21.6805562,63.0776143],[21.6769379,63.078002],[21.6724159,63.0786197],[21.6701029,63.0790878],[21.6694303,63.0792721],[21.6674097,63.0798257],[21.6662744,63.0786563],[21.6591782,63.0799607],[21.6571093,63.0801456],[21.654176,63.080342],[21.6500817,63.0806239],[21.6464648,63.0808988],[21.6451886,63.0809642],[21.6438468,63.081129],[21.6412344,63.0815935],[21.6384035,63.0822885],[21.6380209,63.0823914]]]}},{"type":"Feature","id":"relation/11931247","properties":{"name":"Sundomin saaristo","ref":"","level":"pienalue","admin_level":10,"osm_relation_id":11931247,"parent_slug":"sundom","parent_name":"Sundom","parent_name_fi":"Sundom","parent_name_en":"Sundom","parent_name_fa":"منطقه بزرگ سوندوم","parent_ref":"11","parent_osm_relation_id":11931249,"outer_way_ids":[876283921,876283918,876283917,876283922,137751428,137751341,1484184445,1484184443,876283916],"source":"OpenStreetMap relation 11931247; source tag: Vaasan kaupungin paikkatietopalvelut 2016","name_fi":"Sundomin saaristo","name_en":"Sundom archipelago","name_fa":null,"wikidata_id":"Q56301361","wikipedia_fi":"https://fi.wikipedia.org/wiki/Sundomin_saaristo","wikipedia_fa":null},"geometry":{"type":"Polygon","coordinates":[[[21.5348571,63.089964],[21.5342775,63.0900644],[21.4633339,63.1023455],[21.2866903,63.1342875],[21.238927,63.129725],[21.2020133,63.1259921],[21.2016554,63.1258603],[21.2007492,63.1256878],[21.2003136,63.1257108],[21.199932,63.1257877],[21.0953351,63.1151989],[21.0370621,63.1092607],[21.0276273,63.1082992],[21.0509617,63.1029886],[21.0952627,63.0929903],[21.1941014,63.0706516],[21.2528696,63.0577683],[21.2569512,63.0568194],[21.2927908,63.0484792],[21.3008464,63.0465992],[21.3011442,63.0465295],[21.3018908,63.046368],[21.3021556,63.0462923],[21.3025836,63.0461918],[21.3110382,63.044209],[21.3165913,63.0429064],[21.3226305,63.0414893],[21.3323722,63.0392025],[21.3337412,63.038881],[21.3352358,63.0385301],[21.337177,63.0380742],[21.3389782,63.0376563],[21.3400917,63.037394],[21.3404759,63.0373046],[21.3412602,63.0371197],[21.342074,63.0369266],[21.3495714,63.0351337],[21.3495966,63.0351277],[21.3503711,63.0349272],[21.3514591,63.0346456],[21.3515047,63.0346339],[21.3520915,63.0344837],[21.3537665,63.0348821],[21.3593724,63.0362163],[21.372207,63.0392706],[21.373783,63.0406598],[21.3741151,63.0407341],[21.3742074,63.0408033],[21.3742309,63.040883],[21.3739494,63.0410773],[21.3742051,63.041237],[21.3749578,63.041209],[21.3779214,63.0418177],[21.3784859,63.0418498],[21.3793053,63.0418176],[21.3728951,63.0352495],[21.3674329,63.0296517],[21.367476,63.0296238],[21.3678864,63.0294271],[21.3679708,63.0289119],[21.368947,63.0284571],[21.3687754,63.0280944],[21.3692931,63.0280637],[21.3689783,63.0278113],[21.3680705,63.0277567],[21.3682489,63.026689],[21.3792412,63.0252885],[21.379592,63.0246625],[21.3798931,63.0244307],[21.3817779,63.0245932],[21.3844382,63.0237929],[21.3812274,63.0199267],[21.398154,63.0170788],[21.4203869,63.0180753],[21.4214413,63.0188949],[21.4233158,63.0196062],[21.4234955,63.0196143],[21.4238197,63.0197257],[21.4248606,63.020182],[21.4259378,63.0198424],[21.4292843,63.0192744],[21.4295376,63.0190243],[21.4293649,63.0184821],[21.4363203,63.0169831],[21.4418132,63.0206691],[21.4453969,63.0206953],[21.445627,63.0237726],[21.4652722,63.0292159],[21.4687935,63.0311261],[21.4680032,63.033479],[21.4762267,63.0351678],[21.4751752,63.040336],[21.466407,63.0432888],[21.4649131,63.0488419],[21.4637932,63.0544354],[21.4705417,63.0581572],[21.4801929,63.059881],[21.4828334,63.0591418],[21.4841493,63.0590907],[21.4859827,63.0593826],[21.4890613,63.0588628],[21.4897981,63.058],[21.4930166,63.0575492],[21.5036875,63.0586738],[21.5226717,63.0796187],[21.5348571,63.089964]]]}},{"type":"Feature","id":"relation/11931248","properties":{"name":"Yttersundom","ref":"","level":"pienalue","admin_level":10,"osm_relation_id":11931248,"parent_slug":"sundom","parent_name":"Sundom","parent_name_fi":"Sundom","parent_name_en":"Sundom","parent_name_fa":"منطقه بزرگ سوندوم","parent_ref":"11","parent_osm_relation_id":11931249,"outer_way_ids":[876283915,876283918,876283919,876249647,876249660,876249659,876283920],"source":"OpenStreetMap relation 11931248; source tag: Vaasan kaupungin paikkatietopalvelut 2016","name_fi":"Yttersundom","name_en":"Yttersundom","name_fa":null,"wikidata_id":"Q108372741","wikipedia_fi":"https://fi.wikipedia.org/wiki/Yttersundom","wikipedia_fa":null},"geometry":{"type":"Polygon","coordinates":[[[21.6123701,63.040971],[21.6059641,63.0422982],[21.6059855,63.0419715],[21.6064823,63.0416162],[21.6064712,63.0410396],[21.6052207,63.0409109],[21.6039129,63.0416072],[21.6014443,63.0421414],[21.6011358,63.0424454],[21.6002194,63.0428055],[21.5931147,63.042341],[21.5919235,63.042006],[21.5869378,63.0420693],[21.5861585,63.0423331],[21.5839,63.0423409],[21.5830562,63.0419551],[21.5820697,63.041616],[21.5804738,63.0414721],[21.5777144,63.0414081],[21.5706907,63.041181],[21.5690478,63.0408013],[21.5675495,63.0407491],[21.5658456,63.0402565],[21.5637369,63.0404892],[21.5631334,63.0410525],[21.5622348,63.0411206],[21.5613362,63.0413721],[21.5602041,63.0411206],[21.5594077,63.0408864],[21.5593737,63.0407568],[21.5593124,63.0405234],[21.559268,63.0403542],[21.5589699,63.0401973],[21.5587318,63.0400719],[21.5583445,63.0398679],[21.557912,63.0399646],[21.5561391,63.0389838],[21.5447183,63.0410981],[21.5446248,63.0404845],[21.5435692,63.0407659],[21.5429851,63.0409831],[21.5426234,63.0412461],[21.5402194,63.0431341],[21.5395683,63.0439665],[21.5394432,63.0446338],[21.5377545,63.0462709],[21.5373292,63.046459],[21.5366922,63.0463362],[21.5362919,63.0464222],[21.534048,63.0458896],[21.5334241,63.0462676],[21.525779,63.046296],[21.5239387,63.0467693],[21.4649131,63.0488419],[21.4637932,63.0544354],[21.4705417,63.0581572],[21.4801929,63.059881],[21.4828334,63.0591418],[21.4841493,63.0590907],[21.4859827,63.0593826],[21.4890613,63.0588628],[21.4897981,63.058],[21.4930166,63.0575492],[21.5036875,63.0586738],[21.5226717,63.0796187],[21.5348571,63.089964],[21.5425446,63.0879695],[21.5460008,63.0870728],[21.5913485,63.0753042],[21.6060288,63.0714933],[21.6169627,63.0686547],[21.6374788,63.0633276],[21.6291664,63.0559617],[21.6291101,63.055834],[21.6294978,63.0556602],[21.629317,63.0553436],[21.6285065,63.0552772],[21.6275343,63.0545528],[21.6276427,63.054366],[21.6280336,63.0542882],[21.6274091,63.0539795],[21.6276203,63.0538272],[21.6271329,63.0537036],[21.6267907,63.0538364],[21.6219667,63.0494494],[21.6123701,63.040971]]]}},{"type":"Feature","id":"relation/11931246","properties":{"name":"Översundom","ref":"","level":"pienalue","admin_level":10,"osm_relation_id":11931246,"parent_slug":"sundom","parent_name":"Sundom","parent_name_fi":"Sundom","parent_name_en":"Sundom","parent_name_fa":"منطقه بزرگ سوندوم","parent_ref":"11","parent_osm_relation_id":11931249,"outer_way_ids":[876283915,876283917,137751605,876273529],"source":"OpenStreetMap relation 11931246; source tag: Vaasan kaupungin paikkatietopalvelut 2016","name_fi":"Översundom","name_en":"Översundom","name_fa":null,"wikidata_id":"Q108372815","wikipedia_fi":"https://fi.wikipedia.org/wiki/%C3%96versundom","wikipedia_fa":null},"geometry":{"type":"Polygon","coordinates":[[[21.6123701,63.040971],[21.6059641,63.0422982],[21.6059855,63.0419715],[21.6064823,63.0416162],[21.6064712,63.0410396],[21.6052207,63.0409109],[21.6039129,63.0416072],[21.6014443,63.0421414],[21.6011358,63.0424454],[21.6002194,63.0428055],[21.5931147,63.042341],[21.5919235,63.042006],[21.5869378,63.0420693],[21.5861585,63.0423331],[21.5839,63.0423409],[21.5830562,63.0419551],[21.5820697,63.041616],[21.5804738,63.0414721],[21.5777144,63.0414081],[21.5706907,63.041181],[21.5690478,63.0408013],[21.5675495,63.0407491],[21.5658456,63.0402565],[21.5637369,63.0404892],[21.5631334,63.0410525],[21.5622348,63.0411206],[21.5613362,63.0413721],[21.5602041,63.0411206],[21.5594077,63.0408864],[21.5593737,63.0407568],[21.5593124,63.0405234],[21.559268,63.0403542],[21.5589699,63.0401973],[21.5587318,63.0400719],[21.5583445,63.0398679],[21.557912,63.0399646],[21.5561391,63.0389838],[21.5447183,63.0410981],[21.5446248,63.0404845],[21.5435692,63.0407659],[21.5429851,63.0409831],[21.5426234,63.0412461],[21.5402194,63.0431341],[21.5395683,63.0439665],[21.5394432,63.0446338],[21.5377545,63.0462709],[21.5373292,63.046459],[21.5366922,63.0463362],[21.5362919,63.0464222],[21.534048,63.0458896],[21.5334241,63.0462676],[21.525779,63.046296],[21.5239387,63.0467693],[21.4649131,63.0488419],[21.466407,63.0432888],[21.4751752,63.040336],[21.4762267,63.0351678],[21.4680032,63.033479],[21.4687935,63.0311261],[21.4652722,63.0292159],[21.445627,63.0237726],[21.4453969,63.0206953],[21.4418132,63.0206691],[21.4363203,63.0169831],[21.4712218,63.0094604],[21.4752547,63.0086636],[21.4962236,63.0047113],[21.51447,62.9971075],[21.5199576,62.994766],[21.5263234,62.9921577],[21.5271655,62.9919906],[21.5284862,62.9916009],[21.5303485,62.9905021],[21.5336837,62.9891414],[21.5340573,62.9886935],[21.5338108,62.9880949],[21.5342014,62.9878324],[21.5353879,62.987234],[21.5361156,62.9867438],[21.5361701,62.9866236],[21.5359375,62.9863922],[21.5370377,62.9865005],[21.5372846,62.9866123],[21.537407,62.9867767],[21.5379627,62.9866266],[21.54031,62.9855438],[21.5423756,62.9855638],[21.5480282,62.9832102],[21.5504812,62.9822362],[21.5516437,62.9818566],[21.5519276,62.9824835],[21.552603,62.9822162],[21.5630848,62.984832],[21.5577313,62.9889807],[21.5610117,62.9924706],[21.5939333,63.0283374],[21.5956817,63.0306239],[21.5956471,63.0309509],[21.5964637,63.0307499],[21.6085674,63.0376107],[21.6123701,63.040971]]]}}]}
