{"type":"FeatureCollection","generatedAt":"2026-08-11T10:37:17.277Z","source":{"label":"OpenStreetMap contributors via Overpass API","url":"https://www.openstreetmap.org/copyright","licence":"ODbL 1.0"},"features":[{"type":"Feature","geometry":{"type":"Point","coordinates":[21.6305712,63.0820186]},"properties":{"id":"node/89294060","category":"attractions","name":"Bragen ulkomuseo","osmType":"node","osmId":89294060,"names":{"sv":"Brages friluftsmuseum","en":"Brage open-air museum"},"address":"Bragenkuja 1, Vaasa"}},{"type":"Feature","geometry":{"type":"Point","coordinates":[21.6603248,63.1046227]},"properties":{"id":"node/3234791215","category":"attractions","name":"Edvininpolku","osmType":"node","osmId":3234791215,"website":"https://www.vaasa.fi/asu-ja-ela/vapaa-aika/puistot-ja-viheralueet/puistot/edvininpolun-puisto/"}},{"type":"Feature","geometry":{"type":"Point","coordinates":[21.5741799,63.148979]},"properties":{"id":"way/710376444","category":"attractions","name":"Hannas stuga","osmType":"way","osmId":710376444,"names":{"fi":"Hannan tupa","sv":"Hannas stuga"},"website":"https://gerbyvastervik.yhdistysavain.fi/hannas-stuga-byamuseum/"}},{"type":"Feature","geometry":{"type":"Point","coordinates":[22.1107844,63.076896]},"properties":{"id":"node/7619245682","category":"attractions","name":"Isopalanunen","osmType":"node","osmId":7619245682}},{"type":"Feature","geometry":{"type":"Point","coordinates":[21.6309911,63.0814577]},"properties":{"id":"node/6938837275","category":"attractions","name":"Jatulintarha","osmType":"node","osmId":6938837275,"names":{"fi":"Jatulintarha","sv":"Jungfrudans","en":"Troy town"}}},{"type":"Feature","geometry":{"type":"Point","coordinates":[22.0879611,63.1173936]},"properties":{"id":"way/759544229","category":"attractions","name":"Kaitajan näköalapaikka","osmType":"way","osmId":759544229}},{"type":"Feature","geometry":{"type":"Point","coordinates":[21.9455361,63.0778151]},"properties":{"id":"node/11018330651","category":"attractions","name":"Kolkin kartano","osmType":"node","osmId":11018330651,"names":{"fi":"Kolkin kartano","sv":"Golkas Herrgård"},"address":"Kolkinsilta 61, Vaasa"}},{"type":"Feature","geometry":{"type":"Point","coordinates":[21.6003365,63.0964101]},"properties":{"id":"way/88206747","category":"attractions","name":"Kuntsin modernin taiteen museo","osmType":"way","osmId":88206747,"names":{"fi":"Kuntsin modernin taiteen museo","sv":"Kuntsi museum för modern konst","en":"Kuntsi Museum of Modern Art"},"website":"https://www.vaasa.fi/en/see-and-experience/culture-in-vaasa-and-vaasa-region/museums-of-vaasa/kuntsi-museum-of-modern-art/","openingHours":"We-Su 10:00-17:00","address":"Sisäsatama, Vaasa"}},{"type":"Feature","geometry":{"type":"Point","coordinates":[22.0669079,63.0912952]},"properties":{"id":"node/13897133572","category":"attractions","name":"Mullolantien aurinkokellot","osmType":"node","osmId":13897133572}},{"type":"Feature","geometry":{"type":"Point","coordinates":[21.9555894,63.070143]},"properties":{"id":"node/9902607370","category":"attractions","name":"Myllymuseo","osmType":"node","osmId":9902607370}},{"type":"Feature","geometry":{"type":"Point","coordinates":[21.5997246,63.0564457]},"properties":{"id":"node/8282909040","category":"attractions","name":"Näset","osmType":"node","osmId":8282909040}},{"type":"Feature","geometry":{"type":"Point","coordinates":[22.0858593,63.0890995]},"properties":{"id":"node/13897134967","category":"attractions","name":"Paimenen kirjoituskivi","osmType":"node","osmId":13897134967}},{"type":"Feature","geometry":{"type":"Point","coordinates":[21.6541547,63.0696231]},"properties":{"id":"node/5832912452","category":"attractions","name":"Patteriniemi","osmType":"node","osmId":5832912452}},{"type":"Feature","geometry":{"type":"Point","coordinates":[22.1051269,63.0582021]},"properties":{"id":"node/6457037998","category":"attractions","name":"Pläkkyrimuseo Fyrry","osmType":"node","osmId":6457037998,"website":"https://www.museiportalosterbotten.fi/museot-a-o/museo/68-fyrry-plakkyrimuseo","address":"Merikaarrontie 5, Vähäkyrö"}},{"type":"Feature","geometry":{"type":"Point","coordinates":[21.6018841,63.0995837]},"properties":{"id":"way/717765186","category":"attractions","name":"Pohjanmaan museo","osmType":"way","osmId":717765186,"names":{"sv":"Österbottens museum","en":"Ostrobothnian museum"},"website":"http://www.pohjanmaanmuseo.fi/","openingHours":"Tu-Su 10:00-17:00","address":"Museokatu 3, Vaasa"}},{"type":"Feature","geometry":{"type":"Point","coordinates":[21.6836776,63.0500483]},"properties":{"id":"way/799463838","category":"attractions","name":"Risön lintutorni","osmType":"way","osmId":799463838}},{"type":"Feature","geometry":{"type":"Point","coordinates":[21.5679073,63.0083932]},"properties":{"id":"node/500794645","category":"attractions","name":"Söderfjärdenin Meteoriihi","osmType":"node","osmId":500794645,"names":{"fi":"Söderfjärdenin Meteoriihi","sv":"Meteoria Söderfjärden"},"website":"https://www.meteoria.fi/?lang=3"}},{"type":"Feature","geometry":{"type":"Point","coordinates":[21.6064756,63.0945756]},"properties":{"id":"way/88212689","category":"attractions","name":"Tikanojan taidekoti","osmType":"way","osmId":88212689,"names":{"fi":"Tikanojan taidekoti","sv":"Tikanojas konsthem","en":"Tikanoja Art Museum"},"website":"https://www.vaasa.fi/en/see-and-experience/culture-in-vaasa-and-vaasa-region/museums-of-vaasa/tikanoja-art-museum/","openingHours":"Tu-Su 10:00-17:00","address":"Hovioikeudenpuistikko 4"}},{"type":"Feature","geometry":{"type":"Point","coordinates":[22.1235547,62.9741533]},"properties":{"id":"node/13897714388","category":"attractions","name":"Turukivi","osmType":"node","osmId":13897714388}},{"type":"Feature","geometry":{"type":"Point","coordinates":[21.6312968,63.0974456]},"properties":{"id":"node/902629107","category":"attractions","name":"Vaasan auto- ja moottorimuseo","osmType":"node","osmId":902629107,"names":{"sv":"Vasa bil- och motormuseum","en":"Vaasa Car and Motor Museum"},"website":"https://vaasanautomuseo.fi","openingHours":"May-Aug 10:00-17:00","operator":"Vaasan Veteraaniautoseura – Vasa Veteranbilssällskap ry","address":"Myllykatu 18, Vaasa"}},{"type":"Feature","geometry":{"type":"Point","coordinates":[21.5848487,63.107207]},"properties":{"id":"way/1527454867","category":"attractions","name":"Vaasan merimuseo","osmType":"way","osmId":1527454867,"names":{"sv":"Vasa Sjöfartsmuseum","en":"Vaasa Maritime Museum"},"website":"http://www.vaasanmerimuseo.fi/","openingHours":"Jun-Aug: Mo-Fr 13:00-18:00"}},{"type":"Feature","geometry":{"type":"Point","coordinates":[21.6121517,63.095231]},"properties":{"id":"node/11164680863","category":"attractions","name":"Vaasan taidehalli","osmType":"node","osmId":11164680863,"names":{"fi":"Vaasan taidehalli","sv":"Vasa konsthall","en":"Vaasa Art Hall"},"website":"https://vaasankaupunginmuseot.fi/vaasan-taidehalli/","openingHours":"Tu-Sa 11:00-17:00; Su 12:00-17:00"}},{"type":"Feature","geometry":{"type":"Point","coordinates":[21.6041032,63.1111107]},"properties":{"id":"node/13917351175","category":"attractions","name":"Vaasan työväenmuseo","osmType":"node","osmId":13917351175}},{"type":"Feature","geometry":{"type":"Point","coordinates":[21.6127693,63.0934218]},"properties":{"id":"way/28692713","category":"attractions","name":"Vaasan vesitorni","osmType":"way","osmId":28692713}},{"type":"Feature","geometry":{"type":"Point","coordinates":[21.7223841,63.0723165]},"properties":{"id":"node/13240681771","category":"attractions","name":"Vanhan Vaasan museo","osmType":"node","osmId":13240681771,"names":{"fi":"Vanhan Vaasan museo","sv":"Gamla Vasa museum"},"address":"Kauppiaankatu 10, Vaasa"}},{"type":"Feature","geometry":{"type":"Point","coordinates":[22.1058719,63.0568691]},"properties":{"id":"node/6457127833","category":"attractions","name":"Vähänkyrön Kirkon Vaivaisukko","osmType":"node","osmId":6457127833}},{"type":"Feature","geometry":{"type":"Point","coordinates":[22.1076184,63.057345]},"properties":{"id":"way/440556402","category":"attractions","name":"Vähänkyrön kotiseutumuseo","osmType":"way","osmId":440556402,"website":"https://www.museiportalosterbotten.fi/museot-a-o/museo/65-vahankyron-kotiseutumuseo","operator":"Vähäkyrö-Seura","address":"Kirkonsilta 6, Vähäkyrö"}},{"type":"Feature","geometry":{"type":"Point","coordinates":[21.6290465,63.0960412]},"properties":{"id":"node/12079423511","category":"attractions","name":"Wasa Graffitilandia","osmType":"node","osmId":12079423511,"website":"https://wasagraffitilandia.fi","openingHours":"Tu-Su 12:00-16:00","address":"Opistokatu 8, Vaasa"}},{"type":"Feature","geometry":{"type":"Point","coordinates":[21.7224241,63.0722751]},"properties":{"id":"way/124455986","category":"attractions","name":"Wasastjernan talo","osmType":"way","osmId":124455986,"address":"Kauppiaankatu 10, Vaasa"}},{"type":"Feature","geometry":{"type":"Point","coordinates":[21.5734094,63.035891]},"properties":{"id":"way/151698345","category":"attractions","name":"Öjberget","osmType":"way","osmId":151698345}},{"type":"Feature","geometry":{"type":"Point","coordinates":[21.578211,63.0352676]},"properties":{"id":"node/6463556530","category":"attractions","name":"Öjbergetin Hiidenkirnu","osmType":"node","osmId":6463556530}},{"type":"Feature","geometry":{"type":"Point","coordinates":[21.6521498,63.111112]},"properties":{"id":"node/7417156528","category":"healthcare","name":"Apteekki Kivihaka","osmType":"node","osmId":7417156528,"names":{"fi":"Apteekki Kivihaka","sv":"Stenhaga Apotek"},"website":"https://www.apteekkikivihaka.fi/fi/","openingHours":"Mo-Fr 09:00-19:00; Sa 10:00-16:00; Su 11:00-16:00","address":"Kiilletie 2, Vaasa"}},{"type":"Feature","geometry":{"type":"Point","coordinates":[21.6248108,63.1035981]},"properties":{"id":"node/9035605771","category":"healthcare","name":"Apteekki Vaasa Minimani","osmType":"node","osmId":9035605771,"names":{"fi":"Apteekki Vaasa Minimani","sv":"Apoteket Vasa Minimani"},"website":"https://www.apteekkivaasaminimani.fi/","openingHours":"Mo-Fr 09:00-18:00; Sa 09:00-15:00","address":"Laivakatu 13, Vaasa"}},{"type":"Feature","geometry":{"type":"Point","coordinates":[21.6520671,63.1086276]},"properties":{"id":"node/12154799268","category":"healthcare","name":"Avainapteekki Vanha Apteekki","osmType":"node","osmId":12154799268,"openingHours":"Mo-Fr 09:00-20:00; Sa 10:00-17:00; Su 12:00-16:00"}},{"type":"Feature","geometry":{"type":"Point","coordinates":[21.6144253,63.0848709]},"properties":{"id":"node/13696713604","category":"healthcare","name":"Fimlab Vaasan keskussairaala","osmType":"node","osmId":13696713604,"address":"Hietalahdenkatu 2 B1, Vaasa"}},{"type":"Feature","geometry":{"type":"Point","coordinates":[21.6165908,63.0859052]},"properties":{"id":"node/13696713655","category":"healthcare","name":"Hengityshalvausyksikkö","osmType":"node","osmId":13696713655,"address":"Hietalahdenkatu 2-4 G5, Vaasa"}},{"type":"Feature","geometry":{"type":"Point","coordinates":[21.6148757,63.0858371]},"properties":{"id":"node/13696713638","category":"healthcare","name":"Ihotautien poliklinikka","osmType":"node","osmId":13696713638,"operator":"Vaasan keskussairaala, Pohjanmaan hyvinvointialue","address":"Hietalahdenkatu 2-4 S3, Vaasa"}},{"type":"Feature","geometry":{"type":"Point","coordinates":[21.6163735,63.0846687]},"properties":{"id":"node/13696713653","category":"healthcare","name":"Keuhkopoliklinikka","osmType":"node","osmId":13696713653,"operator":"Vaasan keskussairaala, Pohjanmaan hyvinvointialue","address":"Hietalahdenkatu 2-4 H3, Vaasa"}},{"type":"Feature","geometry":{"type":"Point","coordinates":[21.6159685,63.0848426]},"properties":{"id":"node/13696713641","category":"healthcare","name":"Kirurgian vuodeosastot","osmType":"node","osmId":13696713641,"operator":"Vaasan keskussairaala, Pohjanmaan hyvinvointialue","address":"Hietalahdenkatu 2-4 H4, Vaasa"}},{"type":"Feature","geometry":{"type":"Point","coordinates":[21.6166196,63.0847869]},"properties":{"id":"node/13696713647","category":"healthcare","name":"Kirurginen poliklinikka ja skopiayksikkö","osmType":"node","osmId":13696713647,"operator":"Vaasan keskussairaala, Pohjanmaan hyvinvointialue","address":"Hietalahdenkatu 2-4 H2, Vaasa"}},{"type":"Feature","geometry":{"type":"Point","coordinates":[21.6145627,63.0847374]},"properties":{"id":"node/13696713621","category":"healthcare","name":"Kliininen neurofysiologia","osmType":"node","osmId":13696713621,"names":{"sv":"Klinisk neurofysiologi"},"operator":"Vaasan keskussairaala, Pohjanmaan hyvinvointialue","address":"Hietalahdenkatu 2-4 A5, Vaasa"}},{"type":"Feature","geometry":{"type":"Point","coordinates":[21.6149812,63.0859653]},"properties":{"id":"node/13696713639","category":"healthcare","name":"Kotisairaala, palliatiivinen poliklinikka","osmType":"node","osmId":13696713639,"website":"https://pohjanmaanhyvinvointi.fi/palvelumme/terveys-ja-sairaanhoitopalvelut/sairaalapalvelut/yleislaaketieteen-hoito-osastot/pohjanmaan-kotisairaala/","operator":"Vaasan keskussairaala, Pohjanmaan hyvinvointialue"}},{"type":"Feature","geometry":{"type":"Point","coordinates":[21.6139713,63.0853508]},"properties":{"id":"node/13696677899","category":"healthcare","name":"Lastenneurologinen yksikkö","osmType":"node","osmId":13696677899,"names":{"fi":"Lastenneurologinen yksikkö","sv":"Barnneurologiska enheten"},"operator":"Vaasan keskussairaala, Pohjanmaan hyvinvointialue","address":"Hietalahdenkatu 2-4 U3, Vaasa"}},{"type":"Feature","geometry":{"type":"Point","coordinates":[21.6137853,63.0855944]},"properties":{"id":"node/13696713603","category":"healthcare","name":"Lastenpoliklinikka","osmType":"node","osmId":13696713603,"names":{"fi":"Lastenpoliklinikka","sv":"Barnpolikliniken"},"operator":"Vaasan keskussairaala, Pohjanmaan hyvinvointialue"}},{"type":"Feature","geometry":{"type":"Point","coordinates":[21.6141426,63.0847132]},"properties":{"id":"node/13696713617","category":"healthcare","name":"Lastenpsykiatrian poliklinikka","osmType":"node","osmId":13696713617,"names":{"sv":"Barnpsykiatriska polikliniken"},"operator":"Vaasan keskussairaala, Pohjanmaan hyvinvointialue","address":"Hietalahdenkatu 2-4 A3, Vaasa"}},{"type":"Feature","geometry":{"type":"Point","coordinates":[21.6143257,63.0846351]},"properties":{"id":"node/13696713622","category":"healthcare","name":"Lastentautien osasto","osmType":"node","osmId":13696713622,"names":{"sv":"Avdelningen för barnsjukdomar"},"operator":"Vaasan keskussairaala, Pohjanmaan hyvinvointialue","address":"Hietalahdenkatu 2-4 A9, Vaasa"}},{"type":"Feature","geometry":{"type":"Point","coordinates":[21.6139338,63.0841602]},"properties":{"id":"node/13696713642","category":"healthcare","name":"Leikkausosasto","osmType":"node","osmId":13696713642,"names":{"sv":"Operationsavdelningen"},"operator":"Vaasan keskussairaala, Pohjanmaan hyvinvointialue","address":"Hietalahdenkatu 2-4 F2, Vaasa"}},{"type":"Feature","geometry":{"type":"Point","coordinates":[21.6202871,63.0955588]},"properties":{"id":"way/844519197","category":"healthcare","name":"Mehiläinen","osmType":"way","osmId":844519197,"operator":"Mehiläinen","address":"Vaasanpuistikko 22"}},{"type":"Feature","geometry":{"type":"Point","coordinates":[21.614421,63.084477]},"properties":{"id":"node/13696713616","category":"healthcare","name":"Naistentautien poliklinikka","osmType":"node","osmId":13696713616,"operator":"Vaasan keskussairaala, Pohjanmaan hyvinvointialue","address":"Hietalahdenkatu 2-4 A5, Vaasa"}},{"type":"Feature","geometry":{"type":"Point","coordinates":[21.6168074,63.0842585]},"properties":{"id":"node/13696713652","category":"healthcare","name":"Neurologian ja sisätautien osasto","osmType":"node","osmId":13696713652,"names":{"sv":"Avdelning för inremedicin och neurologi"},"operator":"Vaasan keskussairaala, Pohjanmaan hyvinvointialue","address":"Hietalahdenkatu 2-4 H6, Vaasa"}},{"type":"Feature","geometry":{"type":"Point","coordinates":[21.6160103,63.0846762]},"properties":{"id":"node/13696713654","category":"healthcare","name":"Neurologian poliklinikka","osmType":"node","osmId":13696713654,"names":{"sv":"Neurologiska polikliniken"},"operator":"Vaasan keskussairaala, Pohjanmaan hyvinvointialue","address":"Hietalahdenkatu 2-4 H3, Vaasa"}},{"type":"Feature","geometry":{"type":"Point","coordinates":[21.5943983,63.108459]},"properties":{"id":"node/196154090","category":"healthcare","name":"Palosaaren apteekki","osmType":"node","osmId":196154090,"names":{"fi":"Palosaaren apteekki","sv":"Brändö apotek"},"website":"https://www.palosaarenapteekki.com/","openingHours":"Mo-Fr 09:00-18:00; Sa 10:00-14:00","address":"Palosaarentie 16, Vaasa"}},{"type":"Feature","geometry":{"type":"Point","coordinates":[21.6134727,63.0848168]},"properties":{"id":"node/13696713607","category":"healthcare","name":"Patologia","osmType":"node","osmId":13696713607,"names":{"fi":"Patologian osasto","sv":"Patologiavdelningen"},"operator":"Vaasan keskussairaala, Pohjanmaan hyvinvointialue","address":"Hietalahdenkatu 2-4 D0, Vaasa"}},{"type":"Feature","geometry":{"type":"Point","coordinates":[21.6460548,63.098048]},"properties":{"id":"node/13706157499","category":"healthcare","name":"Pohjanmaan diabetesyksikkö, Vaasan diabetesvastaanotto","osmType":"node","osmId":13706157499,"operator":"Pohjanmaan hyvinvointialue","address":"Tammikaivontie 4, Vaasa"}},{"type":"Feature","geometry":{"type":"Point","coordinates":[21.6159949,63.0840243]},"properties":{"id":"node/13696713643","category":"healthcare","name":"Preoperatiivinen poliklinikka","osmType":"node","osmId":13696713643,"names":{"sv":"Preoperativa polikliniken"},"operator":"Vaasan keskussairaala, Pohjanmaan hyvinvointialue","address":"Hietalahdenkatu 2-4 Y2"}},{"type":"Feature","geometry":{"type":"Point","coordinates":[21.6154301,63.0838984]},"properties":{"id":"node/13696713658","category":"healthcare","name":"Päivystysosasto","osmType":"node","osmId":13696713658,"operator":"Vaasan keskussairaala, Pohjanmaan hyvinvointialue","address":"Hietalahdenkatu 2-4 Y1, Vaasa"}},{"type":"Feature","geometry":{"type":"Point","coordinates":[21.6160528,63.0841873]},"properties":{"id":"node/13696713640","category":"healthcare","name":"Päiväkirurgia","osmType":"node","osmId":13696713640,"names":{"sv":"Dagkirurgi"},"operator":"Vaasan keskussairaala, Pohjanmaan hyvinvointialue","address":"Hietalahdenkatu 2-4 Y2, Vaasa"}},{"type":"Feature","geometry":{"type":"Point","coordinates":[21.6144811,63.0840864]},"properties":{"id":"node/13699958615","category":"healthcare","name":"Röntgen","osmType":"node","osmId":13699958615,"operator":"Vaasan keskussairaala, Pohjanmaan hyvinvointialue","address":"Hietalahdenkatu 2-4 F1, Vaasa"}},{"type":"Feature","geometry":{"type":"Point","coordinates":[21.6140573,63.0851266]},"properties":{"id":"node/13696713656","category":"healthcare","name":"Seri-tukikeskus","osmType":"node","osmId":13696713656,"names":{"sv":"Seri-stödcentret"},"operator":"Vaasan keskussairaala, Pohjanmaan hyvinvointialue","address":"Hietalahdenkatu 2-4 A5;B4, Vaasa"}},{"type":"Feature","geometry":{"type":"Point","coordinates":[21.6142771,63.0843727]},"properties":{"id":"node/13696713610","category":"healthcare","name":"Silmäpolikliniikka ja silmien päiväkirurgia","osmType":"node","osmId":13696713610,"names":{"sv":"Ögonenheten och ögondagskirurgi"},"operator":"Vaasan keskussairaala, Pohjanmaan hyvinvointialue","address":"Hietalahdenkatu 2-4 A6, Vaasa"}},{"type":"Feature","geometry":{"type":"Point","coordinates":[21.617055,63.0849001]},"properties":{"id":"node/13696713650","category":"healthcare","name":"Sisätautien poliklinikka","osmType":"node","osmId":13696713650,"names":{"sv":"Inremedicinska polikliniken"},"operator":"Vaasan keskussairaala, Pohjanmaan hyvinvointialue","address":"Hietalahdenkatu 2-4 H2, Vaasa"}},{"type":"Feature","geometry":{"type":"Point","coordinates":[21.6141096,63.0844701]},"properties":{"id":"node/13696713615","category":"healthcare","name":"Suu- ja leukasairauksien sekä korva-, nenä- ja kurkkutautien poliklinikka","osmType":"node","osmId":13696713615,"names":{"sv":"Enhet för mun- och käksjukdomar och öron-näsa-hals polikliniken"},"operator":"Vaasan keskussairaala, Pohjanmaan hyvinvointialue","address":"2-4 A7, Vaasa"}},{"type":"Feature","geometry":{"type":"Point","coordinates":[21.614505,63.0842686]},"properties":{"id":"node/13696713625","category":"healthcare","name":"Sydänasema","osmType":"node","osmId":13696713625,"names":{"sv":"Hjärtstationen"},"operator":"Vaasan keskussairaala, Pohjanmaan hyvinvointialue","address":"Hietalahdenkatu 2-4 F1, Vaasa"}},{"type":"Feature","geometry":{"type":"Point","coordinates":[21.615417,63.0841647]},"properties":{"id":"node/13696713612","category":"healthcare","name":"Sydänosasto","osmType":"node","osmId":13696713612,"names":{"fi":"Sydänosasto","sv":"Hjärtavdelningen"},"operator":"Vaasan keskussairaala, Pohjanmaan hyvinvointialue","address":"Hietalahdenkatu 2-4 Y1, Vaasa"}},{"type":"Feature","geometry":{"type":"Point","coordinates":[21.6140566,63.0849912]},"properties":{"id":"node/13696713605","category":"healthcare","name":"Synnytyssali","osmType":"node","osmId":13696713605,"names":{"sv":"Förlossningssal"},"operator":"Vaasan keskussairaala, Pohjanmaan hyvinvointialue","address":"Hietalahdenkatu 2 B4, Vaasa"}},{"type":"Feature","geometry":{"type":"Point","coordinates":[21.6152789,63.0859809]},"properties":{"id":"node/13696713659","category":"healthcare","name":"Syöpä- ja veritautien osasto","osmType":"node","osmId":13696713659,"names":{"sv":"Avdelning för cancer- och blodsjukdomar"},"operator":"Vaasan keskussairaala, Pohjanmaan hyvinvointialue","address":"Hietalahdenkatu 2-4 S1, Vaasa"}},{"type":"Feature","geometry":{"type":"Point","coordinates":[21.6158754,63.0855147]},"properties":{"id":"node/13696713660","category":"healthcare","name":"Syöpätautien poliklinikka ja päiväosasto","osmType":"node","osmId":13696713660,"names":{"sv":"Poliklinik och dagavdelning för cancersjukdomar"},"operator":"Vaasan keskussairaala, Pohjanmaan hyvinvointialue","address":"Hietalahdenkatu 2-4 PQ1, Vaasa"}},{"type":"Feature","geometry":{"type":"Point","coordinates":[21.6156784,63.085706]},"properties":{"id":"node/13696713661","category":"healthcare","name":"Sädehoito-osasto","osmType":"node","osmId":13696713661,"names":{"sv":"Strålbehandlingsavdelningen"},"operator":"Vaasan keskussairaala, Pohjanmaan hyvinvointialue","address":"Hietalahdenkatu 2-4 Q0-1, Vaasa"}},{"type":"Feature","geometry":{"type":"Point","coordinates":[21.614768,63.0841904]},"properties":{"id":"node/13696713657","category":"healthcare","name":"Tehohoidon ja -valvonnan osasto","osmType":"node","osmId":13696713657,"names":{"sv":"Intensivvårds- och övervakningsavdelningen"},"operator":"Vaasan keskussairaala, Pohjanmaan hyvinvointialue","address":"Hietalahdenkatu 2-4 F0, Vaasa"}},{"type":"Feature","geometry":{"type":"Point","coordinates":[22.1405158,63.0044865]},"properties":{"id":"node/6631018253","category":"healthcare","name":"Tervajoen sivuapteekki","osmType":"node","osmId":6631018253,"names":{"fi":"Tervajoen sivuapteekki"},"website":"https://www.e-apteekki.fi","openingHours":"Mo-Fr 09:00-17:00","address":"Loukontie 6, Tervajoki"}},{"type":"Feature","geometry":{"type":"Point","coordinates":[21.6164166,63.0980758]},"properties":{"id":"node/574919943","category":"healthcare","name":"Terveystalo Vaasa","osmType":"node","osmId":574919943,"website":"https://www.terveystalo.com/fi/toimipaikat/terveystalo-vaasa","operator":"Terveystalo","address":"Pitkäkatu 28-30, Vaasa"}},{"type":"Feature","geometry":{"type":"Point","coordinates":[21.6156122,63.0845756]},"properties":{"id":"node/13696713606","category":"healthcare","name":"Vaasan Hietalahden apteekki","osmType":"node","osmId":13696713606,"names":{"sv":"Vasa Sandvikens apotek"},"website":"https://vaasanapteekki.fi/"}},{"type":"Feature","geometry":{"type":"Point","coordinates":[21.6147723,63.0964883]},"properties":{"id":"node/196155698","category":"healthcare","name":"Vaasan keskusapteekki","osmType":"node","osmId":196155698,"names":{"fi":"Vaasan keskusapteekki","sv":"Vasa Centralapotek"},"website":"https://www.apocentral.fi/","openingHours":"Mo-Fr 09:00-19:00; Sa 09:00-17:00; Su 12:00-16:00","address":"Hovioikeudenpuistikko 15, Vaasa"}},{"type":"Feature","geometry":{"type":"Point","coordinates":[21.6157203,63.0851846]},"properties":{"id":"way/708319387","category":"healthcare","name":"Vaasan keskussairaala","osmType":"way","osmId":708319387,"names":{"fi":"Vaasan keskussairaala","sv":"Vasa centralsjukhus","en":"Vaasa Central Hospital"},"website":"https://www.vaasankeskussairaala.fi/","address":"Hietalahdenkatu 2-4, Vaasa"}},{"type":"Feature","geometry":{"type":"Point","coordinates":[21.6973945,63.0724328]},"properties":{"id":"node/9611412130","category":"healthcare","name":"Vaasan Kuninkaan Apteekki","osmType":"node","osmId":9611412130,"names":{"fi":"Vaasan Kuninkaan Apteekki","sv":"Kungsapoteket i Vasa"},"website":"https://www.vaasankuninkaanapteekki.fi/","openingHours":"Mo-Fr 09:00-20:00; Sa 10:00-18:00; Su 12:00-18:00","address":"Elementtitehtaantie 1, Vaasa"}},{"type":"Feature","geometry":{"type":"Point","coordinates":[21.6168062,63.0846796]},"properties":{"id":"node/13696713649","category":"healthcare","name":"Vaasan terveyskeskus","osmType":"node","osmId":13696713649,"names":{"fi":"Vaasan terveyskeskus","sv":"Vasa hälsocentral"},"openingHours":"Mo-Fr 08:00-16:00","operator":"Pohjanmaan hyvinvointialue","address":"Hietalahdenkatu 2-4 H1, Vaasa"}},{"type":"Feature","geometry":{"type":"Point","coordinates":[22.1103773,63.054441]},"properties":{"id":"node/10097256775","category":"healthcare","name":"Vähäkyrön terveysasema","osmType":"node","osmId":10097256775,"address":"Vähäkyröntie 18, Vähäkyrö"}},{"type":"Feature","geometry":{"type":"Point","coordinates":[22.1076599,63.0546621]},"properties":{"id":"node/6456695506","category":"healthcare","name":"Vähänkyrön apteekki","osmType":"node","osmId":6456695506,"website":"https://www.e-apteekki.fi/","openingHours":"Mo 09:00-18:00; Tu-Fr 09:00-17:00; Sa 09:00-14:00","address":"Heikkiläntie 1, Vähäkyrö"}},{"type":"Feature","geometry":{"type":"Point","coordinates":[21.6121676,63.0964942]},"properties":{"id":"node/4782334585","category":"healthcare","name":"WellMedic","osmType":"node","osmId":4782334585}},{"type":"Feature","geometry":{"type":"Point","coordinates":[21.6149213,63.0839593]},"properties":{"id":"node/13696713611","category":"healthcare","name":"Yhteispäivystys","osmType":"node","osmId":13696713611,"names":{"fi":"Yhteispäivystys","sv":"Samjouren"},"operator":"Vaasan keskussairaala, Pohjanmaan hyvinvointialue","address":"Hietalahdenkatu 2-4 Y0, Vaasa"}},{"type":"Feature","geometry":{"type":"Point","coordinates":[21.6165006,63.0844207]},"properties":{"id":"node/13696713648","category":"healthcare","name":"Yleislääketieteen osasto","osmType":"node","osmId":13696713648,"operator":"Vaasan keskussairaala, Pohjanmaan hyvinvointialue","address":"Hietalahdenkatu 2-4 H5, Vaasa"}},{"type":"Feature","geometry":{"type":"Point","coordinates":[21.6138352,63.0845546]},"properties":{"id":"node/13696713614","category":"healthcare","name":"Äitiyspoliklinikka","osmType":"node","osmId":13696713614,"names":{"sv":"Mödrapolikliniken"},"operator":"Vaasan keskussairaala, Pohjanmaan hyvinvointialue","address":"Hietalahdenkatu 2-4 A8, Vaasa"}},{"type":"Feature","geometry":{"type":"Point","coordinates":[21.6768105,63.0934805]},"properties":{"id":"node/7764814726","category":"libraries","name":"Kohtaamispaikka Huudi","osmType":"node","osmId":7764814726,"names":{"en":"Library and Meeting Place Huudi"},"website":"https://kirjasto.vaasa.fi/fi/library-page/kohtaamispaikka-huudi?refId=3U3mkN","operator":"Vaasan kaupunginkirjasto","address":"Mannerheimintie 41, Vaasa"}},{"type":"Feature","geometry":{"type":"Point","coordinates":[21.9472973,63.0697863]},"properties":{"id":"node/6456631724","category":"libraries","name":"Merikaarron Kirjasto","osmType":"node","osmId":6456631724}},{"type":"Feature","geometry":{"type":"Point","coordinates":[21.5928782,63.1092965]},"properties":{"id":"way/45182479","category":"libraries","name":"Palosaaren kirjasto","osmType":"way","osmId":45182479,"names":{"fi":"Palosaaren kirjasto","sv":"Brändö bibliotek"},"address":"Pikitehtaankatu 19-23"}},{"type":"Feature","geometry":{"type":"Point","coordinates":[21.5939092,63.1055444]},"properties":{"id":"way/88077599","category":"libraries","name":"Tiedekirjasto Tritonia","osmType":"way","osmId":88077599,"names":{"en":"Tritonia Academic Library"},"website":"https://www.tritonia.fi/","openingHours":"Mo-Fr 08:00-18:00","address":"Wolffintie 34"}},{"type":"Feature","geometry":{"type":"Point","coordinates":[21.6107973,63.0994592]},"properties":{"id":"way/88218141","category":"libraries","name":"Vaasan pääkirjasto","osmType":"way","osmId":88218141,"names":{"fi":"Vaasan pääkirjasto","sv":"Vasa huvudbibliotek","en":"Vaasa Main Library"},"website":"https://vaasankirjasto.finna.fi","openingHours":"Mo-Th 10:00-19:00; Fr 10:00-17:00","address":"Kirjastonkatu 13, Vaasa"}},{"type":"Feature","geometry":{"type":"Point","coordinates":[21.7249484,63.0857283]},"properties":{"id":"node/2159895855","category":"libraries","name":"Variskan kijasto","osmType":"node","osmId":2159895855}},{"type":"Feature","geometry":{"type":"Point","coordinates":[21.6317892,63.0936193]},"properties":{"id":"way/27544226","category":"police","name":"Vaasan pääpoliisiasema","osmType":"way","osmId":27544226,"names":{"fi":"Vaasan pääpoliisiasema","sv":"Vasa huvudpolisstation"},"website":"https://poliisi.fi/pohjanmaan-poliisilaitos","openingHours":"Mo-Fr 08:00-16:15","operator":"Poliisi, Pohjanmaan poliisilaitos","address":"Korsholmanpuistikko 45, Vaasa"}},{"type":"Feature","geometry":{"type":"Point","coordinates":[21.6416947,63.1012753]},"properties":{"id":"way/844517254","category":"supermarkets","name":"HalpaHalli","osmType":"way","osmId":844517254,"openingHours":"Mo-Sa 08:00-21:00; Su 10:00-21:00"}},{"type":"Feature","geometry":{"type":"Point","coordinates":[21.615856,63.0969445]},"properties":{"id":"node/89612468","category":"supermarkets","name":"K-Citymarket","osmType":"node","osmId":89612468,"website":"https://www.k-ruoka.fi/kauppa/k-citymarket-vaasa-keskusta","openingHours":"Mo-Sa 07:00-23:00; Su 09:00-23:00","address":"Hovioikeudenpuistikko 17, Vaasa"}},{"type":"Feature","geometry":{"type":"Point","coordinates":[21.6519708,63.1084055]},"properties":{"id":"way/88232164","category":"supermarkets","name":"K-Citymarket","osmType":"way","osmId":88232164,"names":{"fi":"K-Citymarket Vaasa Kivihaka","sv":"K-Citymarket Vasa Stenhaga"},"website":"https://www.k-ruoka.fi/kauppa/k-citymarket-vaasa-kivihaka","openingHours":"Mo-Sa 07:00-23:00; Su 09:00-23:00","address":"Kokkokalliontie 2-6, Vaasa"}},{"type":"Feature","geometry":{"type":"Point","coordinates":[21.6305788,63.0918815]},"properties":{"id":"node/1533167306","category":"supermarkets","name":"K-Supermarket","osmType":"node","osmId":1533167306,"website":"https://www.k-ruoka.fi/kauppa/k-supermarket-wasa","openingHours":"Mo-Fr 07:00-23:00; Su 09:00-23:00; Sa 08:00-23:00","address":"Klemetinkatu 17, Vaasa"}},{"type":"Feature","geometry":{"type":"Point","coordinates":[21.6837096,63.0905867]},"properties":{"id":"node/257919927","category":"supermarkets","name":"K-Supermarket","osmType":"node","osmId":257919927,"website":"https://www.k-ruoka.fi/kauppa/k-supermarket-huutoniemi","openingHours":"Mo-Fr 07:00-21:00; Sa 07:00-20:00; Su 11:00-18:00","address":"Kuninkaantie 69, Vaasa"}},{"type":"Feature","geometry":{"type":"Point","coordinates":[21.6999693,63.0852752]},"properties":{"id":"node/257073145","category":"supermarkets","name":"Lidl","osmType":"node","osmId":257073145,"openingHours":"Mo-Fr 08:00-21:00; Sa 08:00-18:00; Su 12:00-18:00"}},{"type":"Feature","geometry":{"type":"Point","coordinates":[21.6582465,63.1129727]},"properties":{"id":"node/4133558902","category":"supermarkets","name":"Lidl","osmType":"node","osmId":4133558902,"openingHours":"Mo-Sa 08:00-21:00; Su 10:00-21:00","address":"Gneissikuja 1"}},{"type":"Feature","geometry":{"type":"Point","coordinates":[21.634704,63.0995436]},"properties":{"id":"way/1033211403","category":"supermarkets","name":"Lidl","osmType":"way","osmId":1033211403,"openingHours":"Mo-Sa 08:00-21:00; Su 10:00-21:00","operator":"Lidl"}},{"type":"Feature","geometry":{"type":"Point","coordinates":[21.624461,63.1040057]},"properties":{"id":"node/5929192505","category":"supermarkets","name":"Minimani","osmType":"node","osmId":5929192505,"website":"https://minimani.fi/minimani-vaasa/","openingHours":"Mo-Sa 07:00-23:00; Su 09:00-23:00","address":"Laivakatu 13, Vaasa"}},{"type":"Feature","geometry":{"type":"Point","coordinates":[21.6460481,63.102771]},"properties":{"id":"node/5935507113","category":"supermarkets","name":"Prisma","osmType":"node","osmId":5935507113,"website":"https://www.s-kaupat.fi/myymala/prisma-kotiranta-vaasa/518636626","openingHours":"Mo-Su 07:00-23:00","address":"Jukolantie 1, Vaasa"}},{"type":"Feature","geometry":{"type":"Point","coordinates":[21.6978505,63.0729564]},"properties":{"id":"node/9608348960","category":"supermarkets","name":"Prisma","osmType":"node","osmId":9608348960,"website":"https://www.s-kaupat.fi/myymala/prisma-liisanlehto-vaasa/726235149","openingHours":"Mo-Su 07:00-23:00","address":"Elementtitehtaantie 1, Vaasa"}},{"type":"Feature","geometry":{"type":"Point","coordinates":[21.5982077,63.1100686]},"properties":{"id":"node/246535543","category":"supermarkets","name":"S-market","osmType":"node","osmId":246535543,"website":"https://www.s-kaupat.fi/myymala/s-market-palosaari/518618566","openingHours":"Mo-Sa 07:00-22:00; Su 09:00-22:00","address":"Palosaarentie 26, Vaasa"}},{"type":"Feature","geometry":{"type":"Point","coordinates":[21.6025996,63.1308052]},"properties":{"id":"node/246535551","category":"supermarkets","name":"S-market","osmType":"node","osmId":246535551,"website":"https://www.s-kaupat.fi/myymala/s-market-gerby/639126291","openingHours":"Mo-Sa 07:00-23:00; Su 09:00-23:00","address":"Västervikintie 2, Vaasa"}},{"type":"Feature","geometry":{"type":"Point","coordinates":[21.6214076,63.0962453]},"properties":{"id":"node/8783049710","category":"supermarkets","name":"S-market","osmType":"node","osmId":8783049710,"website":"https://www.s-kaupat.fi/myymala/s-market-vaasanpuistikko/726261697/","openingHours":"Mo-Sa 06:00-23:00; Su 09:00-23:00","address":"Vaasanpuistikko 17"}},{"type":"Feature","geometry":{"type":"Point","coordinates":[21.5553394,63.0413681]},"properties":{"id":"way/1370394982","category":"supermarkets","name":"S-market","osmType":"way","osmId":1370394982,"website":"https://www.s-kaupat.fi/myymala/s-market-sundom/639200443","openingHours":"Mo-Sa 07:00-21:00; Su 09:00-21:00","address":"Kronvikintie 4, Sundom"}},{"type":"Feature","geometry":{"type":"Point","coordinates":[22.1051914,63.0554142]},"properties":{"id":"way/540266721","category":"supermarkets","name":"S-market","osmType":"way","osmId":540266721,"website":"https://www.s-kaupat.fi/myymala/s-market-vahakyro/501619860","openingHours":"Mo-Sa 07:00-21:00; Su 09:00-21:00","address":"Vähäkyröntie 1, Vähäkyrö"}},{"type":"Feature","geometry":{"type":"Point","coordinates":[21.7271732,63.0858961]},"properties":{"id":"way/94787437","category":"supermarkets","name":"S-market","osmType":"way","osmId":94787437,"website":"https://www.s-kaupat.fi/myymala/s-market-ristinummi-vaasa/613758168","openingHours":"Mo-Sa 07:00-21:00; Su 12:00-18:00","address":"Vanhan Vaasan katu 19, Vaasa"}},{"type":"Feature","geometry":{"type":"Point","coordinates":[21.5462896,63.0324806]},"properties":{"id":"node/305446340","category":"supermarkets","name":"Stens","osmType":"node","osmId":305446340,"website":"https://www.k-ruoka.fi/kauppa/k-market-sundom","openingHours":"Mo-Fr 08:00-21:00; Sa 09:00-21:00; Su 11:00-19:00","address":"Sundomintie 128"}}]}
