{"type":"FeatureCollection","metadata":{"generated_at":"2026-08-11T11:30:48.908Z","source":"OpenStreetMap contributors","licence":"ODbL 1.0","api_source":"https://api.openstreetmap.org/api/0.6","wikidata_source":"https://www.wikidata.org/w/api.php","wikidata_entity_count":66,"suuralue_count":12,"pienalue_count":55,"expected_pienalue_count":60,"unresolved_pienalue_count":5,"unresolved_note":"The configured OSM hierarchy currently contains no admin_level=10 child relations for Vähäkyrö."},"features":[{"type":"Feature","id":"relation/11930886","properties":{"slug":"keskusta","name":"Keskusta","ref":"01","level":"suuralue","admin_level":9,"osm_relation_id":11930886,"outer_way_ids":[876249656,876249658,876249660,876249648,876249649,876260542,876249651,876260545,876249637,876255162,876249639,876249631,876255163,876249642,876249653,876255168,1540323469,876273527,876249652,876273526],"source":"OpenStreetMap relation 11930886; source tag: Vaasan kaupungin paikkatietopalvelut 2016","name_fi":"Keskusta","name_en":"Keskusta major district","name_fa":"مرکز شهر واسا","wikidata_id":"Q56399589","wikipedia_fi":"https://fi.wikipedia.org/wiki/Keskustan_suuralue_(Vaasa)","wikipedia_fa":"https://fa.wikipedia.org/wiki/%D9%85%D8%B1%DA%A9%D8%B2_%D8%B4%D9%87%D8%B1_%D9%88%D8%A7%D8%B3%D8%A7"},"geometry":{"type":"Polygon","coordinates":[[[21.6380209,63.0823914],[21.6315791,63.0801974],[21.6182755,63.0756656],[21.6060288,63.0714933],[21.5913485,63.0753042],[21.5914612,63.076657],[21.592096,63.0842755],[21.5927151,63.0917048],[21.5927877,63.0925492],[21.5930904,63.0960687],[21.5932587,63.099135],[21.6013426,63.1025],[21.6043139,63.1010472],[21.6049957,63.1010907],[21.6052682,63.1011004],[21.605496,63.1011048],[21.6059083,63.1011029],[21.6062135,63.1010916],[21.6065586,63.1010677],[21.6068792,63.101041],[21.6071762,63.1010103],[21.6077401,63.1009402],[21.608441,63.1008518],[21.6121296,63.100112],[21.6156818,63.0994185],[21.6188092,63.0987315],[21.6201859,63.0983383],[21.6225533,63.0975674],[21.6235874,63.097198],[21.6253071,63.0965836],[21.6255164,63.0964327],[21.6331732,63.0939706],[21.6354414,63.0932412],[21.6466505,63.0897737],[21.6494192,63.0889172],[21.6506677,63.088531],[21.6528987,63.0878408],[21.6412344,63.0815935],[21.6384035,63.0822885],[21.6380209,63.0823914]]]}},{"type":"Feature","id":"relation/11930928","properties":{"slug":"voyrinkaupunki","name":"Vöyrinkaupunki","ref":"02","level":"suuralue","admin_level":9,"osm_relation_id":11930928,"outer_way_ids":[876249653,876249642,876255163,876249631,876249639,876255162,876255165,1540323447,876265314,876265317,876315750,876326918,876255164,876255169,876332284,876255167,1540323469,876255168],"source":"OpenStreetMap relation 11930928; source tag: Vaasan kaupungin paikkatietopalvelut 2016","name_fi":"Vöyrinkaupunki","name_en":"Vöyrinkaupunki major district","name_fa":"وورین‌کاوپونکی","wikidata_id":"Q56399588","wikipedia_fi":"https://fi.wikipedia.org/wiki/V%C3%B6yrinkaupungin_suuralue","wikipedia_fa":"https://fa.wikipedia.org/wiki/%D9%88%D9%88%D8%B1%DB%8C%D9%86%E2%80%8C%DA%A9%D8%A7%D9%88%D9%BE%D9%88%D9%86%DA%A9%DB%8C"},"geometry":{"type":"Polygon","coordinates":[[[21.6354414,63.0932412],[21.6331732,63.0939706],[21.6255164,63.0964327],[21.6253071,63.0965836],[21.6235874,63.097198],[21.6225533,63.0975674],[21.6201859,63.0983383],[21.6188092,63.0987315],[21.6156818,63.0994185],[21.6121296,63.100112],[21.608441,63.1008518],[21.6077401,63.1009402],[21.6071762,63.1010103],[21.6068792,63.101041],[21.6065586,63.1010677],[21.6062135,63.1010916],[21.6059083,63.1011029],[21.605496,63.1011048],[21.6052682,63.1011004],[21.6049957,63.1010907],[21.6043139,63.1010472],[21.6013426,63.1025],[21.6025389,63.1030737],[21.6067833,63.1065238],[21.6092209,63.1076318],[21.6099196,63.1079494],[21.6101112,63.1099246],[21.6148508,63.1128074],[21.6189074,63.1111569],[21.6223243,63.1097666],[21.6300139,63.1066376],[21.6389351,63.1031662],[21.6397097,63.1034563],[21.6415087,63.1026362],[21.6418266,63.10257],[21.6570008,63.0960592],[21.65764,63.0956991],[21.6568134,63.0953004],[21.6563589,63.0953085],[21.655424,63.0920069],[21.653677,63.0924646],[21.6549456,63.0907127],[21.654049,63.090582],[21.6546927,63.0895236],[21.6506677,63.088531],[21.6494192,63.0889172],[21.6466505,63.0897737],[21.6354414,63.0932412]]]}},{"type":"Feature","id":"relation/11931015","properties":{"slug":"vaskiluoto","name":"Vaskiluoto","ref":"03","level":"suuralue","admin_level":9,"osm_relation_id":11931015,"outer_way_ids":[876260547,876260543,876265320,876260545,876249651,876260542,876249649,876249648,876249647,876283919,876260541],"source":"OpenStreetMap relation 11931015; source tag: Vaasan kaupungin paikkatietopalvelut 2016","name_fi":"Vaskiluoto","name_en":"Vaskiluoto","name_fa":"واسکی‌لوتو","wikidata_id":"Q11900622","wikipedia_fi":"https://fi.wikipedia.org/wiki/Vaskiluoto","wikipedia_fa":"https://fa.wikipedia.org/wiki/%D9%88%D8%A7%D8%B3%DA%A9%DB%8C%E2%80%8C%D9%84%D9%88%D8%AA%D9%88"},"geometry":{"type":"Polygon","coordinates":[[[21.5723159,63.1073608],[21.5563833,63.0999626],[21.5515986,63.0977404],[21.5348571,63.089964],[21.5425446,63.0879695],[21.5460008,63.0870728],[21.5913485,63.0753042],[21.5914612,63.076657],[21.592096,63.0842755],[21.5927151,63.0917048],[21.5927877,63.0925492],[21.5930904,63.0960687],[21.5932587,63.099135],[21.591545,63.0998082],[21.5844991,63.1025758],[21.5723159,63.1073608]]]}},{"type":"Feature","id":"relation/11931113","properties":{"slug":"palosaari","name":"Palosaari","ref":"04","level":"suuralue","admin_level":9,"osm_relation_id":11931113,"outer_way_ids":[1540323447,876265314,876265317,876265313,876315774,876315747,876265316,876260543,876265320,876249637,876255165],"source":"OpenStreetMap relation 11931113; source tag: Vaasan kaupungin paikkatietopalvelut 2016","name_fi":"Palosaari","name_en":"Palosaari","name_fa":"پالوساری (واسا)","wikidata_id":"Q11886553","wikipedia_fi":"https://fi.wikipedia.org/wiki/Palosaari_(Vaasa)","wikipedia_fa":"https://fa.wikipedia.org/wiki/%D9%BE%D8%A7%D9%84%D9%88%D8%B3%D8%A7%D8%B1%DB%8C_(%D9%88%D8%A7%D8%B3%D8%A7)"},"geometry":{"type":"Polygon","coordinates":[[[21.6067833,63.1065238],[21.6092209,63.1076318],[21.6099196,63.1079494],[21.6101112,63.1099246],[21.6148508,63.1128074],[21.6127389,63.114628],[21.6085586,63.1167011],[21.6076124,63.1172524],[21.6068499,63.1174425],[21.6041701,63.1198405],[21.5993107,63.1186819],[21.5990413,63.1186176],[21.5857143,63.1154399],[21.5819133,63.1131481],[21.5723159,63.1073608],[21.5844991,63.1025758],[21.591545,63.0998082],[21.5932587,63.099135],[21.6013426,63.1025],[21.6025389,63.1030737],[21.6067833,63.1065238]]]}},{"type":"Feature","id":"relation/11931679","properties":{"slug":"gerby","name":"Gerby","ref":"05","level":"suuralue","admin_level":9,"osm_relation_id":11931679,"outer_way_ids":[876283921,876260541,876260547,876265316,876315747,876315774,876265313,876315750,1540323462,876315752,1540323464,876315773,876315751,876315756,1484822135,876315748,1540323458,1484822081,1484822082,137751397,1484822084,1484822151,1484822150],"source":"OpenStreetMap relation 11931679; source tag: Vaasan kaupungin paikkatietopalvelut 2016","name_fi":"Gerby","name_en":"Gerby major district","name_fa":"گربو","wikidata_id":"Q11860427","wikipedia_fi":"https://fi.wikipedia.org/wiki/Gerby","wikipedia_fa":"https://fa.wikipedia.org/wiki/%DA%AF%D8%B1%D8%A8%D9%88"},"geometry":{"type":"MultiPolygon","coordinates":[[[[21.5348571,63.089964],[21.5342775,63.0900644],[21.4633339,63.1023455],[21.2866903,63.1342875],[21.2936604,63.1349532],[21.3054119,63.1361086],[21.3884629,63.1442727],[21.4115917,63.136283],[21.4480708,63.1569366],[21.443328,63.1752267],[21.4630798,63.170817],[21.4720401,63.178854],[21.4905821,63.1742758],[21.502355,63.1660977],[21.5170346,63.1682048],[21.5254767,63.1697972],[21.5301981,63.1702882],[21.535114,63.1705724],[21.5367002,63.1706641],[21.5525956,63.1690376],[21.5569455,63.1686699],[21.5694589,63.1673678],[21.5870958,63.1640923],[21.5938784,63.1627892],[21.5979181,63.1620698],[21.5971302,63.1624042],[21.5970142,63.1627751],[21.5994492,63.1639568],[21.6014028,63.1638871],[21.6000927,63.1616641],[21.6034823,63.160268],[21.6053344,63.157409],[21.6160568,63.1544879],[21.6197589,63.1516301],[21.6198331,63.1477438],[21.6260566,63.1490597],[21.6277075,63.149362],[21.6286922,63.1461231],[21.630179,63.1462306],[21.6325102,63.1463188],[21.6343868,63.1463212],[21.6345034,63.1463198],[21.6354922,63.1462203],[21.6369164,63.1460841],[21.6382682,63.1465624],[21.6391779,63.1468241],[21.6393635,63.1468776],[21.6400899,63.1470866],[21.6417534,63.1472627],[21.6429127,63.147014],[21.6436313,63.1479226],[21.645048,63.1475792],[21.630652,63.1305327],[21.6235312,63.1220971],[21.6211546,63.1198284],[21.6202985,63.119011],[21.6198767,63.1190247],[21.6163119,63.1186177],[21.6184644,63.1159325],[21.618505,63.1151506],[21.6186081,63.1131636],[21.6186264,63.1128099],[21.6188893,63.1122047],[21.6189074,63.1111569],[21.6148508,63.1128074],[21.6127389,63.114628],[21.6085586,63.1167011],[21.6076124,63.1172524],[21.6068499,63.1174425],[21.6041701,63.1198405],[21.5993107,63.1186819],[21.5990413,63.1186176],[21.5857143,63.1154399],[21.5819133,63.1131481],[21.5723159,63.1073608],[21.5563833,63.0999626],[21.5515986,63.0977404],[21.5348571,63.089964]]],[[[21.3999941,63.163219],[21.3973581,63.1613134],[21.3963716,63.1609848],[21.3945765,63.1613499],[21.3922316,63.1623866],[21.3885767,63.161255],[21.3792778,63.1592105],[21.3760358,63.1622739],[21.3778168,63.1674659],[21.3765212,63.1718539],[21.3803809,63.1727464],[21.385708,63.1713608],[21.3874704,63.1695288],[21.3906044,63.1681034],[21.3996158,63.167783],[21.3999941,63.163219]]]]}},{"type":"Feature","id":"relation/11931725","properties":{"slug":"kotiranta","name":"Kotiranta","ref":"06","level":"suuralue","admin_level":9,"osm_relation_id":11931725,"outer_way_ids":[876255169,876326920,876326921,876326922,876326924,876315753,1484822128,876315751,876315773,1540323464,876315752,1540323462,876326918,876255164],"source":"OpenStreetMap relation 11931725","name_fi":"Kotiranta","name_en":"Kotiranta major district","name_fa":"کوتی‌رانتا","wikidata_id":"Q56399591","wikipedia_fi":"https://fi.wikipedia.org/wiki/Kotirannan_suuralue","wikipedia_fa":"https://fa.wikipedia.org/wiki/%DA%A9%D9%88%D8%AA%DB%8C%E2%80%8C%D8%B1%D8%A7%D9%86%D8%AA%D8%A7"},"geometry":{"type":"Polygon","coordinates":[[[21.6418266,63.10257],[21.6415087,63.1026362],[21.6397097,63.1034563],[21.6389351,63.1031662],[21.6300139,63.1066376],[21.6223243,63.1097666],[21.6189074,63.1111569],[21.6188893,63.1122047],[21.6186264,63.1128099],[21.6186081,63.1131636],[21.618505,63.1151506],[21.6184644,63.1159325],[21.6163119,63.1186177],[21.6198767,63.1190247],[21.6202985,63.119011],[21.6211546,63.1198284],[21.6235312,63.1220971],[21.630652,63.1305327],[21.645048,63.1475792],[21.6468542,63.1471413],[21.6492912,63.1475927],[21.6536599,63.1476949],[21.6532309,63.1472581],[21.6551183,63.1470991],[21.6568148,63.1468105],[21.6565726,63.1465229],[21.6554405,63.144585],[21.6550439,63.1445607],[21.655243,63.1440291],[21.6544109,63.1439703],[21.6548557,63.1435834],[21.6552279,63.1431149],[21.6563016,63.1427047],[21.6572628,63.1419004],[21.6588674,63.1412229],[21.6593021,63.1409483],[21.6596722,63.140574],[21.6603963,63.1396027],[21.6605599,63.1390806],[21.661606,63.1386322],[21.66207,63.1380946],[21.6628741,63.1364479],[21.6637972,63.1359315],[21.6634481,63.1358351],[21.6631127,63.1355644],[21.6617086,63.1358171],[21.6615762,63.1356019],[21.6619978,63.1352731],[21.6621719,63.134814],[21.6642302,63.1347852],[21.6653257,63.1332696],[21.6664561,63.1334194],[21.6670098,63.1320649],[21.6660729,63.1315512],[21.6660596,63.1312329],[21.6648536,63.1298444],[21.6646738,63.1297613],[21.6640505,63.1296658],[21.6637917,63.1295746],[21.6674029,63.1284194],[21.6643527,63.1267086],[21.6651596,63.1264645],[21.6656152,63.1263271],[21.6657998,63.1251172],[21.6686757,63.1247419],[21.6675503,63.1231592],[21.6658958,63.1213023],[21.6650455,63.1211783],[21.6650595,63.1205944],[21.664467,63.1203735],[21.6645216,63.1203096],[21.6637125,63.1201933],[21.6637637,63.1198962],[21.6634521,63.1195255],[21.6639114,63.1192863],[21.6627909,63.1174281],[21.6644648,63.1158602],[21.6646781,63.1156603],[21.665247,63.1149536],[21.6658122,63.1142516],[21.6659958,63.1137329],[21.6634838,63.1139956],[21.6632013,63.1136274],[21.6629853,63.1133459],[21.6626211,63.1128711],[21.6653448,63.1127658],[21.6641804,63.111064],[21.6653526,63.1100057],[21.6542512,63.1071134],[21.6510875,63.1061819],[21.6485839,63.1053425],[21.6418266,63.10257]]]}},{"type":"Feature","id":"relation/11931778","properties":{"slug":"huutoniemi","name":"Huutoniemi","ref":"07","level":"suuralue","admin_level":9,"osm_relation_id":11931778,"outer_way_ids":[876273527,876273531,876332292,1540722532,876332282,876332281,876332293,876338129,1540722538,876332290,876332286,876332283,876332280,876326921,876326920,876332284,876255167],"source":"OpenStreetMap relation 11931778; source tag: Vaasan kaupungin paikkatietopalvelut 2016","name_fi":"Huutoniemi","name_en":"Huutoniemi major district","name_fa":"هوتونیمی","wikidata_id":"Q56399593","wikipedia_fi":"https://fi.wikipedia.org/wiki/Huutoniemen_suuralue","wikipedia_fa":"https://fa.wikipedia.org/wiki/%D9%87%D9%88%D8%AA%D9%88%D9%86%DB%8C%D9%85%DB%8C"},"geometry":{"type":"Polygon","coordinates":[[[21.6506677,63.088531],[21.6528987,63.0878408],[21.6541883,63.0872563],[21.6550074,63.0868136],[21.6559834,63.0861794],[21.6571196,63.0852422],[21.65824,63.0842348],[21.6594301,63.0832274],[21.6602975,63.0826068],[21.6613043,63.0819863],[21.6623796,63.0815124],[21.6635711,63.08107],[21.6655833,63.08039],[21.6674097,63.0798257],[21.6694303,63.0792721],[21.6701029,63.0790878],[21.6724159,63.0786197],[21.6769379,63.078002],[21.6805562,63.0776143],[21.6848278,63.0772762],[21.6846472,63.077589],[21.6862811,63.0774944],[21.6874068,63.0774292],[21.6884123,63.0773709],[21.6896378,63.0772999],[21.6899747,63.0772804],[21.6900514,63.0772916],[21.6905268,63.0773607],[21.6912407,63.0772816],[21.6919032,63.0772084],[21.6940124,63.0771723],[21.6945722,63.0771708],[21.6953429,63.0771687],[21.6977595,63.0774671],[21.7025931,63.0782125],[21.7030978,63.0784447],[21.7062052,63.078698],[21.7085072,63.0787835],[21.7089188,63.0787637],[21.7095985,63.078733],[21.7089576,63.0798578],[21.7085172,63.0815964],[21.7079038,63.0825003],[21.7077769,63.0831686],[21.7067836,63.0837835],[21.7056712,63.0850584],[21.7054633,63.085669],[21.7052317,63.0860143],[21.7039352,63.0879475],[21.7035057,63.0893481],[21.7027605,63.0917777],[21.7015985,63.095566],[21.7010819,63.0972498],[21.7045493,63.1005894],[21.6896895,63.1026198],[21.6867254,63.1030957],[21.6854392,63.1033022],[21.6840791,63.1036108],[21.679299,63.1042508],[21.6764214,63.1051153],[21.6680656,63.1087687],[21.6669801,63.1089569],[21.6664035,63.1090569],[21.6653526,63.1100057],[21.6542512,63.1071134],[21.6510875,63.1061819],[21.6485839,63.1053425],[21.6418266,63.10257],[21.6570008,63.0960592],[21.65764,63.0956991],[21.6568134,63.0953004],[21.6563589,63.0953085],[21.655424,63.0920069],[21.653677,63.0924646],[21.6549456,63.0907127],[21.654049,63.090582],[21.6546927,63.0895236],[21.6506677,63.088531]]]}},{"type":"Feature","id":"relation/11931939","properties":{"slug":"ristinummi","name":"Ristinummi","ref":"08","level":"suuralue","admin_level":9,"osm_relation_id":11931939,"outer_way_ids":[876338133,876338130,876338131,876338132,876338125,876338127,1540722536,876338122,1484184446,876273528,876338121,876338124,876332281,876332293,876338129,1540722538,876332290],"source":"OpenStreetMap relation 11931939; source tag: Vaasan kaupungin paikkatietopalvelut 2016","name_fi":"Ristinummi","name_en":"Ristinummi major district","name_fa":"ریستینومی","wikidata_id":"Q56399596","wikipedia_fi":"https://fi.wikipedia.org/wiki/Ristinummen_suuralue","wikipedia_fa":"https://fa.wikipedia.org/wiki/%D8%B1%DB%8C%D8%B3%D8%AA%DB%8C%D9%86%D9%88%D9%85%DB%8C"},"geometry":{"type":"Polygon","coordinates":[[[21.7045493,63.1005894],[21.7051788,63.1012541],[21.709445,63.1050846],[21.7138682,63.1095136],[21.7156107,63.1107395],[21.7155485,63.1107516],[21.7160075,63.1111407],[21.7160695,63.1111288],[21.7168554,63.112161],[21.7172749,63.114188],[21.717587,63.1148836],[21.719318,63.1166712],[21.721815,63.1160763],[21.7248539,63.1154743],[21.7254994,63.1154101],[21.7269133,63.1150431],[21.7275582,63.1149344],[21.7293792,63.1144421],[21.7308556,63.1105852],[21.736175,63.0994438],[21.7382681,63.0991355],[21.7410874,63.089053],[21.7397694,63.089039],[21.7395666,63.088661],[21.739385,63.0885429],[21.739082,63.0883553],[21.7389757,63.0881795],[21.7386672,63.0879831],[21.738475,63.0877554],[21.7384437,63.0874135],[21.7380735,63.0870376],[21.7378768,63.0869825],[21.73788,63.086839],[21.7376846,63.0867691],[21.737721,63.086676],[21.7376715,63.0865977],[21.7373272,63.0864824],[21.7373133,63.0862989],[21.7372438,63.0862013],[21.7368539,63.0861016],[21.7365372,63.0859533],[21.7363476,63.0857837],[21.7364026,63.0856063],[21.7362778,63.0854057],[21.7361415,63.0851957],[21.7359959,63.0846533],[21.7404651,63.0800789],[21.7407074,63.0795746],[21.7419115,63.0730787],[21.7431545,63.0722366],[21.7437742,63.0718328],[21.7442189,63.0714858],[21.7453426,63.0687603],[21.7472253,63.0641603],[21.7467803,63.0641006],[21.7466353,63.0640373],[21.7465198,63.0637511],[21.7465004,63.0637169],[21.7464628,63.0635955],[21.7464275,63.0633508],[21.7463793,63.0630889],[21.7462027,63.0627271],[21.7457896,63.061587],[21.7454626,63.0605228],[21.7451702,63.0600267],[21.7445209,63.0595191],[21.7441642,63.0591847],[21.7434555,63.0587087],[21.7428163,63.0584909],[21.7419936,63.058336],[21.740725,63.0581664],[21.7401689,63.0579396],[21.7397317,63.0576807],[21.7388088,63.0573826],[21.7382328,63.0570157],[21.7375294,63.0567983],[21.7368145,63.0564155],[21.7362365,63.055495],[21.735146,63.0549856],[21.7341032,63.0535984],[21.7332626,63.0532541],[21.7340445,63.0522632],[21.73479,63.0504462],[21.7351081,63.0492605],[21.7347478,63.0477546],[21.7345283,63.0456175],[21.7342552,63.0436578],[21.7340243,63.0421166],[21.7285699,63.0423732],[21.7265132,63.04247],[21.7164847,63.0429417],[21.6837987,63.0496866],[21.661644,63.0564502],[21.6495589,63.0601924],[21.648879,63.0604124],[21.6854242,63.0669381],[21.6861535,63.0673601],[21.6867398,63.0678209],[21.6868465,63.0683109],[21.6867528,63.0688658],[21.6868224,63.0694149],[21.6869778,63.069977],[21.6878359,63.0706182],[21.691917,63.0731858],[21.6961216,63.0740984],[21.6964184,63.0742537],[21.6974208,63.0747783],[21.7105408,63.0774506],[21.7117087,63.0784516],[21.7122579,63.078528],[21.7101465,63.0787076],[21.7095985,63.078733],[21.7089576,63.0798578],[21.7085172,63.0815964],[21.7079038,63.0825003],[21.7077769,63.0831686],[21.7067836,63.0837835],[21.7056712,63.0850584],[21.7054633,63.085669],[21.7052317,63.0860143],[21.7039352,63.0879475],[21.7035057,63.0893481],[21.7027605,63.0917777],[21.7015985,63.095566],[21.7010819,63.0972498],[21.7045493,63.1005894]]]}},{"type":"Feature","id":"relation/11932028","properties":{"slug":"hostvesi","name":"Höstvesi","ref":"09","level":"suuralue","admin_level":9,"osm_relation_id":11932028,"outer_way_ids":[876343895,876343893,1540722541,1484184447,876343891,1484184448,876338130,876338131,876338132,876338125,876338127,628848524],"source":"OpenStreetMap relation 11932028; source tag: Vaasan kaupungin paikkatietopalvelut 2016","name_fi":"Höstvesi","name_en":"Höstvesi major district","name_fa":"هوستوسی","wikidata_id":"Q56399600","wikipedia_fi":"https://fi.wikipedia.org/wiki/H%C3%B6stveden_suuralue","wikipedia_fa":"https://fa.wikipedia.org/wiki/%D9%87%D9%88%D8%B3%D8%AA%D9%88%D8%B3%DB%8C"},"geometry":{"type":"Polygon","coordinates":[[[21.8281536,63.0627137],[21.8288944,63.0616736],[21.8201538,63.0580863],[21.8198974,63.0581706],[21.8192427,63.0579157],[21.8203301,63.0574169],[21.8189808,63.0571594],[21.8179807,63.0571008],[21.8103266,63.0539286],[21.8018468,63.0505926],[21.7921507,63.0454949],[21.7893762,63.0443519],[21.788406,63.0441995],[21.7877297,63.0438702],[21.787987,63.0437689],[21.786815,63.0432608],[21.7867623,63.0428823],[21.785153,63.0422224],[21.785153,63.0418996],[21.7863855,63.0407536],[21.7854827,63.0403688],[21.7848963,63.0401575],[21.7804918,63.0395175],[21.7801401,63.0396029],[21.7796824,63.0404415],[21.7790241,63.0402129],[21.7775599,63.0396042],[21.7776276,63.0395145],[21.7773186,63.0393981],[21.7723225,63.0377067],[21.7703651,63.0380549],[21.7696429,63.0381415],[21.766917,63.038181],[21.7662531,63.0382567],[21.7627487,63.0388904],[21.7606492,63.0391864],[21.7552902,63.0402368],[21.7501705,63.0413375],[21.748327,63.04152],[21.7446488,63.0421066],[21.7451192,63.0427187],[21.7442701,63.0428268],[21.7375599,63.0433826],[21.7342552,63.0436578],[21.7345283,63.0456175],[21.7347478,63.0477546],[21.7351081,63.0492605],[21.73479,63.0504462],[21.7340445,63.0522632],[21.7332626,63.0532541],[21.7341032,63.0535984],[21.735146,63.0549856],[21.7362365,63.055495],[21.7368145,63.0564155],[21.7375294,63.0567983],[21.7382328,63.0570157],[21.7388088,63.0573826],[21.7397317,63.0576807],[21.7401689,63.0579396],[21.740725,63.0581664],[21.7419936,63.058336],[21.7428163,63.0584909],[21.7434555,63.0587087],[21.7441642,63.0591847],[21.7445209,63.0595191],[21.7451702,63.0600267],[21.7454626,63.0605228],[21.7457896,63.061587],[21.7462027,63.0627271],[21.7463793,63.0630889],[21.7464275,63.0633508],[21.7464628,63.0635955],[21.7465004,63.0637169],[21.7465198,63.0637511],[21.7466353,63.0640373],[21.7467803,63.0641006],[21.7472253,63.0641603],[21.7453426,63.0687603],[21.7442189,63.0714858],[21.7437742,63.0718328],[21.7431545,63.0722366],[21.7419115,63.0730787],[21.7407074,63.0795746],[21.7404651,63.0800789],[21.7359959,63.0846533],[21.7361415,63.0851957],[21.7362778,63.0854057],[21.7364026,63.0856063],[21.7363476,63.0857837],[21.7365372,63.0859533],[21.7368539,63.0861016],[21.7372438,63.0862013],[21.7373133,63.0862989],[21.7373272,63.0864824],[21.7376715,63.0865977],[21.737721,63.086676],[21.7376846,63.0867691],[21.73788,63.086839],[21.7378768,63.0869825],[21.7380735,63.0870376],[21.7384437,63.0874135],[21.738475,63.0877554],[21.7386672,63.0879831],[21.7389757,63.0881795],[21.739082,63.0883553],[21.739385,63.0885429],[21.7395666,63.088661],[21.7397694,63.089039],[21.7410874,63.089053],[21.7382681,63.0991355],[21.736175,63.0994438],[21.7308556,63.1105852],[21.7293792,63.1144421],[21.7304922,63.1144937],[21.7405284,63.1145289],[21.7410848,63.1133658],[21.7446032,63.1094464],[21.7551599,63.1126288],[21.7542089,63.1144382],[21.752947,63.1145786],[21.7524863,63.1150475],[21.7526583,63.1156846],[21.7535425,63.1157036],[21.7503978,63.121677],[21.7577964,63.124733],[21.7587031,63.1251075],[21.779966,63.1145742],[21.7808981,63.1152716],[21.7846428,63.1151244],[21.785229,63.1151849],[21.7863408,63.1149006],[21.7884208,63.114959],[21.7890771,63.1147384],[21.7898542,63.1147845],[21.7911501,63.1145526],[21.7923665,63.1134621],[21.8024025,63.1125668],[21.8035143,63.1127129],[21.8041604,63.1130889],[21.8048869,63.1129941],[21.8050374,63.1126362],[21.8048532,63.1123501],[21.8143742,63.111526],[21.800379,63.1062402],[21.8007025,63.104995],[21.8009113,63.0955947],[21.8034447,63.0952978],[21.8057389,63.095029],[21.8070894,63.0930918],[21.8252899,63.0669719],[21.827369,63.0638152],[21.8281536,63.0627137]]]}},{"type":"Feature","id":"relation/11931139","properties":{"slug":"suvilahti","name":"Suvilahti","ref":"10","level":"suuralue","admin_level":9,"osm_relation_id":11931139,"outer_way_ids":[876249659,876249658,876249656,876273526,876249652,876273531,876332292,1540722532,876332282,876338124,876338121,876273528,876273530],"source":"OpenStreetMap relation 11931139; source tag: Vaasan kaupungin paikkatietopalvelut 2016","name_fi":"Suvilahti","name_en":"Suvilahti major district","name_fa":"سووی‌لاهتی (منطقه بزرگ واسا)","wikidata_id":"Q56399599","wikipedia_fi":"https://fi.wikipedia.org/wiki/Suvilahden_suuralue","wikipedia_fa":"https://fa.wikipedia.org/wiki/%D8%B3%D9%88%D9%88%DB%8C%E2%80%8C%D9%84%D8%A7%D9%87%D8%AA%DB%8C_(%D9%85%D9%86%D8%B7%D9%82%D9%87_%D8%A8%D8%B2%D8%B1%DA%AF_%D9%88%D8%A7%D8%B3%D8%A7)"},"geometry":{"type":"Polygon","coordinates":[[[21.6060288,63.0714933],[21.6169627,63.0686547],[21.6374788,63.0633276],[21.6390398,63.0628977],[21.6487711,63.0604459],[21.648879,63.0604124],[21.6854242,63.0669381],[21.6861535,63.0673601],[21.6867398,63.0678209],[21.6868465,63.0683109],[21.6867528,63.0688658],[21.6868224,63.0694149],[21.6869778,63.069977],[21.6878359,63.0706182],[21.691917,63.0731858],[21.6961216,63.0740984],[21.6964184,63.0742537],[21.6974208,63.0747783],[21.7105408,63.0774506],[21.7117087,63.0784516],[21.7122579,63.078528],[21.7101465,63.0787076],[21.7095985,63.078733],[21.7089188,63.0787637],[21.7085072,63.0787835],[21.7062052,63.078698],[21.7030978,63.0784447],[21.7025931,63.0782125],[21.6977595,63.0774671],[21.6953429,63.0771687],[21.6945722,63.0771708],[21.6940124,63.0771723],[21.6919032,63.0772084],[21.6912407,63.0772816],[21.6905268,63.0773607],[21.6900514,63.0772916],[21.6899747,63.0772804],[21.6896378,63.0772999],[21.6884123,63.0773709],[21.6874068,63.0774292],[21.6862811,63.0774944],[21.6846472,63.077589],[21.6848278,63.0772762],[21.6805562,63.0776143],[21.6769379,63.078002],[21.6724159,63.0786197],[21.6701029,63.0790878],[21.6694303,63.0792721],[21.6674097,63.0798257],[21.6655833,63.08039],[21.6635711,63.08107],[21.6623796,63.0815124],[21.6613043,63.0819863],[21.6602975,63.0826068],[21.6594301,63.0832274],[21.65824,63.0842348],[21.6571196,63.0852422],[21.6559834,63.0861794],[21.6550074,63.0868136],[21.6541883,63.0872563],[21.6528987,63.0878408],[21.6412344,63.0815935],[21.6384035,63.0822885],[21.6380209,63.0823914],[21.6315791,63.0801974],[21.6182755,63.0756656],[21.6060288,63.0714933]]]}},{"type":"Feature","id":"relation/11931249","properties":{"slug":"sundom","name":"Sundom","ref":"11","level":"suuralue","admin_level":9,"osm_relation_id":11931249,"outer_way_ids":[876283921,876283919,876249647,876249660,876249659,876283920,876273529,137751605,876283916,1484184443,1484184445,137751341,137751428,876283922],"source":"OpenStreetMap relation 11931249; source tag: Vaasan kaupungin paikkatietopalvelut 2016","name_fi":"Sundom","name_en":"Sundom","name_fa":"منطقه بزرگ سوندوم","wikidata_id":"Q10683791","wikipedia_fi":"https://fi.wikipedia.org/wiki/Sundom","wikipedia_fa":"https://fa.wikipedia.org/wiki/%D9%85%D9%86%D8%B7%D9%82%D9%87_%D8%A8%D8%B2%D8%B1%DA%AF_%D8%B3%D9%88%D9%86%D8%AF%D9%88%D9%85"},"geometry":{"type":"Polygon","coordinates":[[[21.5348571,63.089964],[21.5342775,63.0900644],[21.4633339,63.1023455],[21.2866903,63.1342875],[21.238927,63.129725],[21.2020133,63.1259921],[21.2016554,63.1258603],[21.2007492,63.1256878],[21.2003136,63.1257108],[21.199932,63.1257877],[21.0953351,63.1151989],[21.0370621,63.1092607],[21.0276273,63.1082992],[21.0509617,63.1029886],[21.0952627,63.0929903],[21.1941014,63.0706516],[21.2528696,63.0577683],[21.2569512,63.0568194],[21.2927908,63.0484792],[21.3008464,63.0465992],[21.3011442,63.0465295],[21.3018908,63.046368],[21.3021556,63.0462923],[21.3025836,63.0461918],[21.3110382,63.044209],[21.3165913,63.0429064],[21.3226305,63.0414893],[21.3323722,63.0392025],[21.3337412,63.038881],[21.3352358,63.0385301],[21.337177,63.0380742],[21.3389782,63.0376563],[21.3400917,63.037394],[21.3404759,63.0373046],[21.3412602,63.0371197],[21.342074,63.0369266],[21.3495714,63.0351337],[21.3495966,63.0351277],[21.3503711,63.0349272],[21.3514591,63.0346456],[21.3515047,63.0346339],[21.3520915,63.0344837],[21.3537665,63.0348821],[21.3593724,63.0362163],[21.372207,63.0392706],[21.373783,63.0406598],[21.3741151,63.0407341],[21.3742074,63.0408033],[21.3742309,63.040883],[21.3739494,63.0410773],[21.3742051,63.041237],[21.3749578,63.041209],[21.3779214,63.0418177],[21.3784859,63.0418498],[21.3793053,63.0418176],[21.3728951,63.0352495],[21.3674329,63.0296517],[21.367476,63.0296238],[21.3678864,63.0294271],[21.3679708,63.0289119],[21.368947,63.0284571],[21.3687754,63.0280944],[21.3692931,63.0280637],[21.3689783,63.0278113],[21.3680705,63.0277567],[21.3682489,63.026689],[21.3792412,63.0252885],[21.379592,63.0246625],[21.3798931,63.0244307],[21.3817779,63.0245932],[21.3844382,63.0237929],[21.3812274,63.0199267],[21.398154,63.0170788],[21.4203869,63.0180753],[21.4214413,63.0188949],[21.4233158,63.0196062],[21.4234955,63.0196143],[21.4238197,63.0197257],[21.4248606,63.020182],[21.4259378,63.0198424],[21.4292843,63.0192744],[21.4295376,63.0190243],[21.4293649,63.0184821],[21.4363203,63.0169831],[21.4712218,63.0094604],[21.4752547,63.0086636],[21.4962236,63.0047113],[21.51447,62.9971075],[21.5199576,62.994766],[21.5263234,62.9921577],[21.5271655,62.9919906],[21.5284862,62.9916009],[21.5303485,62.9905021],[21.5336837,62.9891414],[21.5340573,62.9886935],[21.5338108,62.9880949],[21.5342014,62.9878324],[21.5353879,62.987234],[21.5361156,62.9867438],[21.5361701,62.9866236],[21.5359375,62.9863922],[21.5370377,62.9865005],[21.5372846,62.9866123],[21.537407,62.9867767],[21.5379627,62.9866266],[21.54031,62.9855438],[21.5423756,62.9855638],[21.5480282,62.9832102],[21.5504812,62.9822362],[21.5516437,62.9818566],[21.5519276,62.9824835],[21.552603,62.9822162],[21.5630848,62.984832],[21.5577313,62.9889807],[21.5610117,62.9924706],[21.5939333,63.0283374],[21.5956817,63.0306239],[21.5956471,63.0309509],[21.5964637,63.0307499],[21.6085674,63.0376107],[21.6123701,63.040971],[21.6219667,63.0494494],[21.6267907,63.0538364],[21.6271329,63.0537036],[21.6276203,63.0538272],[21.6274091,63.0539795],[21.6280336,63.0542882],[21.6276427,63.054366],[21.6275343,63.0545528],[21.6285065,63.0552772],[21.629317,63.0553436],[21.6294978,63.0556602],[21.6291101,63.055834],[21.6291664,63.0559617],[21.6374788,63.0633276],[21.6169627,63.0686547],[21.6060288,63.0714933],[21.5913485,63.0753042],[21.5460008,63.0870728],[21.5425446,63.0879695],[21.5348571,63.089964]]]}},{"type":"Feature","id":"relation/2249140","properties":{"slug":"vahakyro","name":"Vähäkyrö","ref":"12","level":"suuralue","admin_level":9,"osm_relation_id":2249140,"outer_way_ids":[1540722544,168892186,1484822104,137751340,1484822105,1540722547,1484822116,1484184451,137751617,1540722545,165724520,168901458,168901461,168901448,168901460,168901443,168901456,168901441,168901451,168901440,168901447,168901450,168901462,168901449,168901439,168901446,168901442,168901457,168901459,168901444,168901445,1484822095,1484822094],"source":"OpenStreetMap relation 2249140","name_fi":"Vähäkyrö","name_en":"Vähäkyrö","name_fa":"وهه‌کورو (شهرداری پیشین)","wikidata_id":"Q1542740","wikipedia_fi":"https://fi.wikipedia.org/wiki/V%C3%A4h%C3%A4kyr%C3%B6","wikipedia_fa":"https://fa.wikipedia.org/wiki/%D9%88%D9%87%D9%87%E2%80%8C%DA%A9%D9%88%D8%B1%D9%88_(%D8%B4%D9%87%D8%B1%D8%AF%D8%A7%D8%B1%DB%8C_%D9%BE%DB%8C%D8%B4%DB%8C%D9%86)"},"geometry":{"type":"MultiPolygon","coordinates":[[[[21.9121058,63.0487646],[21.9397082,63.0344799],[21.9559731,63.0313661],[21.9579258,63.0312688],[21.9582817,63.0312457],[21.9594278,63.0311715],[21.9623193,63.0309951],[21.9650835,63.0308264],[21.9763365,63.0301399],[21.9804349,63.0291862],[21.9839539,63.0277945],[21.9858637,63.0262373],[21.9877949,63.0266753],[21.9870868,63.0276388],[21.9897261,63.0269867],[21.9933309,63.0258091],[21.9942085,63.025509],[22.0039739,63.0221687],[22.0179429,63.0205041],[22.0199385,63.0201147],[22.0218267,63.0188589],[22.0232,63.0191607],[22.0258543,63.0173722],[22.0256462,63.017311],[22.0259785,63.0169824],[22.0249488,63.0167804],[22.0287082,63.0142078],[22.0301094,63.013263],[22.0316541,63.0122211],[22.0424797,63.0048708],[22.042072,63.0039114],[22.042748,63.0036338],[22.043971,63.0038871],[22.045789,63.002509],[22.0441261,63.0014911],[22.0428815,63.0017492],[22.0392825,63.0017295],[22.0380321,63.0015009],[22.0396414,63.000215],[22.0405271,63.0003511],[22.0412137,63.0003073],[22.0423617,62.9997764],[22.0468678,62.9982664],[22.0475545,62.9974432],[22.0471039,62.997375],[22.0469751,62.9972873],[22.0467605,62.9969171],[22.0460954,62.99624],[22.0467927,62.9957138],[22.0477953,62.9944377],[22.0471516,62.9942526],[22.0529948,62.98952],[22.055711,62.989824],[22.0560575,62.9898759],[22.0565136,62.9899637],[22.056628,62.9899845],[22.0570055,62.9900531],[22.0574733,62.9901057],[22.0580446,62.9901391],[22.0588387,62.9901941],[22.0592362,62.9902294],[22.0596385,62.99028],[22.0605636,62.9904301],[22.0614526,62.9905497],[22.0614966,62.9904736],[22.062135,62.9905651],[22.0620929,62.9906267],[22.0627513,62.9907204],[22.0636204,62.9908227],[22.0643714,62.9908958],[22.0650902,62.9909445],[22.0662256,62.991031],[22.0670431,62.9899869],[22.0657396,62.9895923],[22.0659759,62.989407],[22.0651712,62.98929],[22.0681109,62.9880451],[22.0695572,62.9874351],[22.069613,62.9874116],[22.0734163,62.9857986],[22.0749667,62.9851432],[22.0771768,62.9842075],[22.0787593,62.9835423],[22.080374,62.9828575],[22.0821067,62.9821265],[22.0834693,62.9815441],[22.0854273,62.9806936],[22.0861086,62.9804133],[22.0862856,62.980328],[22.0863982,62.9802963],[22.0865216,62.9802378],[22.087042,62.9800112],[22.0873102,62.9799113],[22.087514,62.9798455],[22.0919611,62.9779421],[22.0932486,62.9773815],[22.1002438,62.9744273],[22.1031363,62.9732117],[22.1044114,62.9726043],[22.1095672,62.9712925],[22.1127107,62.9704539],[22.1146741,62.9698932],[22.1130004,62.9687815],[22.1144595,62.9682841],[22.1163049,62.9693276],[22.1179786,62.9686693],[22.1176352,62.9678404],[22.1214654,62.9672943],[22.1248128,62.9667725],[22.123976,62.964461],[22.1273711,62.9630616],[22.1288469,62.9636902],[22.1302948,62.9642991],[22.1312024,62.9636608],[22.1327232,62.9623462],[22.1328106,62.961101],[22.136754,62.9597107],[22.1375528,62.9594378],[22.1389046,62.9602426],[22.1418418,62.9619092],[22.1432021,62.9626712],[22.1440096,62.963098],[22.1432172,62.9634837],[22.1417152,62.9636788],[22.141683,62.9641519],[22.1406852,62.9646785],[22.1408354,62.9647419],[22.1379065,62.9658343],[22.138797,62.9667657],[22.1393613,62.966665],[22.140181,62.9666584],[22.1408311,62.967021],[22.143861,62.9662537],[22.1437,62.9656295],[22.1454059,62.9656441],[22.1457922,62.9643616],[22.1476869,62.9645242],[22.1498434,62.9660018],[22.1506952,62.9665999],[22.152708,62.9679767],[22.1522788,62.9685033],[22.1636771,62.976234],[22.1647779,62.9762698],[22.1645032,62.9771846],[22.1637479,62.979058],[22.1600722,62.9797826],[22.1588663,62.9806226],[22.1586517,62.9808956],[22.1582483,62.9814203],[22.1582226,62.9815779],[22.1586303,62.981846],[22.1592633,62.9820702],[22.162085,62.9832399],[22.1596602,62.9896723],[22.16054,62.9897308],[22.159263,62.9929753],[22.1584211,62.9951141],[22.1545874,62.9961962],[22.154056,62.9963462],[22.1491916,62.9977496],[22.1524778,63.0009524],[22.1528426,63.0009183],[22.1531108,63.0007973],[22.153474,63.0006612],[22.1537074,63.0006234],[22.154696,63.0006624],[22.1548099,63.0003804],[22.1549937,63.0001225],[22.1552657,62.9999607],[22.1555237,62.99997],[22.1554572,63.0001551],[22.1552437,63.0006638],[22.1554288,63.0006694],[22.1556176,63.000979],[22.1557727,63.0010844],[22.1553249,63.0014373],[22.1551211,63.0016224],[22.1551595,63.0020108],[22.1553998,63.0023028],[22.155518,63.0025868],[22.1557219,63.0028644],[22.1564927,63.0034269],[22.1533431,63.0037748],[22.1534617,63.0042302],[22.152941,63.0048528],[22.1526105,63.0052992],[22.1535893,63.0054528],[22.1535436,63.0055047],[22.153486,63.0055697],[22.1543424,63.005707],[22.1543823,63.0057145],[22.1539141,63.006281],[22.1535325,63.0067712],[22.1534475,63.0068738],[22.151484,63.0091542],[22.1550578,63.0100068],[22.1560448,63.0101918],[22.1572786,63.010372],[22.1587592,63.0105278],[22.1602612,63.0106008],[22.1604007,63.0111157],[22.1608771,63.0128108],[22.1651552,63.0186733],[22.1661514,63.0187991],[22.1686941,63.0190035],[22.1722288,63.0192729],[22.1728462,63.0193199],[22.1729953,63.0193601],[22.1832099,63.0250733],[22.1949129,63.0315722],[22.1979937,63.0340547],[22.198219,63.0342883],[22.1974465,63.0347959],[22.1972319,63.0353926],[22.197307,63.0357203],[22.1979937,63.0357251],[22.1997103,63.0357397],[22.2010192,63.0373013],[22.2018131,63.0372526],[22.2037551,63.0388708],[22.2073385,63.0413191],[22.2080895,63.0417065],[22.2126278,63.0446604],[22.2423226,63.0637265],[22.2385487,63.0651288],[22.2325874,63.0674392],[22.2288658,63.0688236],[22.2199824,63.0721278],[22.2181166,63.073112],[22.2049657,63.0800484],[22.19245,63.0869223],[22.1805535,63.0920615],[22.170005,63.0966176],[22.1710839,63.0970044],[22.169311,63.0977288],[22.1674433,63.0977217],[22.165084,63.0987376],[22.1654527,63.0989042],[22.1641785,63.0991276],[22.1597123,63.1010615],[22.1598111,63.1011525],[22.1587332,63.1016846],[22.1576006,63.1025372],[22.1551338,63.1033119],[22.1544281,63.1033491],[22.1494482,63.1054945],[22.1480212,63.1060077],[22.1482526,63.1061682],[22.1479189,63.1064966],[22.1461126,63.1072074],[22.1457502,63.1070596],[22.1396794,63.1096585],[22.1415913,63.1096602],[22.1418508,63.1098124],[22.1415844,63.1099896],[22.1395718,63.110248],[22.1389878,63.1099575],[22.1320526,63.11293],[22.1318736,63.1129628],[22.128862,63.1151335],[22.1277493,63.115491],[22.12723,63.1158432],[22.1277947,63.1159205],[22.1249024,63.1179092],[22.1246047,63.1178981],[22.123133,63.1176475],[22.1224687,63.1180083],[22.1225664,63.1181251],[22.1233526,63.1182669],[22.124007,63.1185354],[22.1133815,63.1261049],[22.1104662,63.1270271],[22.1111209,63.1274925],[22.1059591,63.1289259],[22.1051963,63.128693],[22.0979291,63.1310112],[22.0862402,63.1333022],[22.0744644,63.1334112],[22.0714066,63.1376255],[22.0628332,63.1374916],[22.0537104,63.1374053],[22.0513373,63.137084],[22.050677,63.136981],[22.0494111,63.1367925],[22.0406155,63.1356482],[22.0372141,63.1351496],[22.030185,63.1342277],[22.0327027,63.1318174],[22.0336506,63.1314892],[22.0275081,63.1282724],[22.023848,63.1313512],[22.024178,63.1314334],[22.0236996,63.1317196],[22.0234667,63.1316689],[22.0228314,63.1322073],[22.0115665,63.1282792],[21.9929492,63.126574],[21.9911055,63.1264052],[21.9870324,63.1260321],[21.9884791,63.1255736],[22.0049923,63.1203397],[21.9982357,63.1194506],[21.9895112,63.1140929],[21.9873005,63.1127352],[21.9719258,63.1029767],[21.9571321,63.093767],[21.956577,63.0935452],[21.9559656,63.0933802],[21.9553037,63.0936628],[21.9542293,63.0932618],[21.9542143,63.0927442],[21.9547058,63.0922752],[21.938996,63.0825662],[21.9372713,63.0815001],[21.9359026,63.0820993],[21.9351419,63.0823512],[21.9299599,63.0790162],[21.9300548,63.0785076],[21.9301538,63.0779769],[21.9299954,63.0775743],[21.9295894,63.0773717],[21.9253449,63.0775824],[21.9236475,63.0777627],[21.9225534,63.0778026],[21.9224475,63.0775927],[21.9220633,63.0776089],[21.9231034,63.079646],[21.9159947,63.0820013],[21.9111404,63.0792181],[21.9116433,63.0790237],[21.9137396,63.0776493],[21.9136167,63.0771387],[21.9131776,63.0771451],[21.9128053,63.0769374],[21.9147923,63.0765805],[21.9165763,63.0764447],[21.9163977,63.0757235],[21.9160061,63.0755316],[21.9153805,63.0754593],[21.9134171,63.0759457],[21.9110478,63.0754164],[21.9104658,63.0740761],[21.9110627,63.0741198],[21.9090153,63.0725329],[21.9087236,63.0711455],[21.9077247,63.0710151],[21.9066232,63.0713106],[21.9061302,63.0705326],[21.9046408,63.0686573],[21.9038128,63.0681108],[21.9050904,63.0677203],[21.9062292,63.0674348],[21.9062521,63.0671337],[21.9068615,63.0661462],[21.9060064,63.0649188],[21.907201,63.0645963],[21.9082033,63.0613271],[21.9082575,63.0611504],[21.9107849,63.0529047],[21.9102608,63.0532014],[21.9085032,63.0543308],[21.9051674,63.0537998],[21.900903,63.053121],[21.8937316,63.055121],[21.8927605,63.0538854],[21.8903108,63.0527864],[21.8899942,63.0520075],[21.8896917,63.0515477],[21.8926246,63.0509468],[21.8987862,63.0496842],[21.9006012,63.0508045],[21.9019371,63.0505568],[21.9062291,63.0515941],[21.9081002,63.051854],[21.9108097,63.0528507],[21.9111391,63.0518122],[21.9121058,63.0487646]]],[[[21.8610274,63.0558384],[21.8610319,63.0555953],[21.8602356,63.0546962],[21.8580251,63.0551077],[21.8574273,63.0542425],[21.8579958,63.0541264],[21.8588609,63.053869],[21.8590602,63.0535987],[21.8589887,63.0533344],[21.8586202,63.0529574],[21.8587081,63.052573],[21.8586739,63.0522807],[21.8586725,63.0522383],[21.8584918,63.0518914],[21.8583308,63.0518541],[21.8621139,63.0511229],[21.8652941,63.050541],[21.8660815,63.0513047],[21.8667475,63.0511385],[21.8670448,63.0512012],[21.8673263,63.0512351],[21.8675275,63.0514823],[21.8680851,63.0518316],[21.8682009,63.052424],[21.868338,63.0527416],[21.8685605,63.0527333],[21.8688858,63.0530235],[21.86908,63.0530291],[21.8689901,63.0532567],[21.8700322,63.0536198],[21.8707028,63.0541168],[21.8616601,63.0556738],[21.8610274,63.0558384]]]]}}]}
